LicNumber,LicName,LicPhone,LicFax,StoreAddress1,StoreAddress2,StoreAddress3,MailingAddress11,MailingAddress21,MailingAddress31,StoreCity,StorePC
77668900,ACHESON LIQUOR,(780) 571-0045,NOFAX,104-9817 266 STREET, , ,104-9817 266 STREET, , ,ACHESON,T7X 6H6
74259300,HORSEMAN LIQUOR STORE,(403) 948-2800,(403) 948-2801,521 3 AVENUE NE, , ,521 3 AVENUE NE, , ,AIRDRIE,T4B 1R8
76052600,CO-OP WINE SPIRITS BEER - AIRDRIE,(403) 912-3708,(403) 913-3709,900-2700 MAIN STREET SE, , ,900-2700 MAIN STREET SE, , ,AIRDRIE,T4B 2Y1
76572700,REAL CANADIAN LIQUOR STORE,(403) 945-2340,(403) 945-2339,300 VETERANS BOULEVARD NE, , ,300 VETERANS BOULEVARD NE, , ,AIRDRIE,T4B 3P2
76650000,LIQUOR DEPOT AT TOWERLANE,(403) 945-1416,(403) 945-1416,TOWER LANE II,700-705 MAIN STREET SOUTH, ,101-17220 STONY PLAIN ROAD, , ,AIRDRIE,T4B 2B9
76872400,S & S LIQUOR #2,(403) 912-1178,(403) 912-1164,404-3 STONEGATE DRIVE NW, , ,404-3 STONEGATE DRIVE NW, , ,AIRDRIE,T4B 0N2
76911700,EVEREST WINE & SPIRITS,(403) 912-7844,(403) 912-7843,3-905 1 AVENUE NW, , ,25 CANALS COVE SW, , ,AIRDRIE,T4B 2X7
77000600,SOBEYS LIQUOR (AIRDRIE),(403) 945-9720,(403) 945-4319,5105 35 MACKENZIE WAY SW, , ,1020 64 AVENUE NE, , ,AIRDRIE,T4B 0V7
77055500,EAST AIRDRIE LIQUOR STORE,(403) 945-0807,(403) 945-0837,E1-1861 MEADOWBROOK DRIVE, , ,113 PARK DRIVE, , ,AIRDRIE,T4A 1V3
77107100,SIERRA SPRINGS LIQUOR,(403) 948-4202,NOFAX,101-2958 MAIN STREET, , ,101-2958 MAIN STREET, , ,AIRDRIE,T4B 3G4
77122400,ENJOY LIQUOR,(403) 945-0920,(403) 945-0921,301-800 VETERANS BOULEVARD NW, , ,137 ROYAL CREST BAY NW, , ,AIRDRIE,T4B 3G9
77183500,MALWA LIQUOR,(587) 775-0166,NOFAX,102-2914 KINGSVIEW BOULEVARD SE, , ,58 SAN DIEGO WAY NE, , ,AIRDRIE,T4A 0E1
77216500,EAST LAKE WINE AND SPIRITS,(403) 948-5003,NOFAX,10-805 EAST LAKE BOULEVARD NE, , ,10-805 EAST LAKE BOULEVARD NE, , ,AIRDRIE,T4A 2G4
77287600,BIG STAR LIQUOR,(587) 360-4600,NOFAX,102-85 RAILWAY AVENUE SW, , ,144 KINNIBURGH BOULEVARD, , ,AIRDRIE,T4B 3W9
77373800,SOBEYS LIQUOR (SIERRA SPRINGS),(587) 775-2899,NOFAX,SPRINGS,121-2917 MAIN STREET SW, ,1020 64 AVENUE NE, , ,AIRDRIE,T4B 3G4
77378300,SOBEYS LIQUOR (KINGSVIEW),(587) 775-7904,NOFAX,1100 MARKET STREET SE, , ,1020 64 AVENUE NE, , ,AIRDRIE,T4A 0K9
77428000,STAR LIQUOR & WINE BOUTIQUE,-,NOFAX,609-800 YANKEE VALLEY BOULEVARD SW, , ,106-2323 32 AVENUE NE, , ,AIRDRIE,T4B 3Y2
77589600,BIGGIE'S LIQUOR,(403) 980-6663,NOFAX,3-2145 SUMMERFIELD BOULEVARD SE, , ,86 THORNFIELD PLACE SE, , ,AIRDRIE,T4B 1X5
77603900,SIPS LIQUOR CO-OP WSB,(403) 980-0509,NOFAX,302-1 MIDTOWN BOULEVARD SW, , ,302-1 MIDTOWN BOULEVARD SW, , ,AIRDRIE,T4B 4E7
77608700,PLATINA LIQUOR,-,NOFAX,113-513 CENTRE AVENUE EAST, , ,25 TARADALE CLOSE NE, , ,AIRDRIE,T4B 1P9
77612800,THUMBPRINT CRAFT BEER MARKET,(403) 463-5272,NOFAX,6112-403 MACKENZIE WAY SW, , ,1116 WILLIAMSTOWN BOULEVARD NW, , ,AIRDRIE,T4B 0V7
77623900,CORKSCREW CHARLIE WINE & SPIRITS,(403) 764-1300,NOFAX,1-128 EDMONTON TRAIL SE, , ,408 CORNERSTONE PASSAGE NE, , ,AIRDRIE,T4B 1S2
77643700,AIRDRIE LIQUOR STORE II INC.,(403) 616-9793,NOFAX,301-960 YANKEE VALLEY BOULEVARD SE, , ,504B EAST LAKE BOULEVARD NE, , ,AIRDRIE,T4A 2E4
77644200,AIRDRIE LIQUOR ON THE WAY,(403) 616-9793,NOFAX,504B EAST LAKE BOULEVARD NE, , ,504B EAST LAKE BOULEVARD NE, , ,AIRDRIE,T4A 2G5
77682000,TITAN LIQUOR,(403) 918-8510,NOFAX,105-3 KINGSVIEW ROAD SE, , ,105-3 KINGSVIEW ROAD SE, , ,AIRDRIE,T4A 0J7
77694100,PETER'S LIQUOR HUB,(587) 775-3388,NOFAX,112-400 MAIN STREET NE, , ,50 COVEWOOD MANOR NE, , ,AIRDRIE,T4B 2N1
77741600,HIGHLANDER WINE & SPIRITS - AIRDRIE,(403) 640-7759,NOFAX,7 COOPER'S CLOSE, , ,6045 4 STREET SE, , ,AIRDRIE,T4B 4J4
77929500,AIRDRIE LIQUOR STORE II,(403) 948-7011,NOFAX,301-960 YANKEE VALLEY BOULEVARD SE, , ,36 NOLANFIELD POINT NW, , ,AIRDRIE,T4A 2E4
75591400,LIQUOR COTTAGE,(780) 924-3385,(780) 924-2334,4720 47 STREET, , ,200 NELSON DRIVE, , ,ALBERTA BEACH,T0E 0A0
77892800,BEACH FRONT LIQUOR,(587) 785-1583,NOFAX,C-5027 50 AVENUE, , ,SITE 112 COMP 10 RR 1, , ,ALBERTA BEACH,T0E 0A1
77729500,SPIRITS OF THE WEST,(780) 838-9263,NOFAX,SPIRITS OF THE WEST LIQUOR STORE, , ,PO BOX 551, , ,ALDER FLATS,T0C 0A0
76177000,ALIX HWY 12 LIQUOR STORE,(403) 747-3592,(403) 747-3592,4-4532 51 AVENUE, , ,PO BOX 176, , ,ALIX,T0C 0B0
76913200,MRS. T'S LIQUOR & COLD BEER STORE,(780) 879-0003,(780) 879-0004,111 MAIN STREET, , ,PO BOX 165, , ,ALLIANCE,T0B 0A0
77576800,TRADING POST LIQUOR,(780) 385-5777,NOFAX,219 MAIN STREET, , ,219 MAIN STREET, , ,ALLIANCE,T0B 0A0
77259200,6S SPIRITS & SUDS,(780) 334-2394,NOFAX,3-232 STONY MOUNTAIN ROAD, , ,PO BOX 5271, , ,ANZAC,T0P 1J0
77672000,ANZAC LIQUOR STATION,(780) 334-2197,NOFAX,102 GILLMORE DRIVE, , ,102 GILLMORE DRIVE, , ,ANZAC,T0P 1J0
77603500,GENERAL SPIRITS & SUDS,(780) 812-0401,NOFAX,4828 50 STREET, , ,PO BOX 82, , ,ARDMORE,T0A 0B0
77399700,COUNTRY BOYZ LIQUOR STORE,(780) 922-0651,NOFAX,52404 RANGE ROAD 221, , ,52404 RANGE ROAD 221, , ,ARDROSSAN,T8E 2G7
77448700,MAINSTREET LIQUOR STORE,(780) 726-2044,NOFAX,28 MAIN STREET, , ,PO BOX 98, , ,ASHMONT,T0A 0C0
76870700,WHISKEY STORE,(780) 675-1154,(780) 675-1164,4808 50 STREET, , ,11478 149 STREET NW, , ,ATHABASCA,T9S 1C9
76891300,ATHABASCA LIQUOR STORE,(780) 675-2163,(780) 675-2129,4710 50 AVENUE, , ,11478 149 STREET NW, , ,ATHABASCA,T9S 1C1
77634300,LANDING LIQUOR STORE,(780) 675-9575,NOFAX,4921 50 STREET, , ,4921 50 STREET, , ,ATHABASCA,T9S 1E1
77977000,LIME AND LEMON LIQUOR STORE,(587) 591-8589,NOFAX,2806 48 AVENUE, , ,2806 48 AVENUE, , ,ATHABASCA,T9S 0B1
71803500,BANFF WINE STORE,(403) 762-3465,(403) 762-3528,302 CARIBOU STREET, , ,PO BOX 2377 STN MAIN, , ,BANFF,T1L 1C1
76474700,LIQUOR DEPOT AT CASCADE,(403) 762-2518,(403) 762-4138,202 WOLF STREET, , ,101-17220 STONY PLAIN ROAD, , ,BANFF,T0L 0C0
76529400,SIDE STREET LIQUOR STORE,(403) 760-7666,(403) 760-8666,KIRBY LANE MALL,3-119 BANFF AVENUE, ,PO BOX 119 STN MAIN, , ,BANFF,T1L 1A8
76751200,TUNNEL MOUNTAIN BEER & WINE,(403) 762-3306,NOFAX,800 TUNNEL MOUNTAIN ROAD, , ,BOX 2770, , ,BANFF,T1L 1B5
77172600,A LIQUOR STORE,(403) 762-8246,(403) 762-3303,304 CARIBOU STREET, , ,PO BOX 5555, , ,BANFF,T1L 1B5
77246900,NESTERS MARKET LIQUOR STORE,(403) 762-2155,(403) 760-6611,FAIRMONT BANFF SPRINGS HOTEL,405 SPRAY AVENUE, ,19580 TELEGRAPH TRAIL, , ,BANFF,T1L 1A4
77275400,PARK AVENUE WINE & SPIRITS,(403) 480-4040,NOFAX,PARK AVENUE MALL,211 BANFF AVENUE, ,BOX 3382,211 BANFF AVENUE, ,BANFF,T1L 1B4
77389500,BANFF AVENUE LIQUOR STORE,(403) 431-2974,NOFAX,449 BANFF AVENUE, , ,PO BOX 519, , ,BANFF,T1L 1A6
77434500,TOWNHOUSE LIQUOR,(403) 762-8434,NOFAX,226 BEAR STREET, , ,PO BOX 1842, , ,BANFF,T1L 1B7
77624600,BANFF VOYAGER INN,(403) 762-3301,(403) 760-7792,555 BANFF AVENUE, , ,PO BOX 2109, , ,BANFF,T1L 1B5
74558300,BACK DOOR LIQUOR STORE,(780) 674-3778,(780) 674-7574,C-5201 49 STREET, , ,PO BOX 4708 STN MAIN, , ,BARRHEAD,T7N 1G3
77153200,LIQUOR PLANET,(780) 674-2138,(780) 674-3742,5131 49 STREET, , ,STATION MAIN,PO BOX 4037, ,BARRHEAD,T7N 1A3
77291300,SOBEYS LIQUOR (BARRHEAD),(780) 674-6432,NOFAX,4905 50 AVENUE, , ,1020 64 AVENUE NE, , ,BARRHEAD,T7N 1A4
77395200,BARRHEAD LIQUOR STORE,(780) 674-4850,NOFAX,5709 49 STREET, , ,PO BOX 4148 STATION MAIN, , ,BARRHEAD,T7N 1A1
77754500,PEMBINA WEST CO-OP LIQUOR STORE,(780) 674-2201,NOFAX,4709-49 STREET, , ,PO BOX 4040, , ,BARRHEAD,T7N 1A1
76886200,BASHAW LIQUOR TOWN,(780) 372-0000,(780) 372-2432,5005 50 STREET, , ,PO BOX 158, , ,BASHAW,T0B 0H0
77779600,BASHAW LIQUOR STORE,(780) 372-3860,(780) 372-2433,4520 50 STREET, , ,PO BOX 628, , ,BASHAW,T0B 0H0
77296700,BASSANO LIQUOR STORE,(403) 641-3555,(403) 641-3211,326 2 AVENUE, , ,PO BOX 1176, , ,BASSANO,T0J 0B0
76794400,SOBEYS LIQUOR (BEAUMONT),(780) 929-0164,(780) 929-0173,6100 50 STREET, , ,1020 64 AVENUE NE, , ,BEAUMONT,T4X 1T8
76870200,GREAT CANADIAN LIQUOR,(780) 929-5299,(780) 929-5344,BEAU VILLAGE MALL,5015A 52 AVENUE, ,11478 149 STREET NW, , ,BEAUMONT,T4X 1E5
77269700,GREAT CANADIAN LIQUOR,(780) 929-6800,NOFAX,109-5001 30 AVENUE, , ,11478 149 STREET NW, , ,BEAUMONT,T4X 1T9
77558500,ROAD KING LIQUOR,(780) 929-0880,NOFAX,1-6002 30 AVENUE, , ,2625 45 STREET NW, , ,BEAUMONT,T4X 0H5
77977800,SUPER VALUE LIQUOR,(780) 298-0204,NOFAX,4924 50 AVENUE, , ,929 WILDWOOD WAY NW, , ,BEAUMONT,T4X 1J9
78051000,SOLO LIQUOR AT BEAUMONT,(780) 917-4180,NOFAX,106-6306 50 STREET, , ,101-17220 STONY PLAIN ROAD, , ,BEAUMONT,T4X 0B6
74151300,MYRTLES LIQUOR OUTLET,(780) 354-2366,(780) 354-2392,HIGHWAY 2, , ,PO BOX 150, , ,BEAVERLODGE,T0H 0C0
77174200,BEAVER LIQUOR PLUS,(780) 354-3852,(780) 354-8212,310 1 AVENUE, , ,PO BOX 778, , ,BEAVERLODGE,T0H 0C0
74202400,BEISEKER LIQUOR STORE,(403) 947-3875,(403) 947-3777,701 1 AVENUE, , ,PO BOX 350, , ,BEISEKER,T0M 0G0
77147200,1565473 LIQUOR STORE,(403) 947-2092,NOFAX,500A 1 AVENUE, , ,PO BOX 330, , ,BEISEKER,T0G 0G0
77633400,BLUE LIGHT LIQUOR STORE,(403) 318-4449,NOFAX,A-5002 50 AVENUE, , ,PO BOX 1062, , ,BENTLEY,T0C 0J0
75799800,BERWYN OLD WEST LIQUOR,(780) 338-3800,(780) 338-2229,5115 51 STREET, , ,PO BOX 359, , ,BERWYN,T0H 0E0
76214800,BLACK DIAMOND LIQUOR AND COLD BEER,(403) 933-2757,(403) 271-7969,101 CENTRE AVENUE SE, , ,264 MAHOGANY BAY, , ,BLACK DIAMOND,T0L 0H0
77284200,ECO LIQUOR,(403) 933-7773,NOFAX,9-402 CENTRE AVENUE W, , ,244 WHITWORTH WAY NE, , ,BLACK DIAMOND,T0L 0H0
76963900,2A LIQUOR MART,(403) 885-6055,(403) 885-2100,5041 PARKWOOD ROAD, , ,PO BOX 151, , ,BLACKFALDS,T0M 0J0
77021300,PONY EXPRESS LIQUOR STORE,(403) 885-0202,(403) 885-0202,4-5009 PARKWOOD ROAD, , ,45 COACHILL STREET, , ,BLACKFALDS,T0M 0J0
77036300,BROADWAY LIQUOR,(403) 358-4763,NOFAX,501 BROADWAY AVENUE, , ,PO BOX 1477, , ,BLACKFALDS,T0M 0J0
77763100,LIQUOR EVOLUTION,(403) 358-4763,NOFAX,105-5001 ASPEN LAKE BOULEVARD, , ,PO BOX 1477, , ,BLACKFALDS,T0M 0J0
77780600,DIAMOND LIQUOR (BLACKFALDS) INC.,(403) 896-5302,NOFAX,300-6017 PARKWOOD ROAD, , ,BOX 158, , ,BLACKFALDS,T0M 2K0
76163700,3LK LIQUOR STORE,(780) 648-0000,(780) 648-0000,HIGHWAY 43, , ,PO BOX 755 STN MAIN, , ,BLUE RIDGE,T0E 0B0
76968500,COTTONWOOD LIQUOR STORE,(780) 648-0000,NOFAX,HIGHWAY 43, , ,PO BOX 755, , ,BLUE RIDGE,T0E 0B0
78032300,REDNEXS LIQUOR STORE,(780) 219-0125,NOFAX,1-4706 51 SREET, , ,PO BOX 750, , ,BON ACCORD,T0A 0K0
76815600,SONNY'S COLD BEER & LIQUOR STORE,(780) 826-2230,(780) 826-6080,5411 50 AVENUE, , ,5411 50 AVENUE, , ,BONNYVILLE,T9N 1Z7
77530700,SOBEYS LIQUOR (BONNYVILLE),(780) 826-4636,NOFAX,4804 50 AVENUE, , ,1020 64 AVENUE NE, , ,BONNYVILLE,T9N 1A3
77663600,BONNYVILLE LIQUOR MART,(780) 826-1888,NOFAX,4606 50 AVENUE, , ,979 COPPERFIELD BOULEVARD SE, , ,BONNYVILLE,T9N 1A4
77679800,BUFFALO TRAIL LIQUOR,(780) 812-2769,NOFAX,101-6608 50 AVENUE, , ,101-6608 50 AVENUE, , ,BONNYVILLE,T9N 0B7
77778800,1 AM LIQUOR STORE,(780) 687-2229,NOFAX,C-5024 50 AVENUE, , ,PO BOX 6053, , ,BONNYVILLE,T9N 2E8
77999700,ACE LIQUOR DISCOUNTER AT BONNYVILLE,(780) 826-2228,NOFAX,4903 46 STREET, , ,101-17220 STONY PLAIN ROAD, , ,BONNYVILLE,T9N 1B7
74461800,SILVER SAGE LIQUOR STORE,(403) 545-6124,(403) 545-2044,801 6 STREET EAST, , ,PO BOX 127, , ,BOW ISLAND,T0K 0G0
77689100,BOW ISLAND LIQUOR STORE,(403) 545-2754,NOFAX,9 - 604 CENTRE STREET N, , ,BOX 245, , ,BOW ISLAND,T0K 0G0
77300000,BOWDEN LIQUOR STORE,(403) 224-3006,NOFAX,2020 20 AVENUE, , ,PO BOX 254, , ,BOWDEN,T0M 0K0
75937100,BOYLE LIQUOR STORE,(780) 689-3039,(780) 689-3029,5304 1 AVENUE, , ,PO BOX 901, , ,BOYLE,T0A 0M0
76975500,GRG LIQUOR,(780) 689-4684,NOFAX,5021 3 STREET, , ,PO BOX 179, , ,BOYLE,T0A 0M0
77953500,HOOTER'S LIQUOR BOYLE,(780) 689-2288,NOFAX,5100 LAKEVIEW ROAD, , ,PO BOX 70, , ,BOYLE,T0A 0M0
77364100,SPIRITS WEST,(403) 949-2497,(403) 949-2460,414-15 BALSAM AVENUE, , ,PO BOX 914, , ,BRAGG CREEK,T0L 0K0
77502700,CREEKERS LIQUOR,(403) 949-3013,(403) 949-3093,16-20 WHITE AVENUE, , ,130 CRANARCH LANDING SE, , ,BRAGG CREEK,T0L 0K0
76710600,H & W LIQUOR DEPOT,(780) 514-7909,(780) 621-1308,HWY 22 & CORNER OF HWY 616, , ,4108 46 AVENUE, , ,BRAZEAU COUNTY,T0C 0P0
77619600,NATURE'S FUELS,(780) 718-1285,NOFAX,4923 51 STREET, , ,4923 51 STREET PO BOX 70, , ,BRETON,T0C 0P0
76592500,BROOKS NORTH END LIQUOR STORE,(403) 501-3788,(403) 501-3789,13-1308 2A STREET W, , ,13-1308 2A STREET W, , ,BROOKS,T1R 0V5
76731600,BROOKS LIQUOR BARN,(403) 362-5600,(403) 362-8862,401 CASSSILS ROAD WEST, , ,101-17220 STONY PLAIN ROAD, , ,BROOKS,T1R 0W1
76960700,CO-OP LIQUOR AT BROOKS,(403) 362-2895,(403) 362-2719,1-318 8 AVENUE W, , ,969 16 STREET SW, , ,BROOKS,T1R 0N8
77139100,BROOKS LIQUOR STORE,(403) 362-3277,(403) 362-7762,420 2 AVENUE W, , ,420 2 AVENUE W, , ,BROOKS,T1R 0B1
77361900,EASTEND LIQUOR,(403) 362-4502,NOFAX,349 9 STREET EAST, , ,PO BOX 1718, , ,BROOKS,T1R 1C7
77712100,SAFEWAY LIQUOR BROOKS,(403) 362-4413,NOFAX,645 4 STREET WEST, , ,1020 64 AVENUE NE, , ,BROOKS,T1R 0W3
77964300,SUNSET LIQUOR WINE AND SPIRITS,(403) 975-0788,NOFAX,4-1080 2 STREET WEST, , ,79 CITYSCAPE WAY NE, , ,BROOKS,T1R 0C3
77998100,ACE LIQUOR DISCOUNTER AT BROOKS,(403) 362-5600,NOFAX,405 CASSILS ROAD WEST, , ,101-17220 STONY PLAIN ROAD, , ,BROOKS,T1R 0W1
78051100,SOLO LIQUOR AT BROOKS,(403) 362-2449,NOFAX,731 ALBERTA STREET, , ,101-17220 STONY PLAIN ROAD, , ,BROOKS,T1R 0N8
76816900,BRUDERHEIM LIQUOR STORE,(780) 796-3440,(780) 796-3490,4807 52 AVENUE, , ,PO BOX 160, , ,BRUDERHEIM,T0B 0S0
77638200,VINTAGE LIQUOR,(780) 796-3322,NOFAX,4801 QUEEN STREET, , ,PO BOX 467, , ,BRUDERHEIM,T0B 0S0
76990200,DD'S LIQUOR BARN,(780) 388-3038,(780) 388-3039,602 LAKESHORE DRIVE, , ,PO BOX 17, , ,BUCK LAKE,T0C 0T0
77585300,BUCK LAKE LIQUOR,(780) 918-8446,NOFAX,HIGHWAY 13 & 22, , ,PO BOX 547 63063 A HWY 13, , ,BUCK LAKE,T0C 0T0
69348100,TOWN & COUNTRY MOTOR HOTEL,(403) 239-3112,(403) 239-3504,1825 50 STREET SE, , ,1825 50 STREET SE, , ,CALGARY,T2B 1M6
71805900,J. WEBB  WINE MERCHANT LTD.,(403) 253-9463,(403) 259-6563,GLENMORE LANDING,C157-1600 90 AVENUE SW, ,GLENMORE LANDING,C157-1600 90 AVENUE SW, ,CALGARY,T2V 5A8
71823100,RICHMOND HILL WINES,(403) 686-1980,(403) 686-1982,108-3715 51 STREET SW, , ,108-3715 51 STREET SW, , ,CALGARY,T3E 6V2
71824300,BRITANNIA WINE MERCHANTS,(403) 287-3833,(403) 287-9288,810 49 AVENUE SW, , ,810 49 AVENUE SW, , ,CALGARY,T2S 1G9
74351100,CITY LIQUOR,(403) 242-6907,(403) 246-8104,210-5255 RICHMOND ROAD SW, , ,210-5255 RICHMOND ROAD SW, , ,CALGARY,T3E 7C4
74375500,SILVER SPRINGS LIQUOR STORE,(403) 288-4760,(403) 288-4963,188-8060 SILVER SPRINGS BOULEVARD NW, , ,188-8060 SILVER SPRINGS BOULEVARD NW, , ,CALGARY,T3B 5K1
74712700,DEER POINT LIQUOR STORE,(403) 271-6717,(403) 271-6764,14921 DEER RIDGE DRIVE SE, , ,14921 DEER RIDGE DRIVE SE, , ,CALGARY,T2J 7C4
74831500,CALGARY CENTRE STREET NORTH LIQUOR STORE,(403) 296-0240,(403) 296-0241,1716 CENTRE STREET NE, , ,1716 CENTRE STREET NE, , ,CALGARY,T2E 2S4
74989000,CROWFOOT WINE & SPIRITS - SIGNATURE,(403) 296-2200,(403) 296-2202,LOCATION,7414 CROWFOOT ROAD NW, ,LOCATION,201-7422 CROWFOOT ROAD NW, ,CALGARY,T3G 3N7
75141500,WILLOW PARK LIQUOR STORE,(403) 296-1640,(403) 225-0376,10801 BONAVENTURE DRIVE SE, , ,10801 BONAVENTURE DRIVE SE, , ,CALGARY,T2J 6Z8
75347400,4TH STREET LIQUOR STORE & WINE CELLAR,(403) 229-1919,(403) 229-3899,1809 4 STREET SW, , ,1809 4 STREET SW, , ,CALGARY,T2S 1W2
75361800,D.J. LIQUOR STORE,(403) 277-3911,(403) 277-3911,1A-817 19 STREET NE, , ,1A-817 19 STREET NE, , ,CALGARY,T2E 4X4
75413500,CALGARY CO-OP WINES & SPIRITS - OAKRIDGE,(403) 299-5444,(403) 216-4523,2570 SOUTHLAND DRIVE SW, , ,110-151 86 AVENUE SE, , ,CALGARY,T2V 4J8
75414100,ROYAL SPIRITS & WINES,(403) 571-9888,(403) 571-9885,HAYSBORO PLAZA,9620 ELBOW DRIVE SW, ,4151 EDGEVALLEY LANDING NW, , ,CALGARY,T2V 1M2
75476900,REAL CANADIAN LIQUOR STORE,(403) 280-8226,(403) 280-8227,3575  20 AVENUE NE, , ,3575 20 AVENUE NE, , ,CALGARY,T1Y 6R3
75501400,CALGARY CO-OP WINES & SPIRITS -,(403) 299-7764,(403) 299-7765,BEDDINGTON CO-OP SHOPPING CENTRE,8220 CENTRE STREET NE, ,BEDDINGTON,BEDDINGTON CO-OP SHOPPING CENTRE,8220 CENTRE STREET NE,CALGARY,T3K 1J7
75604200,METRO VINO,(403) 205-3356,(403) 205-3349,B-722 11 AVENUE SW, , ,B-722 11 AVENUE SW, , ,CALGARY,T2R 0E4
75618600,CALGARY CO-OP WINES & SPIRITS - RICHMOND,(403) 299-5362,(403) 299-4497,ROAD,4860 RICHMOND ROAD SW, ,ROAD,4860 RICHMOND ROAD SW, ,CALGARY,T3E 6L4
75621500,OLYMPIA LIQUOR STORE (CHINOOK),(403) 259-5906,(403) 259-5602,20-6624 CENTRE STREET SE, , ,20-6624 CENTRE STREET SE, , ,CALGARY,T2H 0C6
75622800,GLOBAL LIQUORS,(403) 226-2840,(403) 226-2875,5-33 HARVEST HILLS DRIVE NE, , ,5-33 HARVEST HILLS DRIVE NE, , ,CALGARY,T3K 4R2
75742400,REAL CANADIAN LIQUOR STORE,(403) 225-6224,(403) 225-6225,10505 SOUTHPORT ROAD SW, , ,10505 SOUTHPORT ROAD SW, , ,CALGARY,T2W 3N2
75742500,REAL CANADIAN LIQUOR STORE,(403) 241-4050,(403) 241-4052,5251 COUNTRY HILLS BOULEVARD NW, , ,5251 COUNTRY HILLS BOULEVARD NW, , ,CALGARY,T3A 5H8
75742600,REAL CANADIAN LIQUOR STORE,(403) 686-8043,(403) 686-8045,5850 SIGNAL HILL CENTRE SW, , ,5850 SIGNAL HILL CENTRE SW, , ,CALGARY,T3H 3P8
75742700,REAL CANADIAN LIQUOR STORE,(403) 254-3631,(403) 254-3632,15915 MACLEOD TRAIL SE, , ,15915 MACLEOD TRAIL SE, , ,CALGARY,T2Y 3R9
75779100,ROYAL LIQUOR MERCHANTS,(403) 296-0455,(403) 296-0456,140 11 AVENUE SW, , ,140 11 AVENUE SW, , ,CALGARY,T2R 0B8
75784200,BANKVIEW LIQUORS,(403) 244-2820,NOFAX,2905 14 STREET SW, , ,2905 14 STREET SW, , ,CALGARY,T2T 3V5
75811100,OLYMPIA LIQUOR STORE,(403) 254-6666,(403) 201-4989,15116 BANNISTER ROAD SE, , ,15116 BANNISTER ROAD SE, , ,CALGARY,T2X 1Z5
75813300,KING'S LIQUOR STORE,(403) 730-1789,(403) 730-1789,4-6219 CENTRE STREET NW, , ,4-6219 CENTRE STREET NW, , ,CALGARY,T2K 0V2
75891200,BRIDGELAND LIQUOR STORE,(403) 265-3856,(403) 265-3856,1-630 1 AVENUE NE, , ,1-630 1 AVENUE NE, , ,CALGARY,T2E 0B6
75908800,VALLEY RIDGE LIQUOR STORE,(403) 247-0341,(403) 451-7153,200-11245 VALLEY RIDGE DRIVE NW, , ,200-11245 VALLEY RIDGE DRIVE NW, , ,CALGARY,T3B 5V4
75929700,SPIRITS OF WILLOW RIDGE,(403) 271-3390,(403) 271-3390,6A-675 ACADIA DRIVE SE, , ,6A-675 ACADIA DRIVE SE, , ,CALGARY,T2J 2Y1
75970800,B K LIQUOR STORE #3,(403) 730-9761,(403) 730-9761,5608 4 STREET NW, , ,5608 4 STREET NW, , ,CALGARY,T2K 1B2
75977000,CALGARY CO-OP WINES & SPIRITS - SOUTH,(403) 257-7255,(403) 257-7257,TRAIL CROSSING,40-4307 130 AVENUE SE, ,TRAIL CROSSING,40-4307 130 AVENUE SE, ,CALGARY,T2Z 3V8
75982600,GLOBAL LIQUOR STORE #3,(403) 285-1633,(403) 285-1676,112-5401 TEMPLE DRIVE NE, , ,112-5401 TEMPLE DRIVE NE, , ,CALGARY,T1Y 3R7
75983700,KJ WINES & SPIRITS INC.,(403) 237-8840,(403) 262-4823,141-555 11 AVENUE SW, , ,141-555 11 AVENUE SW, , ,CALGARY,T2R 1P6
76002300,AB LIQUOR OUTLET,(403) 226-7082,(403) 226-7081,130-790 COVENTRY DRIVE NE, , ,134-790 COVENTRY DRIVE NE, , ,CALGARY,T3K 4K4
76003100,EASTPORT LIQUOR STORE,(403) 313-0516,(403) 313-0517,50-150 52 STREET NE, , ,50-150 52 STREET NE, , ,CALGARY,T2A 4K8
76004000,BEITEL BROS. LIQUOR,(403) 251-6245,(403) 251-6249,20A-11625 ELBOW DRIVE SW, , ,20A-11625 ELBOW DRIVE SW, , ,CALGARY,T2W 1G8
76025800,BOW LIQUOR,(403) 286-0722,(866) 826-3515,101-6404 BOWNESS ROAD NW, , ,101-6404 BOWNESS ROAD NW, , ,CALGARY,T3B 0E7
76044600,BOTTOMS UP LIQUOR STORE,(403) 280-9056,(403) 280-9056,75 MARTINDALE BOULEVARD NE, , ,75 MARTINDALE BOULEVARD NE, , ,CALGARY,T3J 3M7
76049200,ALBERTA CHOICE LIQUOR,(403) 568-3741,(403) 280-8161,147-5120 47 STREET NE, , ,147-5120 47 STREET NE, , ,CALGARY,T3J 4K3
76072800,RUNDLE LIQUOR,(403) 568-1870,(403) 568-1870,4-5309 RUNDLEHORN DRIVE NE, , ,4-5309 RUNDLEHORN DRIVE NE, , ,CALGARY,T1Y 2C2
76086800,P.J. LIQUOR INC.,(403) 252-8662,(403) 252-8631,9935 ELBOW DRIVE SW, , ,95 ST MORITZ TERRACE SW, , ,CALGARY,T2W 1E6
76110000,CROWFOOT WINE & SPIRITS - DOWNTOWN,(403) 228-2286,(403) 228-6218,1402 14 STREET SW, , ,201-7422 CROWFOOT ROAD NW, , ,CALGARY,T3C 3T4
76129800,CALGARY CO-OP WINES & SPIRITS -,(403) 299-4333,(403) 299-4338,DALHOUSIE,5505 SHAGANAPPI TRAIL NW, ,DALHOUSIE,5505 SHAGANAPPI TRAIL NW, ,CALGARY,T3A 1Z6
76158200,BEDFORD LIQUOR,(403) 730-4828,(403) 731-0028,8-176 BEDFORD DRIVE NE, , ,8-176 BEDFORD DRIVE NE, , ,CALGARY,T3K 2M9
76158600,CALGARY CO-OP WINES & SPIRITS - MACLEOD,(403) 299-4288,(403) 299-4294,TRAIL,23-8720 MACLEOD TRAIL SE, ,TRAIL,23-8720 MACLEOD TRAIL SE, ,CALGARY,T2H 0M4
76159200,DAILY LIQUOR,(403) 301-7492,(403) 301-7452,7531 MACLEOD TRAIL SW, , ,7531 MACLEOD TRAIL SW, , ,CALGARY,T2H 0L8
76193100,TRANSCANADA LIQUOR,(403) 230-8522,(403) 230-8780,C-428 16 AVENUE NE, , ,C-428 16 AVENUE NE, , ,CALGARY,T2E 1K2
76198900,LIQUOR PALACE #3,(403) 204-9859,(403) 569-7190,5-4575 25 STREET SE, , ,5-4575 25 STREET SE, , ,CALGARY,T2B 3R9
76215100,CALGARY CO-OP WINES & SPIRITS - FOREST,(403) 299-4372,(403) 299-4376,LAWN,1A-3200 17 AVENUE SE, ,LAWN,1A-3200 17 AVENUE SE, ,CALGARY,T2A 0P9
76226200,SOBEYS LIQUOR (TUSCANY),(403) 375-0595,(403) 375-0597,1078-11300 TUSCANY BOULEVARD NW, , ,1020 64 AVENUE NE, , ,CALGARY,T3L 2V7
76234900,REAL CANADIAN LIQUOR STORE,(403) 257-6540,(403) 257-6541,300-4700 130 AVENUE SE, , ,300-4700 130 AVENUE SE, , ,CALGARY,T2Z 4E7
76244500,PAYLESS LIQUOR STORE,(403) 568-1085,(403) 293-6942,6-1085 FALCONRIDGE DRIVE NE, , ,556 PATTERSON GROVE SW, , ,CALGARY,T3J 3H4
76275600,WHITEHORNS LIQUOR STORE,(403) 568-1551,(403) 532-0616,9-4525 52 STREET NE, , ,9-4525 52 STREET NE, , ,CALGARY,T1Y 7M3
76293100,GLOBAL LIQUOR STORE #2,(403) 203-0285,(403) 720-3252,1-7248 OGDEN ROAD SE, , ,4738 HAMPTONS WAY NW, , ,CALGARY,T2C 1B6
76299200,FALSHIRE LIQUOR STORE,(403) 590-8367,(403) 590-8369,279-265 FALSHIRE DRIVE NE, , ,279-265 FALSHIRE DRIVE NE, , ,CALGARY,T3J 1T9
76309300,OLYMPIA LIQUOR STORE (WESTGATE),(403) 685-1114,(403) 685-1130,B-3708 17 AVENUE SW, , ,B-3708 17 AVENUE SW, , ,CALGARY,T3E 0B8
76328600,SOBEYS LIQUOR (BRIDLEWOOD),(403) 873-9202,(403) 873-9226,BRIDLEWOOD SHOPPING CENTRE,803-2335 162 AVENUE SW, ,1020 64 AVENUE NE, , ,CALGARY,T2Y 4S6
76334500,REAL CANADIAN LIQUOR STORE,(403) 567-4240,(403) 567-4238,20 COUNTRY VILLAGE ROAD NE, , ,20 COUNTRY VILLAGE ROAD NE, , ,CALGARY,T3K 5Z2
76345200,BK BOWFORT LIQUOR STORE,(403) 247-4722,(403) 247-5014,97 BOWRIDGE DRIVE NW, , ,97 BOWRIDGE DRIVE NW, , ,CALGARY,T3B 3R6
76346500,SOBEYS LIQUOR (ROYAL OAK),(403) 226-7900,(403) 226-7015,303-8888 COUNTRY HILLS BOULEVARD NW, , ,1020 64 AVENUE NE, , ,CALGARY,T3G 5T4
76349100,VARSITY WINE MERCHANTS,(403) 286-2778,(403) 286-7553,412-4625 VARSITY DRIVE NW, , ,412-4625 VARSITY DRIVE NW, , ,CALGARY,T3A 0Z9
76352200,LIQUOR BOX,(403) 338-1268,(403) 338-1269,2112 CROWCHILD TRAIL NW, , ,2112 CROWCHILD TRAIL NW, , ,CALGARY,T2M 3Y7
76353100,STAR LIQUOR,(403) 735-2350,(403) 735-2351,106-2323 32 AVENUE NE, , ,1108 ABBEYDALE DRIVE NE, , ,CALGARY,T2E 6Z3
76359200,LIQUOR ON THE GO,(403) 279-3668,(403) 279-2669,104-3716 61 AVENUE SE, , ,104-3716 61 AVENUE SE, , ,CALGARY,T2C 1Z4
76369600,CHINOOK LIQUOR,(403) 258-1096,(403) 258-1096,107-6008 MACLEOD TRAIL SW, , ,107-6008 MACLEOD TRAIL SW, , ,CALGARY,T2H 0K1
76372300,LIQUOR CO,(403) 615-1515,(403) 281-5566,2-1110 CANTERBURY DRIVE SW, , ,63 BEACONSFIELD CRESCENT NW, , ,CALGARY,T2H 0Y8
76384100,B K LIQUOR STORE,(403) 288-0707,(403) 247-9783,A-4708 16 AVENUE NW, , ,A-4708 16 AVENUE NW, , ,CALGARY,T3B 0N1
76386800,A.J. LIQUOR,(403) 568-5123,(403) 568-4413,2303 68 STREET NE, , ,2303 68 STREET NE, , ,CALGARY,T1Y 6S4
76398400,LA BEER STOP,(403) 235-0414,(403) 235-1040,115-3608 17 AVENUE SE, , ,PO BOX 72037,GLENMORE LANDING PO, ,CALGARY,T2A 0R9
76405800,NEW BOMBAY LIQUOR STORE,(403) 313-5544,(403) 313-5544,3A-135 WHITEFIELD DRIVE NE, , ,3A-135 WHITEFIELD DRIVE NE, , ,CALGARY,T1Y 5X1
76405900,B K LIQUOR STORE #2,(403) 276-5500,(403) 730-9761,4814 CENTRE STREET NE, , ,4814 CENTRE STREET NE, , ,CALGARY,T2E 2Z7
76407200,HIGHLANDER LIQUOR STORE,(403) 777-1922,(403) 284-5474,2033 16 AVENUE NW, , ,2033 16 AVENUE NW, , ,CALGARY,T2M 0M3
76412200,CALGARY CO-OP WINES & SPIRITS - ROCKY,(403) 299-5490,(403) 299-5491,RIDGE,2002-11595 ROCKYVALLEY DRIVE NW, ,RIDGE,2002-11595 ROCKYVALLEY DRIVE NW, ,CALGARY,T3G 5Y6
76460400,SOMERSET LIQUOR STORE,(403) 201-2709,(403) 201-2709,16329-16315 SOMERCREST STREET SW, , ,16329-16331 SOMERCREST STREET SW, , ,CALGARY,T2Y 3M7
76473400,LIQUOR DEPOT AT WESTHILLS,(403) 531-3099,(403) 531-3098,WESTHILLS TOWNE CENTRE,264 STEWART GREEN SW, ,101-17220 STONY PLAIN ROAD, , ,CALGARY,T3H 3C8
76473800,LIQUOR DEPOT AT WOODBINE,(403) 238-0799,(403) 238-0954,WOODBINE SQUARE,204-2525 WOODVIEW DRIVE SW, ,101-17220 STONY PLAIN ROAD, , ,CALGARY,T2W 4N4
76474000,LIQUOR DEPOT AT HUNTERHORN,(403) 296-1875,(403) 274-4126,550 64 AVENUE NE, , ,101-17220 STONY PLAIN ROAD, , ,CALGARY,T2K 6A8
76474100,LIQUOR DEPOT AT BRENTWOOD,(403) 289-2946,(403) 452-2885,750-3630 BRENTWOOD ROAD NW, , ,101-17220 STONY PLAIN ROAD, , ,CALGARY,T2L 1K8
76474200,LIQUOR DEPOT AT SARCEE,(403) 686-4248,(403) 686-4254,31-4604 37 STREET SW, , ,101-17220 STONY PLAIN ROAD, , ,CALGARY,T3E 3C9
76474300,LIQUOR DEPOT AT MCKENZIE TOWN,(403) 257-5589,(403) 257-5782,20 HIGH STREET SE, , ,101-17220 STONY PLAIN ROAD, , ,CALGARY,T2Z 3T8
76474400,LIQUOR DEPOT AT 18TH STREET,(403) 720-3333,(403) 720-8110,RIVERBEND SHOPPING CENTRE,370-8338 18 STREET SE, ,101-17220 STONY PLAIN ROAD, , ,CALGARY,T2C 4E4
76489500,SKYWAY WINE & LIQUOR,(403) 250-5610,(403) 250-5611,D83R02-2000 AIRPORT ROAD NE, , ,600-501 18 AVENUE SW, , ,CALGARY,T2L 6W5
76498300,7 DAY LIQUOR LTD.,(403) 451-5151,NOFAX,BAY 2-4503 26 AVENUE SE, , ,3 ST ANDREWS PLACE, , ,CALGARY,T2B 2K4
76521800,STAR LIQUOR STORE,(403) 235-3870,(403) 398-4814,408 ERIN WOODS DRIVE SE, , ,408 ERIN WOODS DRIVE SE, , ,CALGARY,T2B 3C5
76530600,REAL CANADIAN LIQUOR STORE,(403) 590-3340,(403) 590-3339,100-3633 WESTWINDS DRIVE NE, , ,100-3633 WESTWINDS DRIVE NE, , ,CALGARY,T3J 5K3
76533900,SOBEYS LIQUOR (MILLRISE),(403) 873-0185,(403) 873-1569,3109-105 MILLRISE BOULEVARD SW, , ,1020 64 AVENUE NE, , ,CALGARY,T2Y 5G7
76535000,WOODBINE BK LIQUOR STORE,(403) 238-7740,(403) 247-9783,3-464 WOODBINE BOULEVARD SW, , ,3 464 WOODBINE BLVD SW, , ,CALGARY,T2W 5H7
76553800,OLYMPIA LIQUOR (EVERGREEN),(403) 873-5076,(403) 873-5078,302-2250 162 AVENUE SW, , ,302-2250 162 AVENUE SW, , ,CALGARY,T2Y 4Z9
76556200,PIAZZA WINE AND SPIRITS,(403) 265-3394,(403) 569-7190,921 GENERAL AVENUE NE, , ,921 GENERAL AVENUE NE, , ,CALGARY,T2E 9E1
76558100,CALGARY CO-OP WINES & SPIRITS - WEST,(403) 299-4405,(403) 299-4411,SPRINGS,600-917 85 STREET SW, ,SPRINGS,600-917 85 STREET SW, ,CALGARY,T3H 5Z9
76559800,CALGARY CO-OP WINES & SPIRITS - MIDTOWN,(403) 299-4233,(403) 299-4234,MARKET,1003 11 STREET SW, ,MARKET,102-1003 11 STREET SW, ,CALGARY,T2R 1G2
76562000,CROWFOOT WINE & SPIRITS- WEST MARKET,(403) 246-2600,(403) 246-2654,SQUARE,307-1851 SIROCCO DRIVE SW, ,201-7422 CROWFOOT ROAD NW, , ,CALGARY,T3H 4R5
76575500,STAR LIQUOR & WINE BOUTIQUE,(403) 726-1350,(403) 735-2351,242-15566 MCIVOR BOULEVARD SE, , ,106-2323 32 AVENUE NE, , ,CALGARY,T2Z 4Y2
76586200,MISSION WINE & LIQUOR MERCHANTS,(403) 228-6040,(403) 228-6593,14-2100 4 STREET SW, , ,14-2100 4 STREET SW, , ,CALGARY,T2S 1W7
76589900,LEE'S LIQUOR STORE,(403) 230-5062,(403) 230-5062,1-2610 CENTRE STREET NE, , ,1-2610 CENTRE STREET NE, , ,CALGARY,T2E 2V4
76601300,COSTCO CANADA LIQUOR,(403) 275-0784,(403) 275-0486,11592 SARCEE TRAIL NW, , ,11592 SARCEE TRAIL NW, , ,CALGARY,T3R 0A1
76604100,EDINBURGH LIQUORS,(403) 244-5260,(403) 244-5210,1247 12 AVENUE SW, , ,2571 CATALINA BOULEVARD NE, , ,CALGARY,T3C 3R8
76605400,LIQUOR EMPIRE,(403) 278-7843,(403) 278-7843,100-950 QUEENSLAND DRIVE SE, , ,100-950 QUEENSLAND DRIVE SE, , ,CALGARY,T2J 6E7
76609700,SUNDANCE WINE MARKET,(403) 254-4255,(403) 257-3134,17 SUNMILLS DRIVE SE, , ,17 SUNMILLS DRIVE SE, , ,CALGARY,T2X 2W6
76616100,HIGHLANDER WINE & SPIRITS - RICHMOND,(403) 233-2629,(403) 233-2627,2919 RICHMOND ROAD SW, , ,2919 RICHMOND ROAD SW, , ,CALGARY,T3E 4N3
76621100,CALGARY CO-OP WINES & SPIRITS -,(403) 299-4493,(403) 299-4495,CREEKSIDE,106-11988 SYMONS VALLEY ROAD NW, ,CREEKSIDE,106-11988 SYMONS VALLEY ROAD NW, ,CALGARY,T3P 0A3
76633400,TRANS CANADA LIQUOR BARN,(403) 296-0590,(780) 296-0592,216-1440 52 STREET NE, , ,101-17220 STONY PLAIN ROAD, , ,CALGARY,T2A 4T8
76633500,LIQUOR BARN AT VILLAGE SQUARE,(403) 296-0744,(403) 296-0741,115-2640 52 STREET NE, , ,101-17220 STONY PLAIN ROAD, , ,CALGARY,T1Y 3R6
76645700,B.K. LIQUOR STORE #6 (BRIDGELAND),(403) 237-7746,NOFAX,833 1 AVENUE NE, , ,18 PATTERSON GREEN SW, , ,CALGARY,T2E 0C2
76650100,LIQUOR DEPOT AT ALTADORE,(403) 243-4933,(403) 243-4902,3504 19 STREET SW, , ,101-17220 STONY PLAIN ROAD, , ,CALGARY,T2T 4X6
76650200,LIQUOR DEPOT AT BRAESIDE,(403) 252-3657,(403) 252-4652,110A-1919 SOUTHLAND DRIVE SW, , ,101-17220 STONY PLAIN ROAD, , ,CALGARY,T2W 0K1
76650400,LIQUOR DEPOT AT FAIRMOUNT DRIVE,(403) 278-1078,(403) 278-8284,FAIRMOUNT PLACE,9919 FAIRMOUNT DRIVE SE, ,101-17220 STONY PLAIN ROAD, , ,CALGARY,T2J 0S3
76650500,LIQUOR DEPOT AT ELBOW DRIVE,(403) 252-9362,(403) 252-9361,90-10233 ELBOW DRIVE SW, , ,101-17220 STONY PLAIN ROAD, , ,CALGARY,T2W 1E8
76650600,LIQUOR DEPOT AT LAKE BONAVISTA,(403) 271-6767,(403) 271-4396,LAKE BONAVISTA PROMENADE,155-755 LAKE BONAVISTA DRIVE SE, ,101-17220 STONY PLAIN ROAD, , ,CALGARY,T2J 0N3
76650800,LIQUOR DEPOT AT WESTBROOK,(403) 242-6630,(403) 242-8013,WESTBROOK SHOPPING CENTRE,19-1200 37 STREET SW, ,101-17220 STONY PLAIN ROAD, , ,CALGARY,T3C 1S2
76650900,LIQUOR DEPOT AT PETRO - MEMORIAL,(403) 235-1745,(403) 248-5213,3-120 36 STREET SE, , ,101-17220 STONY PLAIN ROAD, , ,CALGARY,T2A 1B6
76668400,BLACKFOOT LIQUOR CENTRE,(403) 287-9002,(403) 287-9562,311-723 46 AVENUE SE, , ,311-723 46 AVENUE SE, , ,CALGARY,T2G 2A4
76674500,REAL CANADIAN LIQUOR STORE,(403) 692-6240,(403) 692-6239,200-20 HERITAGE MEADOWS WAY SE, , ,200-20 HERITAGE MEADOWS WAY SE, , ,CALGARY,T2H 0B5
76680500,B K LIQUOR STORE #7,(403) 246-7838,(403) 246-7910,1630 37 STREET SW, , ,1630 37 STREET SW, , ,CALGARY,T3C 3P1
76685300,LIQUOR DEPOT AT BRAE CENTRE,(403) 238-5557,(403) 238-5606,25A-11440 BRAESIDE DRIVE SW, , ,101-17220 STONY PLAIN ROAD, , ,CALGARY,T2W 4X8
76698100,PAYLESS LIQUOR STORE,(403) 736-0536,(403) 735-3348,202-2066 18 AVENUE NE, , ,556 PATTERSON GROVE SW, , ,CALGARY,T2E 8N5
76700600,CALGARY LIQUOR STORE,(403) 246-4321,(403) 246-6099,3863 17 AVENUE SW, , ,3863 17 AVENUE SW, , ,CALGARY,T3E 0C3
76709800,LIQUOR DEPOT AT MOUNT ROYAL,(403) 229-2385,(403) 229-2367,1140 17 AVENUE SW, , ,101-17220 STONY PLAIN ROAD, , ,CALGARY,T2T 0B4
76736000,RB CANADIAN LIQUOR,(403) 258-1900,(403) 258-1911,1-7204 FAIRMOUNT DRIVE SE, , ,36 PANAMOUNT MANOR NW, , ,CALGARY,T2H 1Z1
76748500,REAL CANADIAN LIQUOR STORE,(403) 516-8540,(403) 516-8539,7020 4 STREET NW, , ,7240 4 STREET NW, , ,CALGARY,T2K 1C4
76749700,ABC LIQUOR STORE,(403) 640-4910,(403) 640-4963,24-430 ACADIA DRIVE SE, , ,120 RUNDLEFIELD CLOSE NE, , ,CALGARY,T2J 0B2
76749800,BEYOND LIQUOR WINE & SPIRITS,(403) 228-0920,18668630916,109-1805 14 STREET SW, , ,712 RUNDLERIDGE DRIVE NE, , ,CALGARY,T2T 3T1
76761300,GLENDALE LIQUOR,(403) 246-0067,NOFAX,22-2835 37 STREET SW, , ,22-2835 37 STREET SW, , ,CALGARY,T3E 3B3
76770400,ZYN AT BANKERS HALL,(403) 263-3519,NOFAX,145-315 8 AVENUE SW, , ,145-315 8 AVENUE SW, , ,CALGARY,T2P 4K1
76781400,CLOUD 9 LIQUOR STORE CONCOURSE A,(403) 532-1848,(403) 532-9463,2000 AIRPORT ROAD NE, , ,600-501 18 AVENUE SW, , ,CALGARY,T2E 6W5
76810600,CALGARY CO-OP LIQUOR STORE - KINGSLAND,(403) 252-2447,NOFAX,6907 MACLEOD TRAIL SW, , ,110-151 86 AVENUE SE, , ,CALGARY,T2H 0L6
76812100,OLYMPIA LIQUOR STORE,(403) 452-7300,(403) 452-7305,1915A CENTRE STREET NW, , ,1915A CENTRE STREET NW, , ,CALGARY,T2E 2S7
76829800,DEEP'S LIQUOR STORE,(403) 293-8484,(403) 293-7593,3-3250 60 STREET NE, , ,329 CORAL SPRINGS PLACE NE, , ,CALGARY,T1Y 3T5
76833600,ZYN THE WINE MARKET,(403) 543-8900,(403) 266-4736,100-1543 17 AVENUE SE, , ,100-1543 17 AVENUE SE, , ,CALGARY,T2G 1J9
76841800,MAX LIQUOR,(403) 508-7820,(403) 508-7825,100-6800 MEMORIAL DRIVE NE, , ,31 EDELWEISS DRIVE NW, , ,CALGARY,T2A 6V3
76861300,CALGARY CO-OP WINES & SPIRITS - HAMPTONS,(403) 375-0481,(403) 375-0484,710-1000 HAMPTONS DRIVE NW, , ,710-1000 HAMPTONS DRIVE NW, , ,CALGARY,T3A 6A7
76863800,CALGARY CO-OP WINES & SPIRITS - QUARRY,(403) 203-4834,(403) 203-4835,305-163 QUARRY PARK BOULEVARD SE, , ,PARK,305-163 QUARRY PARK BOULEVARD SE, ,CALGARY,T2C 5E1
76904200,LINCOLN PARK LIQUOR STORE,(403) 685-6649,(403) 532-2884,14-14 RICHARD WAY SW, , ,106 PANATELLA CRESCENT NW, , ,CALGARY,T3E 7M9
76908100,PENBROOKE LIQUOR,(403) 272-1800,NOFAX,3A-5320 8 AVENUE SE, , ,167 LAKESIDE GREENS COURT, , ,CALGARY,T2A 3P5
76910900,COLD BEER LIQUOR,(403) 455-9520,NOFAX,4347 MACLEOD TRAIL SW, , ,4347 MACLEOD TRAIL SW, , ,CALGARY,T2G 0A3
76922800,RADISSON LIQUOR & COLD BEER,(403) 248-1926,(403) 248-1926,121-575 28 STREET SE, , ,121-575 28 STREET SE, , ,CALGARY,T2A 6X1
76927200,SPRING LIQUOR JUNCTION,(403) 451-9057,(403) 451-9058,3417 26 AVENUE SW, , ,3417 26 AVENUE SW, , ,CALGARY,T3E 0N3
76928500,SKYWAY A LIQUOR,(403) 250-3474,NOFAX,2000 AIRPORT ROAD NE ARRIVALS LEVEL, , ,600-501 18 AVENUE SW, , ,CALGARY,T2E 6W5
76941500,SOBEYS LIQUOR (CRANSTON),(403) 257-9100,(403) 257-7050,CRANSTON,4010-356 CRANSTON ROAD SE, ,1020 64 AVENUE NE, , ,CALGARY,T3M 0J5
76947200,COSTCO CANADA LIQUOR,(403) 252-7129,(403) 252-6254,A-99 HERITAGE GATE SE, , ,83 HERITAGE GATE SE, , ,CALGARY,T2H 3A7
76952700,CALGARY CO-OP WINES & SPIRITS-CROWFOOT,(403) 299-5341,(403) 299-5347,39 CROWFOOT WAY NW, , ,39 CROWFOOT WAY NW, , ,CALGARY,T3G 2L4
76962500,ASPEN WINE & SPIRITS,(403) 239-4904,(403) 239-4996,130-366 ASPEN GLEN LANDING SW, , ,201-7422 CROWFOOT ROAD NW, , ,CALGARY,T3H 0N5
76962800,11-ELEVEN LIQUOR,(403) 457-0011,NOFAX,1-4100 MARLBOROUGH DRIVE NE, , ,141 CORAL REEF MANOR NE, , ,CALGARY,T2A 2Z5
76983900,KINGS LIQUOR #2,(403) 984-9222,NOFAX,2227-2213 CENTRE STREET NW, , ,2227-2213 CENTRE STREET NW, , ,CALGARY,T2E 2T4
76984900,DAILY LIQUOR,(403) 516-1217,NOFAX,8-5010 4 STREET NE, , ,8-5010 4 STREET NE, , ,CALGARY,T2K 5X8
76985000,LIQUOR BANK NORTHMOUNT,(403) 453-1615,(403) 453-1605,1342A NORTHMOUNT DRIVE NW, , ,44 ROCKCLIFF POINT NW, , ,CALGARY,T2L 0E6
76987500,PAYLESS LIQUOR STORE,(403) 250-0200,NOFAX,A-4804 EDMONTON TRAIL NE, , ,556 PATTERSON GROVE SW, , ,CALGARY,T2E 3V8
77004100,CALGARY CO-OP WINES & SPIRITS - NORTH,(403) 299-4268,(403) 299-4278,HILL,336 16 AVENUE NW, ,HILL,336 16 AVENUE NW, ,CALGARY,T2M 0H6
77008500,LIQUOR DEPOT AT MACLEOD TRAIL,(403) 640-1111,(403) 604-1113,SOUTHLAND CROSSING SHOPPING CENTRE,600-9737 MACLEOD TRAIL SW, ,101-17220 STONY PLAIN ROAD, , ,CALGARY,T2J 0P6
77018700,OAK & VINE WINE AND SPIRITS,(403) 453-2294,NOFAX,1030 16 AVENUE NW, , ,301-1026 16 AVENUE NW, , ,CALGARY,T2M 0K5
77027800,HIGHLANDER WINE & SPIRITS MARDA LOOP,(403) 262-7701,(403) 262-7741,2112 33 AVENUE SW, , ,2112 33 AVENUE SW, , ,CALGARY,T2T 1Z6
77033300,GRAPE WINE AND SPIRITS,(403) 270-9339,NOFAX,2-2104 KENSINGTON ROAD NW, , ,2-2104 KENSINGTON ROAD NW, , ,CALGARY,T2N 3R7
77042500,SPIRITS OF DOVER,(403) 569-0547,(403) 273-1868,4028 26 STREET SE, , ,210 DISCOVERY PLACE SW, , ,CALGARY,T2B 2Y4
77050300,LIQUOR DEPOT AT WALDEN,(403) 256-4837,(403) 256-4185,151 WALDEN GATES SE, , ,101-17220 STONY PLAIN ROAD, , ,CALGARY,T2X 0R2
77073000,ABBY'S LIQUOR,(403) 590-4893,(403) 590-4896,9-5008 WHITEHORN DRIVE NE, , ,20 CASTLEDALE GATE NE, , ,CALGARY,T1Y 1V1
77074500,J.WEBB WINE MERCHANT ON 17TH AVENUE,(403) 685-5218,NOFAX,2507 17 AVENUE SW, , ,C157-1600 90 AVENUE SW, , ,CALGARY,T3E 7V3
77097200,DAILY LIQUOR WINE AND SPIRITS,(403) 338-1171,(587) 350-2947,1336D 16 AVENUE NW, , ,1336D 16 AVENUE NW, , ,CALGARY,T2M 0L1
77099500,CANADA LIQUOR STORE,(403) 285-6700,(403) 285-1458,6825 26 AVENUE NE, , ,224 MACEWAN PARK VIEW NW, , ,CALGARY,T1Y 6M7
77109200,LIQUOR BANK DOWNTOWN,(403) 984-9298,(403) 453-1605,1105 14 STREET SW, , ,44 ROCKCLIFF POINT NW, , ,CALGARY,T3C 1C2
77110900,LIQUOR BANK,(403) 235-0348,(403) 235-0387,101-3509 17 AVENUE SE, , ,101-3509 17 AVENUE SE, , ,CALGARY,T2A 0R6
77131500,WOW LIQUOR,(403) 235-0924,(403) 235-0924,7-5269 MEMORIAL DRIVE SE, , ,210 CORAL SPRINGS BOULEVARD NE, , ,CALGARY,T2A 4V1
77139300,METRO LIQUOR STORE,(403) 567-8153,(403) 567-8154,3111-55 SKYVIEW RANCH ROAD NE, , ,2236-10 ASPEN STONE BOULEVARD SW, , ,CALGARY,T3N 0A6
77155000,WOODPARK LIQUOR STORE,(403) 251-6263,(403) 251-6264,14-523 WOODPARK BOULEVARD SW, , ,148 RAINBOW FALLS PASSAGE, , ,CALGARY,T2W 4J3
77159100,LIQUOR LANE - LIQUOR OUTLET,(403) 264-9987,(888) 868-4595,3106A 4 STREET NW, , ,3106A 4 STREET NW, , ,CALGARY,T2M 3A4
77159300,VINE ARTS WINE AND SPIRITS,(403) 290-0700,NOFAX,1310 1 STREET SW, , ,1310 1 STREET SW, , ,CALGARY,T2R 0V7
77162500,APPLEWOOD LIQUOR STORE,(403) 207-0155,NOFAX,1288 68 STREET SE, , ,1288 68 STREET SE, , ,CALGARY,T2A 7X7
77163100,STAR LIQUOR & WINE BOUTIQUE,(403) 984-4750,(403) 280-4064,20-2525 BRIDLECREST WAY SW, , ,106-2323 32 AVENUE NE, , ,CALGARY,T2Y 5J4
77165100,SELECT LIQUOR STORE,(403) 699-9946,NOFAX,5-2388 CRESTWOOD ROAD SE, , ,3 ST ANDREWS PLACE, , ,CALGARY,T2C 1J2
77189700,PREMIER WINE AND SPIRITS,(403) 457-4810,NOFAX,4810 16 STREET SW, , ,4810 16 STREET SW, , ,CALGARY,T2T 4J5
77193700,SOBEYS LIQUOR (STRATHCONA SQUARE),(403) 246-3239,(403) 246-3239,BEER,410-555 STRATHCONA BOULEVARD SW, ,1020 64 AVENUE NE, , ,CALGARY,T3H 2Z9
77195100,AB LIQUOR OUTLET #2,(403) 234-7082,(403) 226-7081,114-1725 32 AVENUE NE, , ,114-1725 32 AVENUE NE, , ,CALGARY,T2E 7C8
77211900,A-Z LIQUOR STORE,(403) 764-1530,(403) 457-1530,11257 30 STREET SW, , ,7 BLACKWELL BAY NW, , ,CALGARY,T2W 4N5
77213300,CROWFOOT WINE & SPIRITS - BOWNESS,(403) 286-8288,(403) 241-3245,BOWFORT ROAD PLAZA,400-8435 BOWFORT ROAD NW, ,201-7422 CROWFOOT ROAD NW, , ,CALGARY,T3B 2V2
77219800,VR WINE,(587) 353-8814,NOFAX,3106-8561 8A AVENUE SW, , ,3106-8561 8A AVENUE SW, , ,CALGARY,T3H 0V5
77224300,LIQUORAMA,(403) 273-1300,(403) 273-1372,140-1830 52 STREET SE, , ,140-1830 52 STREET SE, , ,CALGARY,T2B 1N1
77236900,SOLLY'S SPIRITS & WINES,(403) 269-6407,(403) 262-6349,839 6 AVENUE SW, , ,839 6 AVENUE SW, , ,CALGARY,T2P 0V3
77237700,CO-OP WINE SPIRITS BEER - SHAWNESSY,(403) 294-1966,NOFAX,80-250 SHAWVILLE BOULEVARD SE, , ,2570 SOUTHLAND DRIVE SW, , ,CALGARY,T2Y 2Z7
77241000,PREMIER WINE AND SPIRITS,(403) 460-2523,NOFAX,208G HADDON ROAD SW, , ,208 HADDON ROAD S W, , ,CALGARY,T2V 2Y7
77242100,SOBEYS LIQUOR (SILVERADO),(403) 234-0433,(403) 234-9446,BEER,422- 19369 SHERIFF KING STREET SW, ,1020 64 AVENUE NE, , ,CALGARY,T2X 0T9
77242800,CELLAR FINE WINES & SPIRITS,(403) 503-0730,NOFAX,100-137 8 AVENUE SW, , ,100-137 8 AVENUE SW, , ,CALGARY,T2P 1B4
77252400,LIQUOR BANK DALHOUSIE,(403) 719-8616,(403) 271-6659,24-34 EDGEDALE DRIVE NW, , ,134 ARBOUR STONE PLACE NW, , ,CALGARY,T3A 2R4
77259600,CROWFOOT WINE & SPIRITS - SPRINGBANK,(403) 242-2562,NOFAX,105-7460 SPRINGBANK BOULEVARD SW, , ,201-7422 CROWFOOT ROAD NW, , ,CALGARY,T3H 3Y1
77260100,FRIEND'S LIQUOR,(403) 280-0211,NOFAX,1122-4818 WESTWINDS DRIVE NE, , ,287 TARA COVE ESTATE DRIVE NE, , ,CALGARY,T3J 3Z5
77264900,OLYMPIA LIQUOR MACLEOD TRAIL,(403) 290-0362,(403) 290-0363,107-9950 MACLEOD TRAIL, , ,20-6624 CENTRE STREET SE, , ,CALGARY,T2J 3K9
77265000,OLYMPIA LIQUOR BEACON HEIGHTS,(403) 265-1331,(403) 265-1332,260-12024 SARCEE TRAIL NW, , ,20-6624 CENTRE STREET SE, , ,CALGARY,T3R 0J1
77268600,RIVERFRONT WINE & SPIRITS,(403) 475-7455,NOFAX,228 RIVERFRONT AVENUE SW, , ,228 RIVERFRONT AVENUE SW, , ,CALGARY,T2P 0A5
77271100,5 VINES WINE CRAFT BEER & SPIRITS,(587) 955-9221,NOFAX,218 12 AVENUE SE, , ,218 12 AVENUE SE, , ,CALGARY,T2G 1G9
77274700,HERITAGE WINE AND SPIRITS,(403) 401-4100,NOFAX,8419 ELBOW DRIVE SW, , ,4704 WHITEHORN DRIVE NE, , ,CALGARY,T2V 1K8
77288000,OLYMPIA LIQUOR CREEKSIDE,(403) 263-9938,NOFAX,12290 SYMONS VALLEY ROAD NW, , ,20-6624 CENTRE STREET SE, , ,CALGARY,T3P 0A3
77297700,SHIPMASTERS WINE AND SPIRITS,(403) 235-1122,NOFAX,A-3111 17 AVENUE SE, , ,1312 VALLEYVIEW PARK SE, , ,CALGARY,T2A 0P7
77300100,CO-OP WINE SPIRITS BEER-KENSINGTON,(403) 229-9617,NOFAX,2530 KENSINGTON ROAD NW, , ,2570 SOUTHLAND DRIVE SW, , ,CALGARY,T2N 3S5
77302200,SOBEYS LIQUOR (EVANSTON),(403) 263-0099,NOFAX,6000-2060 SYMONS VALLEY PARKWAY NW, , ,1020 64 AVENUE NE, , ,CALGARY,T3P 0M9
77315800,17TH AVE LIQUOR BOUTIQUE,(403) 918-2337,NOFAX,130-519 17 AVENUE SW, , ,130-519 17 AVENUE SW, , ,CALGARY,T2S 0A9
77324800,LIQUOR PLUS,(403) 272-4126,(403) 273-4645,4220 17 AVENUE SE, , ,4220 17 AVENUE SE, , ,CALGARY,T2A 0T2
77330200,UPTOWN LIQUOR,(403) 991-1295,NOFAX,856 16 AVENUE SW, , ,856 16 AVENUE SW, , ,CALGARY,T2R 0S9
77349500,HIGHLANDER WINE AND SPIRITS,(587) 296-3546,(587) 296-3548,182-19489 SETON CRESCENT SE, , ,182-19489 SETON CRESCENT SE, , ,CALGARY,T3M 1T4
77351900,VINE STYLES,(403) 474-8367,NOFAX,1127B KENSINGTON ROAD NW, , ,1127B KENSINGTON ROAD NW, , ,CALGARY,T2N 3P4
77352100,ONE STOP LIQUOR,(403) 454-6513,(403) 454-6523,4-2711 17 AVENUE SW, , ,4-2711 17 AVENUE SW, , ,CALGARY,T3E 0A6
77353200,SAFEWAY LIQUOR (SOUTH TRAIL),(403) 257-8541,(403) 257-8543,200-4915 130 AVENUE SE, , ,1020 64 AVENUE NE, , ,CALGARY,T2Z 4J2
77353300,SAFEWAY LIQUOR (CROWFOOT),(403) 241-3814,(403) 241-3825,CROWFOOT SHOPPING CENTRE,65 CROWFOOT CRESCENT NW, ,1020 64 AVENUE NE, , ,CALGARY,T3G 2L5
77353400,SAFEWAY LIQUOR (GARRISON WOODS),(403) 240-9304,(403) 240-9536,3553 GARRISON GATE SW, , ,1020 64 AVENUE NE, , ,CALGARY,T2T 6E4
77353500,SAFEWAY LIQUOR (THORNCLIFFE),(403) 275-2192,(403) 275-3849,5611 4 STREET NW, , ,1020 64 AVENUE NE, , ,CALGARY,T2K 1B3
77353600,SAFEWAY LIQUOR (SADDLERIDGE),(403) 280-3497,(403) 280-5239,76 SADDLETOWNE CIRCLE NE, , ,1020 64 AVENUE NE, , ,CALGARY,T3J 0H5
77356200,L STORE,(403) 984-3939,(403) 984-3939,2112 54 AVENUE SW, , ,2112 54 AVENUE SW, , ,CALGARY,T3E 1L7
77360100,CANADIAN LIQUOR STORE,(403) 225-1449,(403) 256-2730,2075 146 AVENUE SE, , ,2075 146 AVENUE SE, , ,CALGARY,T2J 6C3
77383000,STAR LIQUOR & WINE BOUTIQUE,(403) 727-9999,(403) 727-9990,15-3919 RICHMOND ROAD SW, , ,UNIT 106-2323 32 AVENUE NE, , ,CALGARY,T3E 4P2
77389800,LIQUOR EMPORIUM,(403) 247-0493,(403) 247-0493,4606 BOWNESS ROAD NW, , ,84 ROCKCLIFF POINT NW, , ,CALGARY,T3B 0B3
77392600,LIQUOR DEPOT AT SPRINGBANK,(403) 727-5506,NOFAX,101 - 722 85 STREET SW, , ,101-17220 STONY PLAIN ROAD, , ,CALGARY,T3H 4C7
77395500,HIGHFIELD LIQUOR,(403) 243-6100,NOFAX,Unit B 4747 54 Ave SE, , ,22-1259 HIGHFIELD CRESCENT SE, , ,CALGARY,T2C 2Y8
77402100,CRESCENT LIQUOR,(403) 452-2030,NOFAX,111-1311 CENTRE STREET NW, , ,689 EAST LAKEVIEW ROAD, , ,CALGARY,T2E 2R5
77405900,TRUVE WINES,(403) 265-4030,(403) 265-4031,104-422 11 AVENUE SE, , ,104-422 11 AVENUE SE, , ,CALGARY,T2G 0Y4
77406800,CANADIAN LIQUOR STORE,(403) 256-2730,(403) 256-2730,619 SHAWCLIFFE GATE SW, , ,619 SHAWCLIFFE GATE SW, , ,CALGARY,T2Y 1W1
77413100,INGLEWOOD OAK & VINE,(403) 455-6333,(403) 262-9867,3-1139 9 AVENUE SE, , ,3-1139 9 AVENUE SE, , ,CALGARY,T2G 0S8
77420200,CORK FINE WINE  LIQUOR & ALE,(403) 294-1310,NOFAX,183-250 6 AVENUE SW, , ,183-250 6 AVENUE SW, , ,CALGARY,T2P 3H7
77454600,BRICKS WINE CO.,(587) 535-9463,NOFAX,101-902 9 AVENUE SE, , ,101-902 9 AVENUE SE, , ,CALGARY,T2G 0S4
77454900,SOBEYS LIQUOR (NOLAN HILL),(587) 538-5525,NOFAX,902-8 NOLAN HILL BOULEVARD NW, , ,1020 64 AVENUE NE, , ,CALGARY,T3R 0S5
77459800,SUNRIDGE PARK WINES AND SPIRITS,(403) 452-1300,NOFAX,106-2763 SUNRIDGE WAY NE, , ,106-2763 SUNRIDGE WAY NE, , ,CALGARY,T1Y 7K7
77461400,CRAFT CELLARS,(403) 277-1868,(403) 277-1870,1345 32 AVENUE NE, , ,1345 32 AVENUE NE, , ,CALGARY,T2E 7Z5
77461500,POINT MCKAY WINE STORE,(403) 286-1936,NOFAX,1-145 POINT DRIVE NW, , ,1-145 POINT DRIVE NW, , ,CALGARY,T3B 4W1
77472300,CO-OP WINE SPIRITS BEER - AUBURN BAY,(403) 726-7713,NOFAX,401-100 AUBURN MEADOWS DRIVE SE, , ,2570 SOUTHLAND DRIVE SW, , ,CALGARY,T3M 2G5
77474400,NUMBER 1 ALBERTA LIQUOR LTD.,(403) 277-0393,(403) 277-0393,C-3930 32 STREET NE, , ,74 SADDLELAKE VIEW NE, , ,CALGARY,T1Y 7L9
77483400,KENSINGTON WINE MARKET,(403) 283-8000,(403) 283-4283,KENSINGTON STATION,1257 KENSINGTON ROAD NW, ,KENSINGTON STATION,1257 KENSINGTON ROAD NW, ,CALGARY,T2N 3P8
77485400,SPIRITS OF KENSINGTON,(403) 283-6666,NOFAX,20 14 STREET NW, , ,20 14 STREET NW, , ,CALGARY,T2N 1Z4
77485500,URBAN CELLARS,(403) 453-0644,(403) 452-3469,1A-506 10 STREET NW, , ,1A-506 10 STREET NW, , ,CALGARY,T2N 1W3
77490600,EVEREST WINE & SPIRITS,(403) 452-0353,NOFAX,232-7171 80 AVENUE NE, , ,113 HARVEST PARK CIRCLE NE, , ,CALGARY,T3J 0P6
77492000,CROWFOOT WINE & SPIRITS - ALTADORE,(403) 454-3056,NOFAX,103-3505 14 STREET SW, , ,201-7422 CROWFOOT ROAD NW, , ,CALGARY,T2T 3W2
77498900,NEW DISCOVERY FINE WINES AND SPIRITS,(403) 240-1413,NOFAX,916-10 DISCOVERY RIDGE HILL SW, , ,916-10 DISCOVERY RIDGE HILL SW, , ,CALGARY,T3H 5X2
77500800,WINE & BEYOND AT SAGE HILL CROSSING,(587) 535-1781,NOFAX,120-55 SAGE HILL PLAZA NW, , ,101-17220 STONY PLAIN ROAD, , ,CALGARY,T3R 0S4
77503800,ZYN ON 9TH,(403) 775-9814,NOFAX,1402 9 AVENUE SE, , ,1543 17 AVENUE SE, , ,CALGARY,T2G 0T5
77507100,LIQUOR DEPOT AT SIGNAL HILL,(403) 685-1944,(587) 483-9244,5522 SIGNAL HILL CENTRE SW, , ,101-17220 STONY PLAIN ROAD, , ,CALGARY,T3H 3P8
77508400,SOLO LIQUOR STORE (WESTBROOK),(403) 727-7565,NOFAX,3309 17 AVENUE SW, , ,1100-634 6 AVENUE SW, , ,CALGARY,T3E 0B4
77511800,RB CANADIAN LIQUOR STORE,(403) 973-9721,NOFAX,5-208 MIDPARK WAY SE, , ,7 WENTWORTH CIR SW, , ,CALGARY,T2Y 1J6
77517500,STAR LIQUOR & WINE BOUTIQUE,(587) 755-7827,(587) 755-7828,200-11135 14 STREET NE, , ,5101-50 FIRESIDE GATE, , ,CALGARY,T3K 0Z7
77517700,OLYMPIA LIQUOR 46 AVE,(403) 245-6527,NOFAX,4614 MACLEOD TRAIL SW, , ,20-6624 CENTRE STREET SE, , ,CALGARY,T2G 5E8
77518100,OLYMPIA LIQUOR MARLBOROUGH,-,NOFAX,114-428 36 STREET NE, , ,20-6624 CENTRE STREET SE, , ,CALGARY,T2A 5W8
77519300,SAM'S LIQUOR STORE,(403) 590-2334,(403) 547-1091,12-3304 64 STREET NE, , ,12-3304 64 STREET NE, , ,CALGARY,T1Y 5R4
77522900,LIQUOR CENTRAL,(403) 475-7897,NOFAX,924B 5 AVENUE SW, , ,924B 5 AVENUE SW, , ,CALGARY,T2P 0N7
77525100,RB CANADIAN LIQUOR STORE,(403) 720-0266,(403) 720-0268,36-20 DOUGLAS WOODS DRIVE SE, , ,36-20 DOUGLAS WOODS DRIVE SE, , ,CALGARY,T2Z 1K4
77526000,RB CANADIAN LIQUOR STORE,(403) 455-5950,(403) 455-5950,13-3109 PALLISER DRIVE SW, , ,13-3109 PALLISER DRIVE SW, , ,CALGARY,T2V 4W5
77529300,LIQUOR BANK HAWKWOOD,(403) 374-2261,(403) 241-6659,67-555 HAWKWOOD BOULEVARD NW, , ,44 ROCKCLIFF POINT NW, , ,CALGARY,T3G 3K2
77530400,SUPER LOW LIQUOR,(403) 273-2722,NOFAX,2232 52 STREET SE, , ,143 COUNTRY CLUB LANE, , ,CALGARY,T2B 2E7
77537600,OLYMPIA LIQUOR ROYAL OAK,-,NOFAX,240-500 ROYAL OAK DRIVE NW, , ,20-6624 CENTRE STREET SE, , ,CALGARY,T3G 0E8
77537800,REAL CANADIAN LIQUOR STORE,(587) 475-1353,NOFAX,19645 SETON WAY SE, , ,3225 12 STREET NE, , ,CALGARY,T3M 1T4
77548700,BUZZ BUDDY LIQUOR,(403) 276-6228,NOFAX,2418A EDMONTON TRAIL NE, , ,3205-210 15 AVENUE SE, , ,CALGARY,T2E 3M8
77554600,WHOLE CELLARS,(403) 717-3727,NOFAX,307-2555 32 STREET NE, , ,8-10822 50 STREET SE, , ,CALGARY,T1Y 7J6
77554700,WHOLE CELLARS,(403) 909-0587,NOFAX,8-10822 50 STREET SE, , ,8-10822 50 STREET SE, , ,CALGARY,T2C 5N9
77563500,BUDDY'S LIQUOR,(403) 248-2337,NOFAX,109-1803 60 STREET SE, , ,143 COUNTRY CLUB LANE, , ,CALGARY,T2B 0M5
77572400,BEDFORD LIQUOR,(403) 201-8838,(403) 731-0028,637 SHAWINIGAN DRIVE SW, , ,637 SHAWINIGAN DRIVE SW, , ,CALGARY,T2Y 4H2
77591600,MACLEOD LIQUOR & WINES,(403) 251-4959,NOFAX,2-7112 MACLEOD TRAIL SE, , ,2-7112 MACLEOD TRAIL SE, , ,CALGARY,T2H 0L3
77594600,LION WINES & SPIRITS,(403) 818-8406,NOFAX,106-3132 26 STREET NE, , ,106-3132 26 STREET NE, , ,CALGARY,T1Y 6Z1
77610500,WORLD OF WHISKY - DOWNTOWN,(587) 956-8511,NOFAX,220-333 5 AVENUE SW, , ,240-333 5 AVENUE SW, , ,CALGARY,T2P 3B6
77611900,PREMIER LIQUOR,(403) 255-0277,NOFAX,9677 MACLEOD TRAIL SW, , ,9677 MACLEOD TRAIL SW, , ,CALGARY,T2J 0P6
77613100,SOBEYS LIQUOR (MAHOGANY),(403) 279-0722,NOFAX,15507 MAHOGANY PLAZA SE, , ,1020 64 AVENUE NE, , ,CALGARY,T3M 2P8
77613500,COSTCO LIQUOR,(403) 248-2202,NOFAX,73 EAST HILLS BOULEVARD SE, , ,73 EAST HILLS BOULEVARD SE, , ,CALGARY,T2A 6J8
77622000,LIQUORAMA LTD.,(403) 273-1300,NOFAX,314-8120 BEDDINGTON BOULEVARD NW, , ,314-8120 BEDDINGTON BOULEVARD NW, , ,CALGARY,T3K 2A8
77622400,BOW TRAIL (BK LIQUOR),(403) 475-9600,(403) 475-9622,3820 BOW TRAIL SW, , ,18 PATTERSON GREEN SW, , ,CALGARY,T3C 2E7
77625000,VINE ARTS WINE AND SPIRITS,(403) 454-1106,NOFAX,Unit 101 932 17 Avenue SW, , ,101 932 17 AVENUE SW, , ,CALGARY,T2T 0A2
77626700,INSTA LIQUOR ACADIA,(403) 255-1709,NOFAX,106-580 ACADIA DRIVE SE, , ,106-580 ACADIA DRIVE SE, , ,CALGARY,T2J 0B6
77626800,OLYMPIA LIQUOR JACKSON PORT,(587) 535-1361,NOFAX,138-3840 104 AVENUE NE, , ,20-6624 CENTRE STREET SE, , ,CALGARY,T2C 1R7
77626900,CANADIAN LIQUOR STORE #3,(403) 475-7762,NOFAX,9-1603 62 AVENUE SE, , ,9-1603 62 AVENUE SE, , ,CALGARY,T2C 2C5
77627600,WISE GUYS LIQUOR,(403) 219-8804,NOFAX,14-2770 32 AVENUE NE, , ,14-2770 32 AVENUE NE, , ,CALGARY,T1Y 5S5
77642400,STACEY'S LIQUOR STOP,(403) 255-7135,NOFAX,HERITAGE PLAZA,F15-8330 MACLEOD TRAIL SE, ,F15-8330 MACLEOD TRAIL SE, , ,CALGARY,T2H 2V2
77648100,OLYMPIA LIQUOR FALCONRIDGE,(403) 605-6529,NOFAX,5421 FALSBRIDGE DRIVE NE, , ,20 6624 CENTRE STREET NE, , ,CALGARY,T3J 3E8
77649000,LIQUOR PALACE,(587) 891-5763,NOFAX,150-920 36 STREET NE, , ,150-920 36 STREET NE, , ,CALGARY,T2A 6L8
77654000,LIQUOR ZONE,(403) 370-2669,NOFAX,8-728 NORTHMOUNT DRIVE NW, , ,137 EVERCREEK BLUFFS ROAD SW, , ,CALGARY,T2K 3K2
77656000,J. WEBB MARKET WINES,(403) 475-9463,NOFAX,520 77 AVENUE SE, , ,6221C CENTRE STREET SW, , ,CALGARY,T2H 1C3
77658500,CAP LIQUOR,(403) 460-0111,NOFAX,2042 42 AVENUE SW, , ,2042 42 AVENUE SW, , ,CALGARY,T2T 2M7
77660600,SPYHILL LIQUOR,(403) 294-9142,NOFAX,3-7715 112 AVENUE NW, , ,33 ROYAL BIRCH HILL NW, , ,CALGARY,T3R 1R8
77670800,STAR LIQUOR & WINE BOUTIQUE,(587) 356-7827,NOFAX,130-5305 COUNTRY HILLS BOULEVARD NE, , ,106-2323 32 AVENUE NE, , ,CALGARY,T3N 0X4
77671400,ROCKY MOUNTAIN WINE  SPIRITS & BEER,(403) 305-0096,NOFAX,5-225 58 AVENUE SE, , ,225 58 AVENUE SE, , ,CALGARY,T2H 0N8
77673300,AB LIQUOR OUTLET,(403) 836-4016,NOFAX,2-1719 70 STREET SE, , ,488 TARACOVE ESTATE DRIVE NE, , ,CALGARY,T2A 7Z6
77673900,DAVE'S LIQUOR STORE,(403) 220-9483,(403) 220-9487,1540 16 AVENUE NW, , ,222-7 WESTWINDS CRESCENT NE,SECOND FLOOR, ,CALGARY,T2M 0L5
77680500,BIG COUNTRY LIQUOR'S,(403) 289-6867,NOFAX,769 NORTHMOUNT DRIVE NW, , ,114 TARADALE DRIVE NE, , ,CALGARY,T2L 0A1
77687500,BK LIQUOR,(403) 680-1147,NOFAX,22-13750 BOW BOTTOM TRAIL SE, , ,22-13750 BOW BOTTOM TRAIL SE, , ,CALGARY,T2J 6T5
77700900,BREWER'S APPRENTICE,(403) 804-4924,NOFAX,448 8 AVENUE SE, , ,448 8 AVENUE SE, , ,CALGARY,T2G 0L7
77701000,SPIRITS OF CRANSTON,(403) 261-5727,NOFAX,5-90 CRANLEIGH DRIVE SE, , ,224 CHAPARRAL DRIVE SE, , ,CALGARY,T3M 1J7
77706900,YS LIQUOR STORE,-,NOFAX,28-55 CASTLERIDGE BOULEVARD NE, , ,28-55 CASTLERIDGE BOULEVARD NE, , ,CALGARY,T3J 3J8
77711400,MH LIQUOR,-,NOFAX,420-2550 COUNTRY HILL BOULEVARD NE, , ,24 SKYVIEW POINT TERRACE NE, , ,CALGARY,T3N OG2
77711600,RJ LIQUOR,(403) 241-9432,NOFAX,110-5149 COUNTRY HILLS BOULEVARD NW, , ,448 TARACOVE ESTATES DRIVE NE, , ,CALGARY,T3K 5K8
77720600,LIQUOR PLEX,-,NOFAX,13-16 MACEWAN DRIVE NW, , ,40 KINCORA MEWS NW, , ,CALGARY,T3K 2P2
77720700,COUGAR RIDGE LIQUOR FINE WINE & SPIRITS,(587) 617-8899,NOFAX,212-677 COUGAR RIDGE DRIVE SW, , ,212-677 COUGAR RIDGE DRIVE SW, , ,CALGARY,T3H 5J2
77725500,LIQUOR EMPORIUM,(403) 630-8641,NOFAX,236-66 SANDARAC DRIVE NW, , ,213 PANTEGO ROAD NW, , ,CALGARY,T3K 4L2
77728800,SAFEWAY LIQUOR SHAWNESSY,-,NOFAX,700-70 SHAWVILLE BOULEVARD SE, , ,700-70 SHAWVILLE BOULEVARD SE, , ,CALGARY,T2Y 2Z3
77730300,RB CANADIAN LIQUOR STORE,(403) 870-9861,NOFAX,108-45 EDENWOLD DRIVE NW, , ,180 WHITEGLEN CRESCENT NE, , ,CALGARY,T3A 3S8
77732600,ABLO (ABBEYDALE),(403) 836-4016,NOFAX,ABBEYDALE MALL,5-826 68 STREET NE, ,488 TARA COVE ESTATES DRIVE NE, , ,CALGARY,T2A 6X7
77742700,CO-OP WINE SPIRITS BEER - COUNTRY HILLS,(403) 457-2526,(403) 457-2521,218-177 COUNTRY HILLS BOULEVARD NW, , ,218-177 COUNTRY HILLS BOULEVARD NW, , ,CALGARY,T3K 5M6
77744500,VENUS LIQUOR STORE,(403) 966-3363,NOFAX,3176 SUNRIDGE BOULEVARD NE, , ,107 WHITESIDE CRESCENT NE, , ,CALGARY,T1Y 7G6
77746300,HIGHLANDER WINE & SPIRITS,(403) 269-1338,NOFAX,1000-10 ASPEN STONE BOULEVARD SW, , ,6045 4 STREET SE, , ,CALGARY,T3H 0K3
77747200,LIQUOR CITY,(403) 919-9725,NOFAX,119-20 COUNTRY HILLS LANDING NW, , ,ROAD 284 RR 6 SITE 9 BOX 87, , ,CALGARY,T3K 5P4
77748800,LIQUOR PALACE 2,(403) 926-1567,NOFAX,7 CORAL SPRINGS BOULEVARD NE, , ,74 SADDLELAKE VIEW NE, , ,CALGARY,T3J 4J1
77752500,BIG COUNTRY LIQUOR,(403) 685-1994,NOFAX,31-8 WESTON DRIVE SW, , ,31-8 WESTON DRIVE SW, , ,CALGARY,T3H 5P2
77762100,STAR LIQUOR WINE BOUTIQUE,(403) 452-0754,(403) 452-0790,117-4820 NORTHLAND DRIVE NW, , ,106-2323 32 AVENUE NE, , ,CALGARY,T2L 2L4
77773700,TIPSY TIME,(403) 351-8181,NOFAX,317-5303 68 AVENUE SE, , ,201-628 12 AVENUE SW, , ,CALGARY,T2C 4Z2
77774700,T & T LIQUOR,(403) 272-6633,NOFAX,4608 17 AVENUE SE, , ,85 MALIBOU ROAD SW, , ,CALGARY,T2A 0V1
77786700,HIGHLANDER WINE & SPIRITS,(403) 640-7759,NOFAX,225-555 8 AVENUE SW, , ,6045 4 STREET SE, , ,CALGARY,T2P 1G2
77812200,NORTHMOUNT LIQUOR STORE,(403) 608-7038,NOFAX,1041 40 AVENUE NW, , ,1041 40 AVENUE NW, , ,CALGARY,T2K 0G2
77816200,WILLOW PARK WINES & SPIRITS,(403) 296-1640,(403) 225-0376,10801 BONAVENTURE DRIVE SE, , ,10801 BONAVENTURE DRIVE SE, , ,CALGARY,T2J 6Z8
77824000,LIQUOR TOWN,(403) 547-2536,NOFAX,8-735 RANCHLANDS BOULEVARD NW, , ,180 WHITEGLEN CRESCENT NE, , ,CALGARY,T3G 3A9
77827500,MILLRISE LIQUOR,(587) 481-4947,NOFAX,31-15 MILLRISE BOULEVARD SW, , ,119 COVEPARK GREEN NE, , ,CALGARY,T2Y 1X7
77827600,MINHAS LIQUOR STORE,(403) 383-0400,NOFAX,4831 MACLEOD TRAIL SW, , ,205 ROCKCLIFF BAY NW, , ,CALGARY,T2G 5C1
77842000,LIQUOR ON 54,(587) 700-7905,NOFAX,101-4655 54 AVENUE NE, , ,80 HOWSE DRIVE NE, , ,CALGARY,T3J 3Z4
77845000,COLLECTIVE-A CRAFT BEER SHOP,(403) 984-5009,NOFAX,445-12445 LAKE FRASER DRIVE SE, , ,284 MAHOGANY TERRACE SE, , ,CALGARY,T2J 7A4
77850100,CO-OP WINE SPIRITS BEER-CROWCHILD CORNER,(403) 453-1904,NOFAX,17-2439 54 AVENUE SW, , ,17-2439 54 AVENUE SW, , ,CALGARY,T3E 1M4
77851300,HIDDEN VALLEY WINE AND SPIRITS,(403) 903-1331,NOFAX,10097 HIDDEN VALLEY DRIVE NW, , ,35 KINGSLAND WAY SE, , ,CALGARY,T3A 5Z7
77858100,TOTAL WINE & LIQUOR,(403) 978-9273,NOFAX,1 5555 STRATHCONA HILL SW, , ,41 HAMPSTEAD TERRACE NW, , ,CALGARY,T3H 1S2
77864500,WESTSIDE WINES & SPIRITS,(403) 265-1231,NOFAX,101-1000 9 AVENUE SW, , ,556 PATTERSON GROVE SW, , ,CALGARY,T2P 2Y6
77864900,MEGA LIQUOR STORE,(403) 207-9530,NOFAX,190-495 36 STREET  NE, , ,118 CITYSCAPE WAY NE, , ,CALGARY,T2A 6K3
77870200,WILLOW PARK WINES & SPIRITS EAU CLAIRE,(403) 262-9463,NOFAX,162-200 BARCLAY PARADE SW, , ,162-200 BARCLAY PARADE SW, , ,CALGARY,T2P 4R5
77877700,TOTAL WINE & LIQUOR # 2,(403) 560-3339,NOFAX,2-5268 MARLBOROUGH DRIVE NE, , ,41 HAMPSTEAD TERRACE NW, , ,CALGARY,T2A 5L5
77901300,58TH AVENUE LIQUOR STORE,(587) 350-8292,NOFAX,111- 5809 MACLEOD TRAIL SW, , ,224 CHAPARRAL DRIVE SE, , ,CALGARY,T2H 0J9
77912000,LIQUOR DEPOT AT MONTGOMERY,(403) 620-4190,NOFAX,11-5032 16 AVENUE NW, , ,101-17220 STONY PLAIN ROAD, , ,CALGARY,T3B 0N3
77912100,12TH AVE. LIQUOR DEPOT,(403) 620-4190,NOFAX,100-825 12 AVENUE SW, , ,101-17220 STONY PLAIN ROAD, , ,CALGARY,T2R 0J2
77917100,YYC LIQUOR,(587) 700-7085,NOFAX,1918 32 AVENUE NE, , ,207 KINCORA VIEW NW, , ,CALGARY,T2E 6R6
77918700,CANYON CREEK LIQUOR STORE,-,NOFAX,1045 CANYON MEADOWS DRIVE SW, , ,1045 CANYON MEADOWS DRIVE SW, , ,CALGARY,T2W 5V3
77920700,LIQUOR TOWN,(403) 590-9861,NOFAX,37 CROWFOOT RISE NW, , ,180 WHITEGLEN CRESCENT NE, , ,CALGARY,T3G 4P5
77937300,RED STONE LIQUOR,(587) 291-9692,NOFAX,103 630 REDSTONE DRIVE NE, , ,19 SADDLELAKE VIEW NE, , ,CALGARY,T3N 1L4
77937400,CAPITOL HILL LIQUOR,(403) 400-0378,NOFAX,2110 14 STREET NW, , ,2110 14 STREET NW, , ,CALGARY,T2M 3N5
77942800,BK LIQUOR (TUXEDO),(403) 499-8000,NOFAX,259 20 AVENUE NE, , ,259 20 AVENUE NE, , ,CALGARY,T2E 1R1
77948400,LIQUOR DEPOT AT DOVER,(403) 620-4190,NOFAX,13-3525 26 AVENUE SE, , ,101 17220 STONY PLAIN ROAD, , ,CALGARY,T2B 2M9
77968800,5 VINES WINES  CRAFT BEER & SPIRITS,(403) 968-7624,NOFAX,105 MAHOGANY CENTRE SE, , ,218 12 AVENUE SE, , ,CALGARY,T3B 2C7
77976000,BIN 905 DISTINCT WINES,(403) 640-7759,NOFAX,2311 4 STREET SW, , ,6045 4 STREET SE, , ,CALGARY,T2S 0K4
77982000,DC LIQUOR STORE,(403) 498-6040,NOFAX,4643B 37 STREET SW, , ,4643B 37 STREET SW, , ,CALGARY,T3E 3C8
77985300,GRAPE WINE AND SPIRITS,(587) 216-7877,NOFAX,705 5 AVENUE SW, , ,705 5 AVENUE SW, , ,CALGARY,T2P 0N2
77986600,CO-OP WINE SPIRITS BEER - WORLD OF WINE,(587) 956-8511,NOFAX,270-333 5 AVENUE SW, , ,270-333 5 AVENUE SW, , ,CALGARY,T2P 3B6
77993500,CANADIAN LIQUOR STORE #4,(403) 247-2880,NOFAX,16648 MCKENZIE LAKE BOULEVARD SE, , ,16648 MCKENZIE LAKE BOULEVARD SE, , ,CALGARY,T2Z 1N4
77993600,CRESENT LIQUOR,(403) 585-0261,NOFAX,117-831 EDMONTON TRAIL NE, , ,689 EAST LAKEVIEW ROAD, , ,CALGARY,T2E 3J8
77994200,VILLAGE SQUARE LIQUOR BARN,(403) 296-0744,NOFAX,115-2640 52 STREET NE, , ,101-17220 STONY PLAIN ROAD, , ,CALGARY,T1Y 3R6
77997700,ACE LIQUOR DISCOUNTER AT CHAPARRAL,(403) 254-2811,NOFAX,111-10 CHAPARRAL DRIVE SE, , ,101-17220 STONY PLAIN ROAD, , ,CALGARY,T2X 3R7
77997800,ACE LIQUOR DISCOUNTER AT COACH HILL,(403) 240-2444,NOFAX,6448 OLD BANFF COACH ROAD SW, , ,101-17220 STONY PLAIN ROAD, , ,CALGARY,T3H 2H4
77998000,ACE LIQUOR DISCOUNTER AT TRANS CANADA,(403) 296-0590,NOFAX,216-1440 52 STREET NE, , ,101-17220 STONY PLAIN ROAD, , ,CALGARY,T2A 4T8
77998200,ACE LIQUOR DISCOUNTER AT LAKEVIEW,(403) 531-1780,NOFAX,LAKEVIEW PLAZA SHOPPING CENTRE,107-6449 CROWCHILD TRAIL SW, ,101-17220 STONY PLAIN ROAD, , ,CALGARY,T3E 5R7
77998300,ACE LIQUOR AT DALHOUSIE,(403) 202-1088,NOFAX,159-5005 DALHOUSIE DRIVE NW, , ,101-17220 STONY PLAIN ROAD, , ,CALGARY,T3A 5R8
77998400,ACE LIQUOR DISCOUNTER AT MONTEREY SQUARE,(403) 293-5593,NOFAX,116-2220 68 STREET NE, , ,101 17220 STONY PLAIN ROAD, , ,CALGARY,T1Y 6Y7
77998500,ACE LIQUOR DISCOUNTER AT ACADIA,(403) 640-4665,NOFAX,379 HERITAGE DRIVE SE, , ,101-17220 STONY PLAIN ROAD, , ,CALGARY,T2H 1M8
77998600,ACE LIQUOR DISCOUNTER AT COUNTRY HILLS,(403) 226-0028,NOFAX,303-500 COUNTRY HILLS BOULEVARD NE, , ,101-17220 STONY PLAIN ROAD, , ,CALGARY,T3K 4Y7
77998700,ACE LIQUOR AT PANORAMA HILLS,(403) 274-4202,NOFAX,710-1110 PANATELLA BOULEVARD NW, , ,101-17220 STONY PLAIN ROAD, , ,CALGARY,T3K 0S6
77998800,ACE LIQUOR DISCOUNTER AT HARVEST HILLS,(403) 226-6258,NOFAX,9650 HARVEST HILLS BOULEVARD NE, , ,101-17220 STONY PLAIN ROAD NW, , ,CALGARY,T3K 0B3
77998900,ACE LIQUOR DISCOUNTER AT MIDLAKE,(403) 254-5555,NOFAX,620-22 MIDLAKE BOULEVARD SE, , ,101-17220 STONY PLAIN ROAD, , ,CALGARY,T2X 2X7
77999000,ACE LIQUOR DISCOUNTER AT GLENMORE SQUARE,(403) 236-8560,NOFAX,56-7740 18 STREET SE, , ,101-17220 STONY PLAIN ROAD, , ,CALGARY,T2C 2N5
78002000,ACE LIQUOR AT OAK BAY PLAZA,(587) 354-6002,NOFAX,183-2515 90 AVENUE SW, , ,101-17220 STONY PLAIN ROAD, , ,CALGARY,T2V 0L8
78004100,LIQUOR DEPOT AT DEER VALLEY,(403) 296-0595,(403) 278-1518,319-1221 CANYON MEADOWS DRIVE SE, , ,101-17220 STONY PLAIN ROAD, , ,CALGARY,T2J 6G2
78011100,ALBERTA BEER EXCHANGE,(403) 969-5674,NOFAX,130-1642 10 AVENUE SW, , ,1404 16 STREET SW, , ,CALGARY,T3C 0J5
78013000,ACE LIQUOR DISCOUNTER AT EDMONTON TRAIL,(780) 989-7601,NOFAX,1-1211 EDMONTON TRAIL NE, , ,101 17220 STONY PLAIN ROAD NW, , ,CALGARY,T2E 6W2
78016500,ACE LIQUOR DISCOUNTER AT ROYAL OAK,-,NOFAX,6106-8650 112 AVENUE NW, , ,101-17220 STONY PLAIN ROAD, , ,CALGARY,T3R 0R5
78017100,BIG COUNTRY LIQUOR,(403) 452-0897,NOFAX,122-5403 CROWCHILD TRAIL NW, , ,122-5403 CROWCHILD TRAIL NW, , ,CALGARY,T3B 4Z1
78029100,BUZZ BUDDY LIQUOR,-,NOFAX,858-11520 24 STREET SE, , ,3205-210 15 AVENUE SE, , ,CALGARY,T2Z 3E9
78037000,LEGACY LIQUOR,(403) 483-0821,NOFAX,421-3508 32 AVENUE NE, , ,421-3508 32 AVENUE NE, , ,CALGARY,T1Y 6J2
78041500,LIQUOR DEPOT AT NORTH HILL,(403) 296-0745,NOFAX,1810-1632 14 AVENUE NW, , ,101-17220 STONY PLAIN ROAD, , ,CALGARY,T2N 1M7
78044100,HOT SHOT LIQUOR STORE,(403) 764-0100,NOFAX,336 14 STREET NW, , ,6 CITYSCAPE HEATH NE, , ,CALGARY,T2N 1Z7
78045400,LIQUOR WELLZ (MEWATA),(403) 560-0520,NOFAX,535 10 STREET SW, , ,2538 CATALINA BOULEVARD NE, , ,CALGARY,T2P 2B8
78045500,LIQUOR WELLZ (TARADALE),(403) 560-0520,NOFAX,300-6520 FALCONRIDGE BOULEVARD NE, , ,2538 CATALINA BOULEVARD NE, , ,CALGARY,T3J 3W6
78050300,SOLO LIQUOR AT WALDEN,(403) 719-7656,NOFAX,2127-19605 WALDEN BOULEVARD SE, , ,101-17220 STONY PLAIN ROAD, , ,CALGARY,T2X 0M7
78050400,SOLO LIQUOR AT TUSCANY,(403) 374-2060,NOFAX,101-5029 NOSE HILL DRIVE NW, , ,101-17220 STONY PLAIN ROAD, , ,CALGARY,T3L 0A2
78050500,SOLO LIQUOR AT PANORAMA,(403) 567-1110,NOFAX,12 PANATELLA BOULEVARD NW, , ,101-17220 STONY PLAIN ROAD, , ,CALGARY,T3K 5Z6
78050600,SOLO LIQUOR AT DOUGLASDALE,(403) 236-8799,NOFAX,7-3451 DOUGLASDALE BOULEVARD SE, , ,101-17220 STONY PLAIN ROAD, , ,CALGARY,T2Z 4J1
78050700,SOLO LIQUOR AT CROSSROADS,(403) 250-6600,NOFAX,2141 18 AVENUE NE, , ,101-17220 STONY PLAIN ROAD, , ,CALGARY,T2E 1R7
78050800,SOLO LIQUOR AT COPPERPOND,(403) 203-7588,NOFAX,209-151 COPPERPOND BOULEVARD SE, , ,101-17220 STONY PLAIN ROAD, , ,CALGARY,T2Z 0Z7
78050900,SOLO LIQUOR AT COPPERFIELD,(403) 263-2337,NOFAX,10 COPPERSTONE STREET SE, , ,101-17220 STONY PLAIN ROAD, , ,CALGARY,T2Z 0V4
78051200,SOLO LIQUOR AT BONAVENTURE,(403) 252-8377,NOFAX,MACLEOD PLAZA,8-9250 MACLEOD TRAIL SE, ,101-17220 STONY PLAIN ROAD, , ,CALGARY,T2J 0P5
78051500,SOLO LIQUOR AT BANKVIEW,(403) 262-7656,NOFAX,2601 14 STREET SW, , ,101-17220 STONY PLAIN ROAD, , ,CALGARY,T2T 3T9
78063500,LIQUOR BANK CROWFOOT,-,NOFAX,818-800 CROWFOOT CRESCENT NW, , ,44 ROCKCLIFF POINT NW, , ,CALGARY,T3G 4S3
78064700,LIQUOR BANK FISHCREEK,-,NOFAX,3111-380 CANYON MEADOWS DRIVE SE, , ,44 ROCKCLIFF POINT NW, , ,CALGARY,T2J 7C3
77034200,ALES WINES & SPIRITS,(780) 985-3334,(780) 985-3334,5001 50 AVENUE, , ,PO BOX 1200, , ,CALMAR,T0C 0V0
77711900,CALMAR LIQUOR STORE,(780) 884-9424,NOFAX,4710 50 AVENUE, , ,PO BOX 96, , ,CALMAR,T0C 0V0
74256700,HARLEY'S,(780) 672-1010,(780) 672-2394,6520 48 AVENUE, , ,6520 48 AVENUE, , ,CAMROSE,T4V 3A3
76077300,COUNTRY GARDEN LIQUOR STORE,(780) 672-6665,(780) 672-7461,3911 48 AVENUE, , ,3911 48 AVENUE, , ,CAMROSE,T4V 2Z1
76147500,REAL CANADIAN LIQUOR STORE,(780) 608-2240,(780) 608-2239,7001 48 AVENUE, , ,7001 48 AVENUE, , ,CAMROSE,T4V 4W1
77030100,DALE'S LIQUOR STORE,(780) 672-1510,(780) 672-0321,4809 51 AVENUE, , ,4809 51 AVENUE, , ,CAMROSE,T4V 0V4
77528200,MCSLIQUORS,(780) 608-1947,NOFAX,4907A 48 AVENUE, , ,4907A 48 AVENUE, , ,CAMROSE,T4V 0J4
77547000,ROYAL CHEERS LIQUOR STORE,(780) 672-8540,NOFAX,4809 50 STREET, , ,2635 33 STREET NW, , ,CAMROSE,T4V 1P4
77999900,ACE LIQUOR DISCOUNTER AT CAMROSE,(780) 242-6342,NOFAX,310-6800 48 AVENUE, , ,101-17220 STONY PLAIN ROAD, , ,CAMROSE,T4V 4T1
78002900,ACE LIQUOR AT 48TH AVE CAMROSE,(780) 989-7645,NOFAX,6118 48 AVENUE, , ,101-17220 STONY PLAIN ROAD, , ,CAMROSE,T4V 0K5
78065700,NOVA LIQUOR,(780) 266-8890,NOFAX,405-6805 48 AVENUE, , ,2609 21A AVENUE NW, , ,CAMROSE,T4V 4W1
76346600,SOBEYS LIQUOR (CANMORE),(403) 609-6636,(403) 609-2668,104-1040 RAILWAY AVENUE, , ,1020 64 AVENUE NE, , ,CANMORE,T1W 1P4
76698700,CANMORE WINE MERCHANTS,(403) 678-4999,NOFAX,836 MAIN STREET, , ,836 MAIN STREET, , ,CANMORE,T1W 2B7
76983100,CELLAR DOOR,(403) 675-1100,NOFAX,109-701 BENCHLANDS TRAIL, , ,109-701 BENCHLANDS TRAIL, , ,CANMORE,T1W 3G9
77264200,LIQUOR POINT,(403) 678-5775,(403) 675-2721,D-1702 BOW VALLEY TRAIL, , ,D-1702 BOW VALLEY TRAIL, , ,CANMORE,T1W 1N5
77308900,RUSTY'S DOWNTOWN LIQUOR,(403) 678-4465,NOFAX,3-801 MAIN STREET, , ,2-801 MAIN STREET, , ,CANMORE,T1W 2B3
77353700,SAFEWAY LIQUOR (RAILWAY AVENUE),(403) 609-4655,(403) 609-4604,200-1200 RAILWAY AVENUE, , ,1020 64 AVENUE NE, , ,CANMORE,T1W 1P4
77377100,UNWINED@3SISTERS WINE  BEER AND SPIRITS,(403) 763-0046,NOFAX,LTD.,102B-75 DYRGAS GATE, ,LTD.,102-75 DYRGAS GATE, ,CANMORE,T1W 0A6
77529000,COUGAR'S LIQUOR,(403) 678-2000,(403) 678-2000,102-1005 COUGAR CREEK DRIVE, , ,1 - 1000 COUGAR CREEK DRIVE, , ,CANMORE,T1W 1E1
77777800,SPRING CREEK CELLARS,(403) 688-4791,NOFAX,703C-707 SPRING CREEK DRIVE, , ,1F-737 MALLARD ALLEY, , ,CANMORE,T1W 2J9
77816100,CHATEAU LIQUOR CANMORE,(403) 609-2016,NOFAX,1718 BOW VALLEY TRAIL, , ,PO BOX 3059, , ,CANMORE,T1W 2X3
77879300,CORK'N BOTTLE BEER WINE & SPIRITS,(780) 364-0022,NOFAX,105-300 OLD CANMORE ROAD, , ,72 WALTERS PLACE, , ,CANMORE,T1W 0L5
77996300,ACE LIQUOR DISCOUNTER AT CANMORE,(403) 678-2451,NOFAX,120-1120 RAILWAY AVENUE, , ,101-17220 STONY PLAIN ROAD, , ,CANMORE,T1W 1P4
78020100,3 PEAKS LIQUOR,(403) 753-2234,NOFAX,105-721 8 STREET, , ,PO BOX 3059, , ,CANMORE,T1W 1W4
78049100,SOLO LIQUOR AT CANMORE,(403) 678-9378,NOFAX,101-802 BOW VALLEY TRAIL, , ,101-17220 STONY PLAIN ROAD, , ,CANMORE,T1W 1N6
74266000,CAROLINE LIQUOR STORE,(403) 722-3161,(403) 722-3161,2-4903 50 AVENUE, , ,PO BOX 566, , ,CAROLINE,T0M 0M0
76152000,WESTSIDE LIQUOR STORE,(403) 722-3135,(403) 722-3155,5107 50 AVENUE, , ,PO BOX 741, , ,CAROLINE,T0M 0M0
75842000,SOPHIE'S CARSELAND LIQUOR STORE,(403) 934-6054,(403) 934-6054,3-104 MAIN STREET, , ,PO BOX 254, , ,CARSELAND,T0J 0M0
76753300,CARSTAIRS LIQUOR,(403) 337-3939,NOFAX,307 10 AVENUE SOUTH, , ,PO BOX 1748, , ,CARSTAIRS,T0M 0N0
77100500,AB LIQUOR MART,(403) 940-3333,(403) 940-3336,4-517 10 AVENUE S, , ,PO BOX 908, , ,CARSTAIRS,T0M 0N0
77297500,CARSTAIRS COLD BEER AND LIQUOR STORE,(403) 337-3704,(403) 337-3773,105 10 AVENUE S, , ,806 CANOE GREEN SW, , ,CARSTAIRS,T0M 0N0
76354200,CASTOR LIQUOR STORE,(403) 882-3855,(403) 882-3708,1-5301 50 AVENUE, , ,PO BOX 371, , ,CASTOR,T0C 0X0
77715200,LIQUOR PIG,(403) 882-2433,(403) 882-4688,5205 50 AVENUE, , ,PO BOX 442, , ,CASTOR,T0C 0X0
74242600,JR'S LIQUOR MART,(780) 858-3766,(780) 858-2014,113 MAIN STREET, , ,PO BOX 264, , ,CHAUVIN,T0B 0V0
76738600,SOBEYS LIQUOR (CHESTERMERE),(403) 204-2140,(403) 204-2179,103-156 CHESTERMERE STATION WAY, , ,1020 64 AVENUE NE, , ,CHESTERMERE,T1X 0A9
76845800,GLOBAL LIQUOR STORE #5,(403) 452-7935,(403) 235-0990,107-300 MERGANSER DRIVE WEST, , ,516 PANATELLA COURT NW, , ,CHESTERMERE,T1X 1L6
77430500,NO FRILLS LIQUOR,(403) 273-9003,NOFAX,401-100 RAINBOW ROAD, , ,3225 12 STREET NE, , ,CHESTERMERE,T1X 0A9
77523600,CHESTERMERE LIQUOR STORE,(403) 272-9605,(403) 272-9605,124 EAST CHESTERMERE DRIVE, , ,124 EAST CHESTERMERE DRIVE, , ,CHESTERMERE,T1X 1A1
77620200,MO'S LIQUOR STORE,(403) 569-0009,NOFAX,401 MERGANSER DRIVE, , ,203 EDGEBROOK PARK NW, , ,CHESTERMERE,T1X 1K5
77696000,STAR LIQUOR & WINE BOUTIQUE,(403) 735-2350,NOFAX,113-180 MARINA DRIVE, , ,106-2323 32 AVENUE NE, , ,CHESTERMERE,T1X 0R9
77749900,SOLO LIQUOR STORE (CHESTERMERE),(403) 899-5101,NOFAX,302-320 WEST CREEK DRIVE, , ,1100-634 6 AVENUE SW, , ,CHESTERMERE,T1X 0P7
77056600,CRAZY HORSE LIQUOR STORE,(780) 567-2086,NOFAX,9923 102 AVENUE, , ,PO BOX 48, , ,CLAIRMONT,T8X 5A4
77129300,BEER 'SELLER',(780) 538-3095,(780) 538-3477,8301 99 STREET, , ,101-8301 99 STREET, , ,CLAIRMONT,T0H 0W0
77021600,CORNER LIQUOR STORE,(403) 625-1780,NOFAX,4905 2 STREET W, , ,4905 2 STREET WEST,PO BOX 518, ,CLARESHOLM,T0L 0T0
77709700,PETROS LIQUOR,(403) 625-5336,NOFAX,129 50 AVENUE WEST, , ,PO BOX 190, , ,CLARESHOLM,T0L 0T0
77820700,CURLY'S COLD BEER AND LIQUOR,-,NOFAX,122 50 AVENUE WEST, , ,122 50 AVENUE WEST, , ,CLARESHOLM,T0L 0T0
77699200,RUSTIC RIVER LIQUOR OUTLET LTD.,(780) 554-5815,NOFAX,80038 TOWNSHIP ROAD 41-4, , ,1306-10221 TUSCANY BOULEVARD NW, , ,CLEARWATER COUNTY,T8N 4C2
78038600,WESTEND LIQUOR STORE,(780) 888-7786,NOFAX,73022 HIGHWAY 11A WEST, , ,860 34 AVENUE, , ,CLEARWATER COUNTY,T4T 1B4
76966400,5 O'CLOCK SOMEWHERE,(403) 784-2078,NOFAX,5011 RAILWAY AVENUE, , ,PO BOX 29, , ,CLIVE,T0C 0Y0
77424800,TAM'S COLD BEER N' SPIRITS,(403) 734-2109,(403) 734-1045,206 2 AVENUE, , ,PO BOX 69, , ,CLUNY,T0J 0S0
77606000,CLYDE CORNER LIQUOR STORE,(780) 348-5988,NOFAX,CLYDE CORNER LIQUOR STORE, , ,PO BOX 178, , ,CLYDE,T0G 0P0
76454100,COALDALE SPIRITS & WINE MERCHANTS,(403) 345-6686,(403) 345-4761,2007 18 STREET, , ,2007 18 STREET, , ,COALDALE,T1M 1E9
76567300,VENTURA LIQUOR STORE,(403) 345-5494,(403) 388-4335,1814 20 AVENUE, , ,PO BOX 1222, , ,COALDALE,T1M 1J2
76657100,PIT STOP LIQUOR,(403) 345-2337,(403) 345-5084,4-1907 18 AVENUE, , ,1-1907 18 AVENUE, , ,COALDALE,T1M 1K7
77384100,NC SPIRITS,(403) 345-4445,NOFAX,2512 21 AVENUE, , ,64 RIVERWOOD MANOR W, , ,COALDALE,T1M 0C1
75850600,COALHURST LIQUOR STORE,(403) 381-3050,(403) 381-3049,100 SPRUCE GROVE ROAD, , ,94 STONECREST POINT WEST, , ,COALHURST,T0L 0V0
78032100,LIQUOR TIME,(403) 942-1693,NOFAX,4-201 51 AVENUE, , ,437 TWINRIVER ROAD WEST, , ,COALHURST,T0L 0V0
76654200,HAPPY'S LIQUOR STORE,(403) 851-0831,(403) 851-0931,2002-120 5 AVENUE, , ,2002-120 5 AVENUE W, , ,COCHRANE,T4C 0A4
76785100,VINESTONE WINE CO.,(403) 981-9463,NOFAX,608 2 STREET W, , ,608 2 STREET W, , ,COCHRANE,T4C 1Z7
76859200,RAILWAY LIQUOR STORE,(403) 932-7122,(403) 851-7615,4-79 RAILWAY STREET E, , ,1366 STRATHCONA DR SW, , ,COCHRANE,T4C 2B7
76880800,GREAT CANADIAN LIQUOR,(403) 932-0530,(403) 932-0530,3 WEST VALLEY CENTRE,57 WEST AARSBY ROAD, ,11478 149 STREET NW, , ,COCHRANE,T4C 1M1
77302100,SOBEYS LIQUOR (COCHRANE),(403) 932-2075,NOFAX,3-75 BOW STREET, , ,1020 64 AVENUE NE, , ,COCHRANE,T4C 0T4
77322900,4TH AVENUE LIQUOR STORE,(403) 932-5249,(403) 932-5249,1-122 4 AVENUE W, , ,18 ROYAL OAK CRESCENT, , ,COCHRANE,T0L 0W0
77323300,CROWFOOT WINE & SPIRITS- SUNSET RIDGE,(403) 932-4104,(403) 932-4157,3101-101 SUNSET  DRIVE, , ,201-7422 CROWFOOT ROAD NW, , ,COCHRANE,T4C 0B4
77353100,SAFEWAY LIQUOR (TOWN SQUARE),(403) 932-8941,(403) 932-8946,B304 5 AVENUE WEST, , ,1020 64 AVENUE NE, , ,COCHRANE,T4C 2A5
77596400,JOE'S LIQUOR STORE,(403) 932-5520,(403) 936-5576,3-118 1 AVENUE WEST, , ,397 RIVER HEIGHTS DRIVE, , ,COCHRANE,T0L 0W0
77625900,BOW RIDGE WINE & SPIRITS,(403) 851-1400,NOFAX,102-1 BOW RIDGE ROAD, , ,102-1 BOW RIDGE ROAD, , ,COCHRANE,T4C 2J1
77696100,STAR LIQUOR & WINE BOUTIQUE,(587) 430-0689,NOFAX,5102-150 FIRESIDE BOULEVARD, , ,106-2323 32 AVENUE NE, , ,COCHRANE,T4C 0R1
77741700,CO-OP WINE SPIRITS BEER - MOUNTAIN RIDGE,(403) 457-2526,NOFAX,2103-100 HORSE CREEK ROAD, , ,2103-100 HORSE CREEK ROAD, , ,COCHRANE,T4C 0E3
77786200,WINE & SPIRIT LIQUOR,(403) 613-0211,NOFAX,41216 BIG HILL SPRINGS ROAD, , ,RR 1 SITE 9 BOX 17, , ,COCHRANE,T4C 1A1
77920900,BEER DEN,(403) 981-0919,NOFAX,29-31 BOW STREET COMMON, , ,29-31 BOW STREET COMMON, , ,COCHRANE,T4C 2N1
78036300,FIESTA LIQUOR,(403) 630-8641,NOFAX,4A 1105 RIVER HEIGHTS DRIVE, , ,213 PANTEGO ROAD NW, , ,COCHRANE,T4C 2T8
78050200,SOLO LIQUOR AT COCHRANE,(403) 851-7495,NOFAX,2-70 QUARRY STREET WEST, , ,101-17220 STONY PLAIN ROAD, , ,COCHRANE,T4C 2B7
75503200,BEST WESTERN COLD LAKE INN,(780) 594-4888,(780) 594-6375,4815 52 STREET, , ,PO BOX 245 STN MAIN, , ,COLD LAKE,T9M 1P1
76660900,LIQUOR WAREHOUSE,(780) 594-0401,(888) 837-3124,3-4802 43 AVENUE, , ,3-4802 43 AVENUE, , ,COLD LAKE,T9M 1K6
77168100,SOBEYS LIQUOR (COLD LAKE),(780) 594-6320,NOFAX,B-6203 51 STREET, , ,1020 64 AVENUE NE, , ,COLD LAKE,T9M 1Z9
77436500,SOBEYS LIQUOR (COLD LAKE SOUTH),(780) 594-7300,NOFAX,5004 50 AVENUE, , ,1020 64 AVENUE NE, , ,COLD LAKE,T9M 1P3
77827300,PUBLIC LIQUOR,(587) 983-0202,NOFAX,5230 55 STREET, , ,PO BOX 71, , ,COLD LAKE,T8N 1N2
78027700,COLD LAKE LIQUORS,(780) 639-4915,NOFAX,MARINA MALL,2-901 10 STREET, ,449-52477 21 HIGHWAY, , ,COLD LAKE,T9M 1N1
78031700,P.J.'S LIQUOR STORE,(780) 722-6208,NOFAX,2010 8 AVENUE, , ,3713 ALEXANDER CRESCENT SW, , ,COLD LAKE,T9M 1C2
78067100,NAP LIQUOR DISCOUNTER,(403) 608-1719,NOFAX,103-2550 16 AVENUE, , ,103-2550 16 AVENUE, , ,COLD LAKE,T0M 1Z8
74392500,CENTRAL LIQUOR,(403) 577-2711,(403) 577-3503,4904 50 AVENUE, , ,PO BOX 250, , ,CONSORT,T0C 1B0
77633900,BUFFALO TRAIL LIQUOR,(403) 575-5525,NOFAX,5102 43 STREET, , ,PO BOX 427, , ,CONSORT,T0C 1B0
77966500,SHORT STOP LIQUOR STORE,(403) 578-3321,NOFAX,5014 VICTORIA AVENUE, , ,PO BOX 486, , ,CORONATION,T0C 1C0
74643400,CROSSFIELD LIQUOR STORE,(403) 946-4413,(403) 946-4413,915 RAILWAY STREET, , ,PO BOX 278, , ,CROSSFIELD,T0M 0S0
77972900,BIG BEAR'S LIQUOR DEN,(780) 975-4899,NOFAX,103-1010 RAILWAY STREET, , ,PO BOX 237, , ,CROSSFIELD,T0M 0S0
77973000,A & B LIQUOR STORE,(780) 975-4899,NOFAX,1202 RAILWAY STREET, , ,PO BOX 237, , ,CROSSFIELD,T0M 0S0
77492200,CZAR LIQUOR & WINES,(780) 857-3927,(780) 857-2404,4928 50 STREET, , ,4928 50 STREET, , ,CZAR,T0B 0Z0
77134900,DAPP LIQUOR STORE,(780) 954-3852,NOFAX,RR 1, , ,RR 1, , ,DAPP,T0G 0S0
77653900,49TH STREET LIQUOR STORE,(780) 679-8815,NOFAX,5037 49 STREET, , ,PO BOX 217, , ,DAYSLAND,T0B 1A0
75962400,DE WINTON COUNTRY STORE,(403) 938-2458,(403) 938-2458,114 MACLEOD TRAIL, , ,PO BOX 100, , ,DE WINTON,T0L 0X0
76724200,CROWFOOT WINE & SPIRITS - HERITAGE,(403) 873-7650,NOFAX,POINTE,200-412 PINE CREEK ROAD, ,POINTE,201-7422 CROWFOOT ROAD NW, ,DE WINTON,T0L 0X0
77382000,VILLAGE LIQUOR,(403) 990-0358,NOFAX,2421 20 STREET, , ,PO BOX 10 2A21 20 STREET, , ,DELBURNE,T0M 0V0
77671200,RED ROSE LIQUOR STORE,(780) 994-3578,NOFAX,1819 28 AVENUE, , ,1819 28 AVENUE, , ,DELBURNE,T0M 0V0
77848100,WHITE KNIGHT LIQUOR,(403) 436-0411,NOFAX,101 MAIN STREET, , ,PO BOX 94, , ,DELIA,T0J 0W0
74607000,SUPERIOR LIQUOR MART,(780) 987-2744,(780) 987-2740,47 SUPERIOR STREET, , ,47 SUPERIOR STREET, , ,DEVON,T9G 1K8
76870100,GREAT CANADIAN LIQUOR,(780) 987-0987,(780) 987-3085,102-17 SUPERIOR STREET, , ,11478 149 STREET NW, , ,DEVON,T9G 1Y9
76870500,ANDERSONS LIQUOR,(780) 987-5411,NOFAX,3-102 ERIE STREET, , ,11478 149 STREET NW, , ,DEVON,T9G 2J4
77884800,APOLLO LIQUOR LTD.,(587) 987-4992,NOFAX,102B 17 ATHABASCA AVENUE, , ,102B 17 ATHABASCA AVENUE, , ,DEVON,T9G 1G5
77915000,DEVON WINE SPIRITS BEER,(780) 987-3307,NOFAX,107-180 MIQUELON AVENUE, , ,107-180 MIQUELON AVENUE, , ,DEVON,T9G 0A6
76762500,MOUNTAIN VIEW LIQUOR AND BEER,(403) 335-8333,(403) 335-8342,2010 20 AVENUE, , ,4510 SHANNON DRIVE, , ,DIDSBURY,T0M 0W0
77043500,CLOUD NINE LIQUOR,(403) 335-8889,NOFAX,A-1909 20 STREET, , ,PO BOX 606, , ,DIDSBURY,T0M 0W0
77516400,CORK & CRATE,(403) 335-5711,NOFAX,5-2409 16 STREET, , ,PO BOX 777, , ,DIDSBURY,T0M 0W0
77672100,1ST CHOICE LIQUOR MART,(403) 615-6777,NOFAX,1602 20 STREET, , ,506 SADDLELAKE DRIVE NE, , ,DIDSBURY,T0M 0W0
76826600,BEER LOCKER,(780) 542-7527,NOFAX,4717 20 AVENUE, , ,5021 43 STREET, , ,DRAYTON VALLEY,T0E 0M0
76916700,POPLAR RIDGE LIQUOR STORE,(780) 514-0741,NOFAX,6402 50 AVENUE, , ,PO BOX 7655, , ,DRAYTON VALLEY,T7A 1S1
77446400,BLACK CAT LIQUOR STORE,(780) 455-0083,NOFAX,105-4930 55 AVENUE, , ,41 WINDSOR CRESCENT, , ,DRAYTON VALLEY,T7A 1W2
77506900,MIXERS LIQUOR STORE,(780) 542-7595,NOFAX,5236 50 STREET, , ,PO BOX 6525, , ,DRAYTON VALLEY,T7A 1R9
77606900,B & B LIQUOR STORE,(403) 483-0535,NOFAX,5036 50 AVENUE, , ,PO BOX 6054, , ,DRAYTON VALLEY,T7A 1J7
77768900,REGAL WINE & SPIRITS,(780) 885-0796,NOFAX,5105 50 STREET, , ,100-10025 JASPER AVENUE, , ,DRAYTON VALLEY,T7A 1R3
77848800,GEORGIA'S LIQUOR,(780) 542-6399,NOFAX,12-4341 50 STREET, , ,12-4341 50 STREET, , ,DRAYTON VALLEY,T7A 1M4
78050100,SOLO LIQUOR AT DRAYTON VALLEY,(780) 917-4180,NOFAX,2128 50 STREET, , ,101-17220 STONY PLAIN ROAD, , ,DRAYTON VALLEY,T7A 0C5
76647000,JERRY'S LIQUOR STORE,(403) 823-4909,(403) 823-4907,300-680 2 STREET SE, , ,PO BOX 218, , ,DRUMHELLER,T0J 0Y0
77241600,DRUMHELLER LIQUOR STORE,(403) 823-2465,(403) 823-3799,40 RAILWAY AVENUE W, , ,PO BOX 938, , ,DRUMHELLER,T0J 0Y0
77386300,DINO LIQUOR STORE,(403) 856-3666,NOFAX,1102A HIGHWAY 9 SOUTH, , ,PO BOX 938, , ,DRUMHELLER,T0J 0Y0
77630900,MR. LIQUOR,(403) 856-0600,NOFAX,16A-249 3 AVENUE WEST, , ,5206 CORAL SHORES DRIVE NE, , ,DRUMHELLER,T0J 0Y0
77696700,NACMINE LIQUOR,(403) 823-3798,NOFAX,624 HUNTER DRIVE, , ,PO BOX 818, , ,DRUMHELLER,T0J 0Y0
78000000,ACE LIQUOR DISCOUNTER AT DRUMHELLER,(780) 917-4180,NOFAX,105 GROVE PLACE, , ,101-17220 STONY PLAIN ROAD, , ,DRUMHELLER,T0J 0Y0
77041300,EAGLE BUTTE CROSSING LIQUOR STORE,(403) 528-8983,(403) 528-8985,7 3 AVENUE EAST, , ,969 16 STREET SW, , ,DUNMORE,T1B 0J9
76716600,ECKVILLE LIQUOR STORE,(403) 746-2120,(403) 746-3042,4923 51 AVENUE, , ,PO BOX 730, , ,ECKVILLE,T0M 0X0
77012400,SAND DUNES LIQUOR & COLD BEER,(780) 755-2337,(877) 751-2531,5120 49 AVENUE, , ,PO BOX 239, , ,EDGERTON,T0B 1K0
77424900,THIRSTY'S LIQUOR & COLD BEER,(780) 755-2333,NOFAX,5012 50 AVENUE, , ,5012 50 AVENUE, , ,EDGERTON,T0B 1K0
60127000,CONTINENTAL INN,(780) 484-7751,(780) 484-9827,16625 STONY PLAIN ROAD NW, , ,16625 STONY PLAIN ROAD NW, , ,EDMONTON,T5P 4A8
60230300,ROSSLYN INN & SUITES,(780) 476-6241,(780) 473-3021,13620 97 STREET NW, , ,13620 97 STREET NW, , ,EDMONTON,T5E 4E2
62576900,CHATEAU LOUIS HOTEL & CONFERENCE CENTRE,(780) 452-7770,(780) 454-3436,11727 KINGSWAY NW, , ,11727 KINGSWAY NW, , ,EDMONTON,T5G 3A1
71806100,WINE CELLAR,(780) 488-9463,(780) 488-1145,12421 102 AVENUE NW, , ,12421 102 AVENUE NW, , ,EDMONTON,T5N 0M2
74092300,LIQUOR SELECT,(780) 481-6868,(780) 444-9087,8924 149 STREET NW, , ,8924 149 STREET NW, , ,EDMONTON,T5R 1B8
74268400,PETROLIA LIQUOR STORE,(780) 438-0448,(780) 988-9184,11431 40 AVENUE NW, , ,11431 40 AVENUE NW, , ,EDMONTON,T6J 0R4
74689800,ATHLONE LIQUOR & COLD BEER STORE,(780) 451-5423,(780) 452-8709,12904 127 STREET NW, , ,12904 127 STREET NW, , ,EDMONTON,T5L 1A9
74719100,MILLBOURNE LIQUOR STORE,(780) 469-1122,(780) 461-6828,190 MILLBOURNE SHOPPING CENTRE NW, , ,190 MILLBOURNE SHOPPING CENTRE NW, , ,EDMONTON,T6K 3L6
75396300,HERMITAGE LIQUOR EXPRESS,(780) 473-0957,(780) 473-0957,12727 50 STREET NW, , ,12727 50 STREET NW, , ,EDMONTON,T5A 4L8
75477100,REAL CANADIAN LIQUOR STORE,(780) 472-4720,(780) 472-4734,4950  137 AVENUE NE, , ,4950 137 AVENUE NW, , ,EDMONTON,T5Y 2V4
75630200,CROWN LIQUOR STORE,(780) 413-8988,(780) 490-0188,7617 ARGYLL ROAD NW, , ,7617 ARGYLL ROAD NW, , ,EDMONTON,T6C 4A7
75652300,JASPER PLACE LIQUOR STORE,(780) 481-2642,(780) 489-1909,15312 STONY PLAIN ROAD NW, , ,15312 STONY PLAIN ROAD NW, , ,EDMONTON,T5P 3Y7
75691400,TOPS LIQUOR STORE,(780) 701-0088,(780) 433-9947,10768 82 AVENUE NW, , ,2431 MARTELL CRESCENT NW, , ,EDMONTON,T6E 2A8
75724800,TOPS LIQUOR STORE,(780) 433-9938,(780) 433-9947,10028 82 AVENUE NW, , ,10028 82 AVENUE NW, , ,EDMONTON,T6E 1Z3
75729400,REAL CANADIAN LIQUOR STORE,(780) 430-2774,(780) 430-2776,4821 CALGARY TRAIL NW, , ,4821 CALGARY TRAIL NW, , ,EDMONTON,T6H 5W8
75729500,REAL CANADIAN LIQUOR STORE,(780) 406-3773,(780) 406-3775,12350  137 AVENUE, , ,12350 137 AVENUE NW, , ,EDMONTON,T5L 4X6
75729600,REAL CANADIAN LIQUOR STORE,(780) 486-8490,(780) 486-8488,17303 STONY PLAIN ROAD NW, , ,17303 STONY PLAIN ROAD NW, , ,EDMONTON,T5S 1B5
75829800,50TH STREET LIQUOR STORE,(780) 466-8878,(780) 466-5481,5010 76 AVENUE NW, , ,5010 76 AVENUE NW, , ,EDMONTON,T6B 0A6
75855000,LIQUOR LAKE,(780) 413-1905,(780) 413-1906,12526 132 AVENUE NW, , ,12526 132 AVENUE NW, , ,EDMONTON,T5L 3P9
75888200,MARIO'S LIQUOR STORE,(780) 479-1634,(780) 479-1634,5007 118 AVENUE NW, , ,5007 118 AVENUE NW, , ,EDMONTON,T5W 1B8
75902100,WHITEMUD CROSSING LIQUOR STORE,(780) 466-3113,(780) 466-3113,179-4211 106 STREET NW, , ,179-4211 106 STREET NW, , ,EDMONTON,T6J 6P3
75937700,TOPS LIQUOR,(780) 440-3171,(780) 440-3171,7440 82 AVENUE NW, , ,2911 43B AVENUE NW, , ,EDMONTON,T6B 0G2
75953500,CROWN LIQUOR STORE,(780) 413-6868,(780) 490-0188,14626 50 STREET NW, , ,14626 50 STREET NW, , ,EDMONTON,T5A 4W9
76052200,REAL CANADIAN LIQUOR STORE,(780) 490-3925,(780) 490-3926,9715  23 AVENUE NW, , ,9715 23 AVENUE NW, , ,EDMONTON,T6N 1K7
76091400,LIQUOR SPOT #2,(780) 443-2790,(780) 444-3584,17250 95 AVENUE NW, , ,17250 95 AVENUE NW, , ,EDMONTON,T5T 6P1
76100400,LIQUOR STATION,(780) 484-3633,(780) 484-3633,103-16220 STONY PLAIN ROAD NW, , ,103-16220 STONY PLAIN ROAD NW, , ,EDMONTON,T5P 4A4
76141900,DELTON LIQUOR MART,(780) 472-7250,(780) 472-7284,6-8103 127 AVENUE NW, , ,6-8103 127 AVENUE NW, , ,EDMONTON,T5C 1R9
76142100,PARKWEST LIQUOR LOFT,(780) 487-7272,(780) 487-8017,18916 87 AVENUE NW, , ,18916 87 AVENUE NW, , ,EDMONTON,T5T 6J1
76150100,SOBEYS WESTERN CELLARS,(780) 430-9500,(780) 430-9216,14272 23 AVENUE NW, , ,1020 64 AVENUE NE, , ,EDMONTON,T6R 3B9
76150200,SOBEYS LIQUOR (MILLWOODS),(780) 485-2840,(780) 485-2842,5221  23 AVENUE NW, , ,1020 64 AVENUE NE, , ,EDMONTON,T6L 7G5
76153200,LIQUOR GALLERY,(780) 406-5477,NOFAX,13030 50 STREET NW, , ,13030 50 STREET NW, , ,EDMONTON,T5A 4V9
76179900,LIQUOR MERCHANTS,(780) 488-3464,(780) 488-3465,13132 82 STREET NW, , ,13132 82 STREET NW, , ,EDMONTON,T5E 2T5
76201600,SOBEYS SPIRITS * WINE * COLD BEER,(780) 473-7800,(780) 473-6622,15353 CASTLEDOWNS ROAD NW, , ,1020 64 AVENUE NE, , ,EDMONTON,T5X 6C3
76215000,GLENORA LIQUOR,(780) 447-2909,(780) 447-7301,10228 140 STREET NW, , ,10228 140 STREET NW, , ,EDMONTON,T5N 2L4
76261800,SOBEYS LIQUOR (MEADOWBROOK),(780) 463-4900,(780) 463-4615,3803  34 STREET NW, , ,1020 64 AVENUE NE, , ,EDMONTON,T6T 1K9
76263200,WINTERBURN LIQUOR STORE,(780) 447-9991,(780) 447-3727,21528 115 AVENUE NW, , ,10624 214 STREET NW, , ,EDMONTON,T5S 2N7
76266600,KEG N CORK,(780) 461-0191,(780) 461-0809,3845 99 STREET NW, , ,3845 99 STREET NW, , ,EDMONTON,T6E 6H6
76322900,SPIRITS OF BELMONT,(780) 473-1844,(780) 473-1904,12-13508 VICTORIA TRAIL NW, , ,204-7104 109 STREET NW, , ,EDMONTON,T5A 5C9
76346800,SOBEYS LIQUOR (HAWKSTONE),(780) 489-5050,(780) 489-2029,HAWKSTONE PLAZA STORE #599,4903  184 STREET NW, ,1020 64 AVENUE NE, , ,EDMONTON,T6M 2X5
76351800,G & R LIQUOR MART,(780) 428-9410,NOFAX,9906 109 STREET NW, , ,9906 109 STREET NW, , ,EDMONTON,T5K 1H5
76364000,LONG STREET LIQUOR STORE,(780) 496-2470,(780) 496-2470,11411 104 AVENUE NW, , ,17446 107A STREET, , ,EDMONTON,T5K 2S2
76366300,SHERBROOKE LIQUOR STORE,(780) 455-4556,(780) 454-3531,11819 ST  ALBERT TRAIL NW, , ,11819 ST  ALBERT TRAIL NW, , ,EDMONTON,T5L 5B5
76375700,LO-COST LIQUOR STORE,(780) 487-7378,(780) 487-7376,6807 170 STREET NW, , ,6807 170 STREET NW, , ,EDMONTON,T5T 4W4
76389200,LIQUOR MERCHANTS,(780) 433-1814,(780) 488-3465,11148 82 AVENUE NW, , ,11148 82 AVENUE NW, , ,EDMONTON,T6G 2L8
76400200,JASPER LIQUOR MERCHANTS,(780) 488-3464,(780) 488-3465,11607 JASPER AVENUE NW, , ,11607 JASPER AVENUE NW, , ,EDMONTON,T5K 0M9
76425500,101 AVE LIQUOR,(780) 442-8888,(780) 442-8889,7430 101 AVENUE NW, , ,7430 101 AVENUE NW, , ,EDMONTON,T6A 0J3
76452600,BIN 104 FINE WINE AND SPIRITS,(780) 436-8850,(780) 436-1160,5454 CALGARY TRAIL  NW, , ,5454 CALGARY TRAIL  NW, , ,EDMONTON,T6H 4J8
76464000,VINES OF RIVERBEND,(780) 434-9444,(780) 434-9447,2331 RABBIT HILL ROAD NW, , ,101-17220 STONY PLAIN ROAD, , ,EDMONTON,T6R 3L6
76470500,LIQUOR DEPOT AT CALLINGWOOD,(780) 483-4600,(780) 483-1630,208-6655 178 STREET NW, , ,101-17220 STONY PLAIN ROAD, , ,EDMONTON,T5T 4J5
76470600,LIQUOR DEPOT AT JASPER AVENUE,(780) 426-0304,(780) 420-6262,10164 109 STREET NW, , ,101-17220 STONY PLAIN ROAD, , ,EDMONTON,T5J 1M7
76470700,LIQUOR DEPOT AT 153 AVENUE,(780) 457-3900,(780) 472-2908,15317 97 STREET NW, , ,101-17220 STONY PLAIN ROAD, , ,EDMONTON,T5X 5V3
76470800,LIQUOR DEPOT AT 99 STREET,(780) 989-1125,(780) 432-9484,8169 99 STREET NW, , ,101-17220 STONY PLAIN ROAD, , ,EDMONTON,T6E 3S9
76470900,LIQUOR DEPOT AT BONNIE DOON,(780) 469-3377,(780) 469-4343,BONNIE DOON SHOPPING CENTRE,187-8330 82 AVENUE NW, ,101-17220 STONY PLAIN ROAD, , ,EDMONTON,T6C 4E3
76471100,LIQUOR DEPOT AT MAINSTREET,(780) 490-1034,(780) 461-4592,MAINSTREET SHOPPING CENTRE,6538 28 AVENUE NW, ,101-17220 STONY PLAIN ROAD, , ,EDMONTON,T6L 6N3
76471300,LIQUOR DEPOT AT OLIVER PLACE,(780) 488-2905,(780) 488-0081,11730 JASPER AVENUE NW, , ,101-17220 STONY PLAIN ROAD, , ,EDMONTON,T5K 0N3
76471500,LIQUOR DEPOT AT MEADOWLARK,(780) 486-3400,(780) 486-5141,266 MEADOWLARK SHOPPING CENTRE,87 AVENUE & 156 STREET NW, ,101-17220 STONY PLAIN ROAD, , ,EDMONTON,T5R 3W9
76471600,LIQUOR DEPOT AT MILLWOODS,(780) 495-9683,(780) 495-9684,2603 66 STREET NW, , ,101-17220 STONY PLAIN ROAD, , ,EDMONTON,T6K 4B5
76471700,LIQUOR DEPOT AT NAMAO,(780) 457-6105,(780) 406-0173,16562 95 STREET NW, , ,101-17220 STONY PLAIN ROAD, , ,EDMONTON,T5Z 3L7
76471800,LIQUOR DEPOT AT RIVERBEND SQUARE,(780) 435-3535,(780) 988-8952,740 RIVERBEND SQUARE NW, , ,101-17220 STONY PLAIN ROAD, , ,EDMONTON,T6R 2E3
76472000,LIQUOR DEPOT AT WESTMOUNT,(780) 452-9912,(780) 452-9935,184 WESTMOUNT CENTRE,111 AVENUE & GROAT ROAD NW, ,101-17220 STONY PLAIN ROAD, , ,EDMONTON,T5M 3L7
76472200,LIQUOR DEPOT AT MANNING CROSSING,(780) 406-5714,(780) 476-7254,252 MANNING CROSSING NW, , ,101-17220 STONY PLAIN ROAD, , ,EDMONTON,T5A 5A1
76472300,LIQUOR DEPOT AT OLIVER SQUARE,(780) 488-6000,(780) 488-6030,11724 104 AVENUE NW, , ,101-17220 STONY PLAIN ROAD, , ,EDMONTON,T5K 2P3
76472600,LIQUOR DEPOT AT DELTON,(780) 475-3999,(780) 475-4053,DELTON SHOPPING CENTRE,12902 82 STREET NW, ,101-17220 STONY PLAIN ROAD, , ,EDMONTON,T5E 2T2
76472700,WINE AND BEYOND,(780) 438-4071,(780) 437-4004,11011 51 AVENUE NW, , ,101-17220 STONY PLAIN ROAD, , ,EDMONTON,T6H 5T1
76472800,LIQUOR DEPOT AT GROAT RD WESTMOUNT,(780) 451-5342,(780) 451-9406,13366 114 AVENUE NW, , ,101-17220 STONY PLAIN ROAD, , ,EDMONTON,T5M 4B7
76472900,LIQUOR DEPOT AT DALY GROVE,(780) 461-7979,(780) 461-0080,4223 23 AVENUE NW, , ,101-17220 STONY PLAIN ROAD, , ,EDMONTON,T6L 5Z8
76483400,STAYNER LIQUOR,(780) 413-3312,(780) 472-9598,13819 127 STREET NW, , ,13819 127 STREET NW, , ,EDMONTON,T6V 1A8
76490700,SAM'S LIQUOR STORE,(780) 440-6484,(780) 440-2324,9271 50 STREET NW, , ,9271 50 STREET NW, , ,EDMONTON,T6B 3B6
76491800,DEVINE WINES & SPIRITS,(780) 421-9463,(780) 421-9477,BIRKS BUILDING,10111 104 STREET NW, ,BIRKS BUILDING,10111 104 STREET NW, ,EDMONTON,T5J 0Z9
76517300,LIQUOR DEPOT AT SOUTHTRAIL,(780) 989-7601,(780) 989-1144,SOUTH TRAIL PLAZA,3354 GATEWAY BOULEVARD NORTH NW, ,101-17220 STONY PLAIN ROAD, , ,EDMONTON,T6J 6V1
76518000,LIQUOR DEPOT AT MAYFIELD COMMON,(780) 444-3980,(780) 484-4511,MAYFIELD COMMON NW,370-170 STREET & STONY PLAIN ROAD, ,101-17220 STONY PLAIN ROAD, , ,EDMONTON,T5P 4B3
76518800,LIQUOR RUN,(780) 444-4007,(780) 484-4049,15636 STONY PLAIN ROAD NW, , ,15636 STONY PLAIN ROAD NW, , ,EDMONTON,T5P 3Z4
76519500,LIQUOR EXPRESS,(780) 473-2155,(780) 473-2155,12625 153 AVENUE NW, , ,12625 153 AVENUE NW, , ,EDMONTON,T5X 5X8
76542400,OASIS LIQUOR STORE,(780) 990-0054,(780) 990-0054,10537 107 AVENUE NW, , ,10537 107 AVENUE NW, , ,EDMONTON,T5H 0W3
76547500,LIQUOR DEPOT AT CENTURY PARK,(780) 440-2071,(780) 440-2073,2349 111 STREET NW, , ,101-17220 STONY PLAIN ROAD, , ,EDMONTON,T6J 5E5
76568800,LIQUOR DEPOT AT 184 STREET,(780) 944-9994,(780) 442-0042,6002 184 STREET NW, , ,101-17220 STONY PLAIN ROAD, , ,EDMONTON,T6M 1X7
76597600,LIQUOR DEPOT AT ELLERSLIE ROAD,(780) 434-4670,(780) 434-4687,11146 ELLERSLIE ROAD SW, , ,101-17220 STONY PLAIN ROAD, , ,EDMONTON,T6W 1A2
76601400,SOBEYS LIQUOR (SOUTHBROOK),(780) 429-2750,(780) 429-2790,939  JAMES MOWATT TRAIL SW, , ,1020 64 AVENUE NE, , ,EDMONTON,T6W 1S4
76614300,BEVERLY CREST COLD BEER MART,(780) 479-3000,(780) 471-6234,3404 118 AVENUE NW, , ,3404 118 AVENUE NW, , ,EDMONTON,T5W 0Z4
76629200,JACK'S LIQUOR STORE,(780) 490-7631,(780) 490-7641,9012 50 STREET  NW, , ,9012 50 STREET  NW, , ,EDMONTON,T6B 2Z5
76634500,LIQUOR DEPOT AT CAPILANO,(780) 468-6949,(780) 462-4164,5055 101 AVENUE NW, , ,101-17220 STONY PLAIN ROAD, , ,EDMONTON,T6A 3X6
76634700,LIQUOR DEPOT AT HERITAGE VILLAGE,(780) 431-1269,(780) 431-1251,11035 23 AVENUE NW, , ,101-17220 STONY PLAIN ROAD, , ,EDMONTON,T6J 6P9
76635200,LIQUOR DEPOT AT FOREST HEIGHTS,(780) 465-5441,(780) 465-5469,7842 106 AVENUE NW, , ,101-17220 STONY PLAIN ROAD, , ,EDMONTON,T6A 1H5
76635600,STRATHCONA LIQUOR BARN,(780) 432-0298,(780) 433-3145,7808 GATEWAY BOULEVARD NW, , ,101-17220 STONY PLAIN ROAD, , ,EDMONTON,T6E 6C3
76655900,CROMDALE LIQUOR STORE,(780) 474-4445,(780) 471-3281,11717 82 STREET NW, , ,413 SIOUX ROAD, , ,EDMONTON,T5B 2V9
76664400,LIQUOR TIME,(780) 452-3669,(780) 452-3669,11743 124 STREET NW, , ,11743 124 STREET NW, , ,EDMONTON,T5M 0L1
76664600,LIQUOR DEPOT AT MACEWAN,(780) 432-4385,(780) 432-4366,860 119 STREET SW, , ,101-17220 STONY PLAIN ROAD, , ,EDMONTON,T6W 1W4
76665500,# 1 LIQUOR MERCHANTS,(780) 426-2375,(780) 426-2375,10410 107 AVENUE NW, , ,10410 107 AVENUE NW, , ,EDMONTON,T5H 0W1
76677300,LIQUOR DEPOT AT MAGRATH,(780) 432-6320,(780) 432-6375,14175 23 AVENUE NW, , ,101-17220 STONY PLAIN ROAD, , ,EDMONTON,T6R 0G4
76702300,MCINTYRE LIQUOR STORE,(780) 463-8333,NOFAX,5722 75 STREET NW, , ,5722 75 STREET NW, , ,EDMONTON,T6E 5X6
76704100,ERMINESKIN CENTRE LIQUOR STORE,(780) 989-1397,NOFAX,3008 106 STREET NW, , ,3008 106 STREET NW, , ,EDMONTON,T6J 5M5
76704400,ALBERTINO LIQUOR,(780) 462-7808,NOFAX,7244 101 AVENUE NW, , ,7244 101 AVENUE NW, , ,EDMONTON,T6A 0J1
76712900,SOBEYS LIQUOR (HERITAGE),(780) 490-4802,(780) 490-4855,10965 23 AVENUE NW, , ,1020 64 AVENUE NE, , ,EDMONTON,T6J 6Y4
76727500,LIQUOR DEPOT AT THE GRANGE,(780) 484-1659,(780) 484-1763,THE GRANGE SHOPPING CENTRE,2540 GUARDIAN ROAD NW, ,101-17220 STONY PLAIN ROAD, , ,EDMONTON,T5T 1K8
76727600,LIQUOR DEPOT AT GLASTONBURY MARKET,(780) 483-8281,NOFAX,6242 199 STREET NW, , ,101-17220 STONY PLAIN ROAD, , ,EDMONTON,T5T 2K4
76727700,LIQUOR DEPOT AT SUMMERSIDE,(780) 461-0796,(780) 461-1572,MARKET AT SUMMERSIDE,1124 91 STREET SW, ,101-17220 STONY PLAIN ROAD, , ,EDMONTON,T6W 1A5
76727900,LIQUOR DEPOT AT THE MEADOWS,(780) 468-9520,(780) 468-9527,2334 24 STREET NW, , ,101-17220 STONY PLAIN ROAD, , ,EDMONTON,T6T 0G9
76731300,CROWN LIQUOR STORE,(780) 490-5678,(780) 490-7678,379 91 STREET SW, , ,379 91 STREET SW, , ,EDMONTON,T6X 0C5
76731700,HO YEE LIQUOR STORE,(780) 428-2318,(780) 428-2318,10757 97 STREET NW, , ,10757 97 STREET NW, , ,EDMONTON,T5H 2M2
76735000,ALIGRA WINE & SPIRITS,(780) 483-1083,(780) 483-1093,1423-8882 170 STREET NW, , ,1423-8882 170 STREET NW, , ,EDMONTON,T5T 4M2
76736800,LIQUOR DEPOT AT LENDRUM,(780) 455-8888,(780) 455-3433,5854 111 STREET NW, , ,101-17220 STONY PLAIN ROAD, , ,EDMONTON,T6H 3G1
76762200,SOBEYS SPIRITS * WINE * COLD BEER,(780) 465-5617,(780) 465-5680,TRAIL SOUTH CORNERS,10423 51 AVENUE NW, ,1020 64 AVENUE NE, , ,EDMONTON,T6H 0K4
76765700,LIQUOR DEPOT AT YELLOWHEAD,(780) 447-2891,NOFAX,15030 YELLOWHEAD TRAIL NW, , ,101-17220 STONY PLAIN ROAD, , ,EDMONTON,T5V 1A1
76767400,CRESTWOOD FINE WINES & SPIRITS,(780) 488-7800,(780) 488-7330,9658 142 STREET NW, , ,9658 142 STREET NW, , ,EDMONTON,T5N 4B2
76769500,66TH STREET LIQUOR,(780) 477-5754,(780) 477-5753,11808 66 STREET NW, , ,413 SIOUX ROAD, , ,EDMONTON,T5B 1J3
76781600,BLUE ON WHYTE LIQUOR,(780) 757-1289,(780) 758-5326,10058 82 AVENUE NW, , ,1523 67 STREET SW, , ,EDMONTON,T6E 1Z3
76794500,SOBEYS LIQUOR (ELLERSLIE CROSSING),(780) 486-1516,(780) 486-1424,820 PARSONS ROAD SW, , ,1020 64 AVENUE NE, , ,EDMONTON,T6X 0B4
76796200,LIQUOR DEPOT AT EAUX CLAIRES,(780) 475-2190,(780) 475-2191,9615 160 AVENUE NW, , ,101-17220 STONY PLAIN ROAD, , ,EDMONTON,T5Z 3H3
76797800,LIQUOR BAY,(780) 440-0299,(780) 440-0299,9032 75 STREET NW, , ,9032 75 STREET NW, , ,EDMONTON,T6C 2H4
76807700,WILD ROSE LIQUOR,(780) 444-3231,(780) 443-0561,10680 156 STREET NW, , ,10680 156 STREET NW, , ,EDMONTON,T5P 2R9
76813700,LIQUOR WAY,(587) 523-5929,NOFAX,9444 149 STREET NW, , ,9444 149 STREET NW, , ,EDMONTON,T5R 1C6
76821700,EC WINES & SPIRITS,(780) 487-8704,(780) 487-8708,9921 170 STREET NW, , ,9921 170 STREET NW, , ,EDMONTON,T5P 4S2
76836500,LIQUOR ON 96,(780) 702-0410,NOFAX,10164 96 STREET NW, , ,2619 30 STREET, , ,EDMONTON,T5H 3V2
76854000,NORWOOD LIQUOR STORE,(780) 479-2884,NOFAX,9608 118 AVENUE NW, , ,9608 118 AVENUE NW, , ,EDMONTON,T5G 0P2
76869600,CHEERIO LIQUOR STORE,(780) 415-5028,NOFAX,10138 111 AVENUE NW, , ,10138 111 AVENUE NW, , ,EDMONTON,T5G 0B3
76878600,LIQUOR INTERNATIONAL,(780) 489-2121,NOFAX,15102 STONY PLAIN ROAD NW, , ,15102 STONY PLAIN ROAD NW, , ,EDMONTON,T5P 3Y3
76903300,SOBEYS LIQUOR (HOLLICK KENYON),(780) 472-0834,(780) 472-0884,5215 167 AVENUE NW, , ,1020 64 AVENUE NE, , ,EDMONTON,T5Y 0L2
76923600,156 STREET LIQUOR STORE,(780) 484-6937,NOFAX,10149 156 STREET NW, , ,413 SIOUX ROAD, , ,EDMONTON,T5P 3Z2
76925400,REAL CANADIAN LIQUOR STORE,(780) 450-6519,(780) 450-6838,4420 17 STREET NW, , ,4420 17 STREET NW, , ,EDMONTON,T6T 0C1
76930500,104 LIQUOR BAY,(780) 761-0299,NOFAX,6812 104 STREET NW, , ,6812 104 STREET NW, , ,EDMONTON,T6H 2L6
76933400,CHEERS AND BEERS,(780) 757-8540,(780) 705-8541,10106 118 AVENUE NW, , ,10106 118 AVENUE NW, , ,EDMONTON,T5G 0P5
76939200,ARGYLL LIQUOR VILLAGE,(780) 757-5033,NOFAX,8305 ARGYLL ROAD NW, , ,8305 ARGYLL ROAD NW, , ,EDMONTON,T6C 4B2
77052000,WESTGATE LIQUOR STORE,(780) 447-5647,(780) 447-5647,21621 STONY PLAIN ROAD NW, , ,3658 WEST CLIFF WAY SW, , ,EDMONTON,T5T 5X8
77061300,LYNNWOOD LIQUOR SHOP,(780) 486-1046,(780) 444-9087,8738 149 STREET NW, , ,8738 149 STREET NW, , ,EDMONTON,T5R 1B6
77062500,CROWN LIQUOR STORE (COMMONWEALTH),(780) 413-8988,NOFAX,9119 STADIUM ROAD NW, , ,7617 ARGYLL ROAD NW, , ,EDMONTON,T5H 3W7
77062600,CROWN LIQUOR STORE (RITCHIE),(780) 413-8988,(780) 993-0898,9537 76 AVENUE NW, , ,7617 ARGYLL ROAD NW, , ,EDMONTON,T6C 0K1
77065000,SUNTERRA CELLAR,(780) 426-4441,NOFAX,201A-10150 JASPER AVENUE NW, , ,200-1851 SIROCCO DRIVE SW, , ,EDMONTON,T5J 1W4
77065300,GREAT CANADIAN LIQUOR,(780) 483-8177,(780) 483-6525,11478 149 STREET NW, , ,11478 149 STREET NW, , ,EDMONTON,T5M 1W7
77068700,MY LIQUOR STORE,(780) 413-9899,NOFAX,12411 107 AVENUE NW, , ,12411 107 AVENUE NW, , ,EDMONTON,T5M 1Z2
77079900,GLASSY LIQUOR ON 34,(780) 466-7348,NOFAX,3377 28A AVENUE NW, , ,3377 28A AVENUE NW, , ,EDMONTON,T6X 1A5
77081000,LIQUOR DEPOT AT ALBANY SQUARE,(587) 523-1880,NOFAX,16710 127 STREET NW, , ,101-17220 STONY PLAIN ROAD, , ,EDMONTON,T6V 1B1
77086500,SUPERVALUE LIQUOR STORE,(780) 757-9091,NOFAX,4506 118 AVENUE NW, , ,929 WILDWOOD WAY NW, , ,EDMONTON,T5W 1A9
77087100,ARGYLL LIQUOR LINK,(780) 761-2620,(780) 761-0299,6922 76 AVENUE NW, , ,6922 76 AVENUE NW, , ,EDMONTON,T6B 2R2
77095700,LIQUOR DEPOT AT WINDERMERE,(780) 437-3040,(780) 437-6733,6138 CURRENTS DRIVE NW, , ,101-17220 STONY PLAIN ROAD, , ,EDMONTON,T6W 0L7
77116000,KEGS AND MORE LIQUOR,(780) 454-5347,(780) 454-5349,100-17404 105 AVENUE NW, , ,100-17404 105 AVENUE NW, , ,EDMONTON,T5S 1G4
77133300,SPEERS LIQUOR,(780) 469-2247,NOFAX,4927 55 AVENUE NW, , ,5010 76 AVENUE NW, , ,EDMONTON,T6B 0A6
77142800,LIQUOR STORE ON 111TH,(780) 421-7655,NOFAX,9611 111 AVENUE NW, , ,9611 111 AVENUE NW, , ,EDMONTON,T5G 0A9
77153600,LIQUOR ON 7TH,(780) 423-0925,NOFAX,11127 107 AVENUE NW, , ,2619 30 STREET NW, , ,EDMONTON,T5H 0X9
77178800,SUPER VALUE LIQUOR,(780) 757-9040,NOFAX,16102 STONY PLAIN ROAD NW, , ,929 WILDWOOD WAY NW, , ,EDMONTON,T5P 4A2
77187800,WINE & BEYOND AT WINDERMERE,(780) 439-5130,(780) 439-5134,6284 CURRENTS DRIVE NW, , ,101-17220 STONY PLAIN ROAD, , ,EDMONTON,T6W 0L8
77197300,97 STREET LIQUOR STORE,(780) 473-5974,NOFAX,12965 97 STREET NW, , ,12965 97 STREET NW, , ,EDMONTON,T5E 4C4
77217500,LIQUOR DEPOT AT 137TH AVENUE,(780) 406-1229,NOFAX,3832 137 AVENUE, , ,101-17220 STONY PLAIN ROAD, , ,EDMONTON,T5Y 3E7
77217600,LIQUOR DEPOT AT OLD STRATHCONA,(780) 757-3328,NOFAX,10425 80 AVENUE NW, , ,101-17220 STONY PLAIN ROAD, , ,EDMONTON,T6E 1V1
77237900,COSTCO LIQUOR,(780) 443-0724,NOFAX,7255 WINTERBURN ROAD NW, , ,7255 WINTERBURN ROAD NW, , ,EDMONTON,T5T 4K2
77246100,LIQUOR DEPOT AT OTTEWELL,(780) 469-5749,(780) 702-1999,6212 90 AVENUE NW, , ,101-17220 STONY PLAIN ROAD, , ,EDMONTON,T6B 0P2
77269600,GREAT CANADIAN LIQUOR COMPANY,(780) 463-8274,NOFAX,8120 82 AVENUE NW, , ,11478 149 STREET NW, , ,EDMONTON,T6L 0Y4
77279400,SOBEYS LIQUOR (KINGSWAY),(780) 477-3707,(780) 477-9252,11436 106 STREET NW, , ,1020 64 AVENUE NE, , ,EDMONTON,T5G 3E3
77302300,REAL CANADIAN LIQUOR STORE EXPRESS,(780) 425-6557,NOFAX,11403 KINGSWAY AVENUE, , ,11463 KINGSWAY AVENUE NW, , ,EDMONTON,T5G 3E8
77309800,TERWILLEGAR TOWN LIQUOR,(780) 439-3533,NOFAX,5231 TERWILLEGAR BOULEVARD NW, , ,5231 TERWILLEGAR BOULEVARD NW, , ,EDMONTON,T6R 0C5
77313300,DISCOUNT LIQUOR,(780) 451-8884,(780) 451-8885,5-13651 ST ALBERT TRAIL NW, , ,5-13651 ST ALBERT TRAIL NW, , ,EDMONTON,T5L 5E7
77321300,LIQUOR DEPOT AT WINDERMERE CROSSING,(780) 433-1175,(780) 702-1427,1145 WINDERMERE WAY SW, , ,101-17220 STONY PLAIN ROAD, , ,EDMONTON,T6W 2P3
77323100,SOBEYS LIQUOR (LEWIS ESTATES),(780) 489-3919,(780) 489-0383,ESTATES,1026 WEBBER GREENS DRIVE, ,1020 64 AVENUE NE, , ,EDMONTON,T5T 4K5
77325700,BOSS LIQUOR,(780) 803-2677,NOFAX,102-3342 PARSONS ROAD NW, , ,102-3342 PARSONS ROAD NW, , ,EDMONTON,T6N 1B5
77328800,SPIRITS ON JASPER,(587) 521-9241,NOFAX,11314 JASPER AVENUE NW, , ,11314 JASPER AVENUE NW, , ,EDMONTON,T5K 0L8
77340000,7 DEGREES WINE/BEER/SPIRITS,(780) 756-8380,NOFAX,116-14315 118 AVENUE NW, , ,116-14315 118 AVENUE NW, , ,EDMONTON,T5L 4S6
77351000,GLASSY WINE & SPIRITS,(780) 438-5088,(780) 466-5481,14751 40 AVENUE NW, , ,14751 40 AVENUE NW, , ,EDMONTON,T6R 1N1
77352500,ARENA LIQUOR,(780) 479-0306,NOFAX,394-10266 103 STREET NW, , ,10645 102 STREET NW, , ,EDMONTON,T5J 0Y8
77353800,SAFEWAY LIQUOR (PALISADES),(780) 475-5905,(780) 475-8429,12807 140 AVENUE NW, , ,1020 64 AVENUE NE, , ,EDMONTON,T6V 1P1
77357800,RIVIERA LIQUOR STORE,(780) 432-3590,NOFAX,5359 CALGARY TRAIL NW, , ,5359 CALGARY TRAIL NW, , ,EDMONTON,T6H 4J9
77358500,TRANSIT HOTEL,(780) 476-2337,(780) 472-7193,12720 FORT ROAD NW, , ,12720 FORT ROAD NW, , ,EDMONTON,T5A 1A6
77375400,LIQUOR DEPOT AT LEWIS ESTATES,(587) 521-6182,NOFAX,TBD-1252 WEBBER GREENS DRIVE NW, , ,101-17220 STONY PLAIN ROAD, , ,EDMONTON,T5T 4K5
77379300,LIQUOR PLANET,(780) 901-8367,NOFAX,11142 142 STREET  NW, , ,11142 142 STREET NW, , ,EDMONTON,T5M 4G5
77391100,CITY CELLARS,(780) 420-1650,NOFAX,10505 123 STREET NW, , ,413 SIOUX ROAD, , ,EDMONTON,T5N 1N9
77392000,SOBEYS LIQUOR (GARNEAU),(780) 438-9463,NOFAX,8204 109 STREET NW, , ,1020 64 AVENUE NE, , ,EDMONTON,T6G 1C8
77403300,COLD ONES LIQUOR DISCOUNTER,(780) 473-1400,NOFAX,12916 97 STREET NW, , ,1564 KINROSS ROAD NW, , ,EDMONTON,T5E 4C3
77404200,FRIENDS 97 LIQUOR,(780) 477-7995,NOFAX,12455 97 STREET NW, , ,1408 JEFFREYS CRESCENT NW, , ,EDMONTON,T5G 1Z6
77405000,COLOR DE VINO,(780) 439-9069,NOFAX,9606 82 AVENUE NW, , ,7905 112 AVENUE SOUTH NW, , ,EDMONTON,T6C 1A1
77406900,LOCAL LIQUOR STORE,(780) 242-6342,NOFAX,4234 66 STREET NW, , ,4234 66 STREET NW, , ,EDMONTON,T6K 4A2
77407600,BELLE RIVE LIQUOR STORE,(780) 457-1666,NOFAX,BELLE RIVE PLAZA,7-8312 160 AVENUE NW, ,BELLE RIVE PLAZA,7-8312 160 AVENUE NW, ,EDMONTON,T5Z 3P1
77416000,SUPERIOR COLD BEER  WINE  SPIRITS,(780) 721-9867,NOFAX,6611 99 STREET NW, , ,6607 99 STREET NW, , ,EDMONTON,T6E 3P7
77424700,AD LIQUOR MART,(587) 524-0280,NOFAX,11836 WAYNE GRETZKY DRIVE NORTHBOUND NW, , ,916 JORDAN CRESCENT NW, , ,EDMONTON,T5B 4L3
77429600,UNWINED - FINE WINES  SPIRITS & ALES,(780) 421-0015,NOFAX,203 EDMONTON CITY CENTRE NW,10205 101 STREET NW, ,14514 115 AVENUE NW, , ,EDMONTON,T5J 2Y9
77432500,SANDY LANE LIQUOR STORE,(780) 944-1144,NOFAX,15610 95 AVENUE NW, , ,15610 95 AVENUE NW, , ,EDMONTON,T5P 0A4
77433000,LIQUOR DEPOT AT MANNING TOWN CENTRE,(780) 457-4558,NOFAX,15728 37 STREET NW, , ,101-17220 STONY PLAIN ROAD, , ,EDMONTON,T5Y 0S5
77442000,VALLEY LIQUOR HOUSE,(587) 336-7666,NOFAX,10824 102 AVENUE NW, , ,10824 102 AVENUE NW, , ,EDMONTON,T5J 0G3
77442900,BOSS LIQUOR,(780) 761-2677,NOFAX,1531 LAKEWOOD ROAD WEST, , ,1531 LAKEWOOD ROAD WEST, , ,EDMONTON,T6K 3S4
77452400,INGLEWOOD LIQUOR STORE,(780) 488-9959,NOFAX,12305 118 AVENUE NW, , ,12305 118 AVENUE NW, , ,EDMONTON,T5L 2K2
77453900,MILLWOODS TOWN LIQUOR,(780) 487-7348,NOFAX,906-6109 28 AVENUE NW, , ,906-6109 28 AVENUE NW, , ,EDMONTON,T6L 6N5
77465500,CHEERS AND BEERS,(780) 441-9495,(780) 705-8541,11836 103 STREET NW, , ,11836 103 STREET NW, , ,EDMONTON,T5G 2J2
77472500,CASTLE LIQUOR,(780) 478-7188,NOFAX,13704 CASTLE DOWN ROAD NW, , ,13704 CASTLE DOWN ROAD NW, , ,EDMONTON,T5B 4H2
77479100,WEST EDMONTON TRUCKLAND LIQUOR,(780) 445-8866,NOFAX,16810 118 AVENUE NW, , ,16810 118 AVENUE NW, , ,EDMONTON,T5V 1M8
77488400,WINE & BEYOND AT MACTAGGART RIDGE,(780) 432-2258,(780) 433-0197,5962 MULLEN WAY NW, , ,101-17220 STONY PLAIN ROAD, , ,EDMONTON,T6R 0S9
77502300,SOBEYS LIQUOR (NEWCASTLE),(587) 473-1413,NOFAX,16831 127 STREET NW, , ,1020 64 AVENUE NE, , ,EDMONTON,T6V 0T1
77512600,LIQUOR SPOT,(780) 909-2583,NOFAX,17110 90 AVENUE NW, , ,6735 12 AVENUE SW, , ,EDMONTON,T5T 4C8
77532300,WINE GALLERY EDMONTON,(780) 757-6891,NOFAX,10930 119 STREET NW, , ,10930 119 STREET NW, , ,EDMONTON,T5H 3P5
77532800,LIQUOR HOUSE,(587) 473-3939,NOFAX,16510 59A STREET NW, , ,16510 59A STREET NW, , ,EDMONTON,T5Y 0J2
77541300,SOBEYS LIQUOR (COLISEUM),(587) 490-0364,NOFAX,8004 - 118 AVENUE, , ,1020 64 AVENUE NE, , ,EDMONTON,T5B 0R8
77551800,CHEERS AND BEERS,(780) 441-9495,NOFAX,11007 124 STREET NW, , ,11007 124 STREET NW, , ,EDMONTON,T5M 0J5
77557300,LIQUOR CONNECTION,(780) 709-5355,NOFAX,NORTH CITY CENTRE,13248 137 AVENUE NW, ,13248 137 AVENUE, , ,EDMONTON,T5L 4Z6
77559700,SOBEYS LIQUOR TAMARACK,(587) 463-5893,(587) 463-5824,2425 17 STREET NW, , ,1020 64 AVENUE NE, , ,EDMONTON,T6T 0Y2
77560500,JASPER WINE MARKET,(780) 756-9463,NOFAX,ALLARCO BUILDING,11452 JASPER AVENUE NW, ,1188 HOLLANDS WAY NW, , ,EDMONTON,T5K 0M1
77587600,LIQUOR ON 17,(780) 504-1717,NOFAX,1758-1760 34 AVENUE NW, , ,1758-1760 34 AVENUE NW, , ,EDMONTON,T6T 1B1
77609500,DAHLAK LIQUOR STORE,(780) 265-2133,NOFAX,10724 107 AVENUE NW, , ,PO BOX 31044, , ,EDMONTON,T5H 0W8
77615000,LIQUOR ON WHITEMUD,(780) 818-2517,NOFAX,5149 55 AVENUE NW, , ,3946 101 STREET NW, , ,EDMONTON,T6E 0A5
77616500,RICKY'S LIQUOR,(250) 321-3448,NOFAX,6114 50 STREET NW, , ,6114 50 STREET NW, , ,EDMONTON,T6B 2N7
77649600,RED NIGHT LIQUOR STORE,(780) 465-2660,NOFAX,3448 99 STREET NW, , ,3448 99 STREET NW, , ,EDMONTON,T6E 5X5
77656900,LIQUOR HOUSE,(780) 484-5538,NOFAX,15255 111 AVENUE NW, , ,6707 18 AVENUE SW, , ,EDMONTON,T5M 2R1
77665100,CONNECT LIQUOR,(780) 288-7854,NOFAX,101-11266 82 STREET NW, , ,808 114 STREET NW, , ,EDMONTON,T5B 2V3
77672400,BON LIQUOR,(780) 761-3677,NOFAX,6250 99 STREET NW, , ,6250 99 STREET NW, , ,EDMONTON,T6E 6C7
77679200,MENISA LIQUOR,(780) 485-0548,NOFAX,1039 KNOTTWOOD ROAD EAST, , ,1039 KNOTTWOOD ROAD EAST, , ,EDMONTON,T6K 3N5
77685800,EVOLUTION LIQUOR,(780) 433-9100,NOFAX,9216 51 AVENUE NW, , ,9216 51 AVENUE NW, , ,EDMONTON,T6E 5L8
77697200,DOWNTOWN LIQUOR,(780) 249-7388,NOFAX,1C-10020 JASPER AVENUE NW, , ,5-10020 JASPER AVENUE NW, , ,EDMONTON,T5J 1R2
77700600,EDMONTON LIQUOR MERCHANT,(780) 863-1946,NOFAX,9855 63 AVENUE NW, , ,9855 63 AVENUE NW, , ,EDMONTON,T6E 0G7
77716900,LIQUOR FORT,(780) 477-0081,NOFAX,12251 FORT ROAD NW, , ,12251 FORT ROAD NW, , ,EDMONTON,T5B 4H2
77723200,REAL CANADIAN LIQUORSTORE,(780) 438-8263,NOFAX,2746 JAMES MOWATT TRAIL SW, , ,3225 12 STREET NE, , ,EDMONTON,T6W 3R3
77725800,121 JASPER LIQUOR,(587) 708-5669,NOFAX,12110 JASPER AVENUE NW, , ,420-10333 112 STREET NW, , ,EDMONTON,T5N 3J8
77745200,HAPPY HOUR LIQUOR,(780) 862-5998,NOFAX,13-14220 YELLOWHEAD TRAIL NW, , ,14-23330 TOWNSHIP ROAD 522, , ,EDMONTON,T5L 3C2
77751700,LIQUOR TODAY,(780) 966-2274,NOFAX,16618 109 AVENUE NW, , ,16618 109 AVENUE NW, , ,EDMONTON,T5P 1C2
77758600,LIQUOR ON 34,(780) 994-7071,NOFAX,9222 34 AVENUE NW, , ,9222 34 AVENUE NW, , ,EDMONTON,T6E 5P2
77764600,LIQUOR HOUSE,(780) 915-0705,NOFAX,6508 170 AVENUE NW, , ,6508 170 AVENUE NW, , ,EDMONTON,T5Y 3X6
77772600,PRESTIGE LIQUOR,(780) 242-6342,NOFAX,14211 23 AVENUE SW, , ,8716 12 AVENUE SW, , ,EDMONTON,T6R 3E7
77779300,LIQUOR DEPOT AT JAGARE RIDGE,(780) 702-7400,NOFAX,3005 HAYS RIDGE DRIVE SW, , ,101-17220 STONY PLAIN ROAD, , ,EDMONTON,T6W 0C3
77784900,BOSS LIQUOR,(780) 249-2677,NOFAX,10917 156 STREET NW, , ,8003 3 AVENUE SW, , ,EDMONTON,T5P 2S7
77787000,HILLS BOSS LIQUOR,(306) 202-7335,NOFAX,3751 8 AVENUE SW, , ,103-2303 38 STREET NW, , ,EDMONTON,T6X 1A4
77827400,ROYAL IMPERIAL LIQUOR STORE,(780) 994-7623,NOFAX,9647 107A AVENUE NW, , ,9647 107A AVENUE NW, , ,EDMONTON,T5H 0Z6
77869800,WILLOW PARK PAX EDMONTON,(403) 296-1640,NOFAX,18516 111 AVENUE NW, , ,10801 BONAVENTURE DRIVE SE, , ,EDMONTON,T5S 2V4
77892700,ECONO LIQUOR #6,(587) 686-0703,NOFAX,4313 167 AVENUE NW, , ,4313 167 AVENUE NW, , ,EDMONTON,T5Y 3Y2
77899700,LIQUOR HOUSE,(780) 915-0705,NOFAX,101-6104 104 STREET NW, , ,1188 HOLLANDS WAY NW, , ,EDMONTON,T6H 2K7
77899800,LIQUOR HOUSE,(780) 915-0705,NOFAX,8070 167 AVENUE NW, , ,1188 HOLLANDS WAY, , ,EDMONTON,T5Z 0E5
77910400,LIQUOR DEPOT AT CALLINGWOOD SQUARE,(780) 944-8097,NOFAX,208-6655 178 STREET NW, , ,101-17220 STONY PLAIN ROAD, , ,EDMONTON,T5T 4K3
77910500,LIQUOR DEPOT AT STRATHCONA,(780) 989-7601,NOFAX,7808 GATEWAY BOULEVARD NW, , ,101-17220 STONY PLAIN ROAD NW, , ,EDMONTON,T6E 6C3
77947800,VALUE LIQUOR HUB,(587) 524-1153,NOFAX,12068 JASPER AVENUE NW, , ,12068 JASPER AVENUE NW, , ,EDMONTON,T5K 0P3
77967000,LIQUOR DEPOT AT LONDONDERRY,(780) 406-7295,NOFAX,14010 66 STREET NW, , ,101-17220 STONY PLAIN ROAD NW, , ,EDMONTON,T5C 3E6
77969800,CHAPPELLE BOSS LIQUOR,(780) 885-9155,NOFAX,3158 141 STREET SW, , ,7823 16 AVENUE SW, , ,EDMONTON,T6W 1A7
77974300,OLYMPIA LIQUOR SKYVIEW,(403) 605-6529,NOFAX,13538 137 AVENUE NW, , ,20-6624 CENTRE STREET SE, , ,EDMONTON,T5L 5E9
77974400,OLYMPIA LIQUOR EDMONTON WEST,(403) 605-6529,NOFAX,18473 STONY PLAIN ROAD NW, , ,20-6624 CENTRE STREET SE, , ,EDMONTON,T5S 2X6
77976100,SHOP RITE LIQUOR,(780) 757-0108,NOFAX,11447 124 STREET NW, , ,5887 ANTHONY CRESCENT SW, , ,EDMONTON,T5M 3M5
77980500,127 ST LIQUOR,(780) 758-6995,NOFAX,12049 127 STREET NW, , ,4216 33 AVENUE NW, , ,EDMONTON,T5L 4T6
77984500,LA PERLE LIQUOR BARN,(403) 620-4190,NOFAX,19-9772 182 STREET NW, , ,101-17220 STONY PLAIN ROAD NW, , ,EDMONTON,T5T 3T9
77985700,EDGEMONT HT,(780) 243-5393,NOFAX,20122 LESSARD ROAD NW, , ,1100 634 6 AVENUE SW, , ,EDMONTON,T6M 0T9
77986700,LIQUOR DEPOT AT FOREST HEIGHTS,-,NOFAX,7842 106 AVENUE NW, , ,101-17220 STONY PLAIN ROAD, , ,EDMONTON,T6A 1H5
77986800,LIQUOR DEPOT AT HERITAGE VILLAGE,(780) 989-7601,NOFAX,11035 23 AVENUE NW, , ,101-17220 STONY PLAIN ROAD NW, , ,EDMONTON,T6J 6P9
77986900,LIQUOR DEPOT AT CLAREVIEW,(780) 989-7601,NOFAX,14005 VICTORIA TRAIL NW, , ,101-17220 STONY PLAIN ROAD, , ,EDMONTON,T5Y 2B6
77989700,LIQUOR DEPOT AT OLIVER VILLAGE,(780) 989-7601,NOFAX,11354 104 AVENUE NW, , ,101 17220 STONY PLAIN ROAD, , ,EDMONTON,T5K 2W9
77994600,SPEERS' BEERS  WINE & LIQUOR,-,NOFAX,10816 170 STREET NW, , ,10816 170 STREET NW, , ,EDMONTON,T5S 2H7
77996500,ACE LIQUOR DISCOUNTER AT NORTHGATE,(780) 460-8610,NOFAX,13620 93 STREET NW, , ,101-17220 STONY PLAIN ROAD NW, , ,EDMONTON,T5E 4E3
77996600,ACE LIQUOR AT TERRA LOSA,(780) 983-9937,NOFAX,TERRA LOSA CENTRE,9500 170 STREET NW, ,101-17220 STONY PLAIN ROAD NW, , ,EDMONTON,T5T 5R6
77996700,ACE LIQUOR DISCOUNTER AT 23 AVENUE,(780) 468-5941,NOFAX,5638 23 AVENUE NW, , ,101-17220 STONY PLAIN ROAD, , ,EDMONTON,T6L 6N2
77997200,ACE LIQUOR DISCOUNTER AT MILLWOODS,(780) 917-4180,NOFAX,1503 50 STREET NW, , ,101-17220 STONY PLAIN ROAD, , ,EDMONTON,T6L 7C9
77997300,ACE LIQUOR DISCOUNTER AT CASTLEDOWNS,(780) 917-4180,NOFAX,156-15277 CASTLEDOWNS ROAD NW, , ,101-17220 STONY PLAIN ROAD NW, , ,EDMONTON,T5X 3N5
77997400,ACE LIQUOR DISCOUNTER AT OLDE TOWNE,(780) 917-4180,NOFAX,11708 34 STREET NW, , ,101-17220 STONY PLAIN ROAD, , ,EDMONTON,T5W 1Z1
77997500,ACE LIQUOR DISCOUNTER AT JACKSON HEIGHTS,(780) 917-4180,NOFAX,4353 50 STREET NW, , ,101-17220 STONY PLAIN ROAD, , ,EDMONTON,T6L 7E8
78001500,ACE LIQUOR DISCOUNTER AT THE MEADOWS,(780) 917-4180,NOFAX,2334 24 STREET NW, , ,101-17220 STONY PLAIN ROAD, , ,EDMONTON,T6T 0G9
78001600,ACE LIQUOR DISCOUNTER AT JASPER GATES,(780) 486-1561,NOFAX,15039 STONY PLAIN ROAD NW, , ,101-17220 STONY PLAIN ROAD, , ,EDMONTON,T5P 4W1
78001700,ACE LIQUOR DISCOUNTER AT BONNIE DOON,(780) 468-6963,NOFAX,8940 82 AVENUE NW, , ,101-17220 STONY PLAIN ROAD, , ,EDMONTON,T6C 0Z3
78001800,ACE LIQUOR DISCOUNTER AT TAMARACK,(780) 462-1843,NOFAX,3755 17 STREET NW, , ,101-17220 STONY PLAIN ROAD, , ,EDMONTON,T6T 1H9
78001900,ACE LIQUOR DISCOUNTER AT 50TH STREET,(780) 989-7645,NOFAX,MARKET,4857 167 AVENUE, ,MARKET,101-17220 STONY PLAIN ROAD NW, ,EDMONTON,T5Y 0S4
78002100,ACE LIQUOR DISCOUNTER AT HERITAGE LINKS,(780) 413-6107,NOFAX,2148 109 STREET NW, , ,101-17220 STONY PLAIN ROAD, , ,EDMONTON,T6J 7C1
78006700,HIGHLANDER WINE  & SPIRITS,(403) 968-4073,NOFAX,104-17010 90 AVENUE NW, , ,104-17010 90 AVENUE NW, , ,EDMONTON,T5T 1L6
78008200,LIQUOR LINK,(778) 977-6666,NOFAX,13054 ST ALBERT TRAIL NW, , ,13054 ST ALBERT TRAIL NW, , ,EDMONTON,T5L 4Y6
78030300,ORCHARDS BOSS LIQUOR,(780) 885-9155,NOFAX,166-9080 25 AVENUE SW, , ,7823 16 AVENUE SW, , ,EDMONTON,T6X 0P4
78040700,COLD ONES LIQUOR DISCOUNTER,(780) 244-9915,NOFAX,13443 FORT ROAD NW, , ,1564 KINROSS ROAD NW, , ,EDMONTON,T5A 1C6
78048400,SOLO LIQUOR AT AMBLESIDE,(780) 917-4180,NOFAX,16220 ELLERSLIE ROAD SW, , ,101-17220 STONY PLAIN ROAD, , ,EDMONTON,T6W 1A4
78048700,SOLO LIQUOR AT MILLWOOD,(780) 917-4180,NOFAX,3927 34 STREET NW, , ,101-17220 STONY PLAIN ROAD, , ,EDMONTON,T6T 1L5
78048800,SOLO LIQUOR AT WEST POINT,(780) 917-4180,NOFAX,15-9977 178 STREET NW, , ,101-17220 STONY PLAIN ROAD, , ,EDMONTON,T5T 6J6
76875800,A FLIGHT OF WINES AND SPIRITS,(780) 890-7288,NOFAX,Gate 50/52 After security at ED Airport, , ,22-24528 STURGEON ROAD, , ,EDMONTON INTERNATIONAL AIRPORT,T9E 0V3
77910700,COSTCO LIQUOR,(613) 221-2229,NOFAX,2616 46 AVENUE E EDMONTON INTERNATIONAL, , ,415 WEST HUNT CLUB ROAD, , ,EDMONTON INTERNATIONAL AIRPORT,T9E 1K2
76517000,LIQUOR DEPOT AT DERRICK,(780) 723-3808,(780) 723-6303,4920 1 AVENUE, , ,101-17220 STONY PLAIN ROAD, , ,EDSON,T7E 1A1
76517100,LIQUOR DEPOT AT JUNIOR DERRICK,(780) 712-7370,(780) 712-7371,4524 4 AVENUE, , ,101-17220 STONY PLAIN ROAD, , ,EDSON,T7E 1C7
77345400,2 AM LIQUOR STORE,(780) 723-2008,(780) 723-2018,5208 4 AVENUE, , ,5208 4 AVENUE, , ,EDSON,T7E 1L4
77586500,SOBEYS LIQUOR (EDSON),(780) 723-5657,NOFAX,624 50 STREET, , ,1020 64 AVENUE NE, , ,EDSON,T7E 1B4
77635200,YOUR INDEPENDENT LIQUOR STORE,(780) 725-0011,NOFAX,215 45 STREET, , ,3225 12 STREET NE, , ,EDSON,T7E 1Z1
77996200,ACE LIQUOR DISCOUNTER AT EDSON WEST,(780) 983-9937,NOFAX,200-302 53 STREET, , ,101-17220 STONY PLAIN ROAD NW, , ,EDSON,T7E 1X8
77254700,K & N LIQUOR STORE,(780) 724-4770,NOFAX,4801 48 STREET, , ,PO BOX 208,4801 48 STREET, ,ELK POINT,T0A 1A0
77284500,SHOTZ LIQUOR & BEER STORE,(780) 724-4008,NOFAX,5017 50 STREET, , ,PO BOX 1243, , ,ELK POINT,T0A 1A0
77572300,CORNERSTONE CO-OP LIQUOR @ ELK POINT,(780) 645-3351,NOFAX,4806 49 AVENUE, , ,3-5017 42 STREET, , ,ELK POINT,T0A 1A0
77954300,TRIO LIQUOR MART,(780) 243-3429,NOFAX,21553 CHIEF LAPOTAC BOULEVARD, , ,6041 ROSENTHAL WAY NW, , ,ENOCH,T7X 3Y3
76932700,LIQUOR ON 16,(780) 727-2124,(780) 727-2567,5021 47 AVENUE, , ,PO BOX 500, , ,ENTWISTLE,T0E 0S0
76232100,RIVER RUN LIQUOR STORE,(780) 727-4310,(780) 727-4310,4906 50 AVENUE, , ,BOX 263, , ,EVANSBURG,T0E 0T0
77055000,RAILSIDE LIQUOR STORE,(780) 835-2124,(780) 835-3403,11232 101 AVENUE, , ,PO BOX 2260,11232 101 AVENUE, ,FAIRVIEW,T0H 1L0
77327500,FAIRVIEW LIQUOR STORE,(780) 835-2555,NOFAX,11020 101 AVENUE, , ,11478 149 STREET NW, , ,FAIRVIEW,T0H 1L0
77174300,FALHER LIQUOR STORE,(780) 837-2511,(780) 837-2503,32 MAIN STREET SE, , ,PO BOX 577, , ,FALHER,T0H 1M0
76154800,FALLIS LIQUOR STORE,(780) 892-3150,NOFAX,5202 HIGHWAY 16, , ,PO BOX 278, , ,FALLIS,T0E 0V0
77153900,FALUN LIQUOR STORE,(780) 352-5231,NOFAX,RANGE ROAD 273 & HWY 13, , ,PO BOX 111, , ,FALUN,T0C 1H0
77367400,CO-OP WINE  SPIRITS AND BEER,(780) 352-6001,NOFAX,HIGHWAY 13, , ,PO BOX 91, , ,FALUN,T0C 1H0
77304300,CHEERS LIQUOR STORE,(403) 867-2223,NOFAX,106 MAIN STREET, , ,PO BOX 8, , ,FOREMOST,T0K 0X0
75829300,BATTLE RIVER LIQUOR STORE,(780) 582-3785,(780) 582-3785,5006 49 AVENUE, , ,PO BOX 368, , ,FORESTBURG,T0B 1N0
77381800,HEP LIQUOR STORE,(780) 697-3314,NOFAX,125 MCDERMONT AVENUE, , ,350-55 SALISBURY WAY,SUITE 250, ,FORT CHIPEWYAN,T0B 1B0
76880900,GREAT CANADIAN LIQUOR,(403) 553-4877,NOFAX,542 24 STREET, , ,11478 149 STREET NW, , ,FORT MACLEOD,T0L 0Z0
77089600,TOWN & COUNTRY LIQUOR STORE,(403) 553-0123,NOFAX,528 24 STREET, , ,PO BOX 369, , ,FORT MACLEOD,T0L 0Z0
77457300,TOP SHELF LIQUOR,(403) 553-4500,NOFAX,352 24 STREET, , ,BOX 970, , ,FORT MACLEOD,T0L 0Z0
77567200,MACLEOD LIQUOR STORE,(403) 553-2501,NOFAX,112 HIGHWAY 3 WEST, , ,PO BOX 1202, , ,FORT MACLEOD,T0L 0Z0
74872900,GREGOIRE LIQUOR STORE,(780) 790-1411,(780) 791-7762,2-226 GREGOIRE DRIVE, , ,2-226 GREGOIRE DRIVE, , ,FORT MCMURRAY,T9H 4K6
75388100,BEACON HILL LIQUOR STORE,(780) 790-1666,(780) 791-7762,BEACON HILL SHOPPING CENTRE,450-208 BEACON HILL DRIVE, ,2-226 GREGOIRE DRIVE, , ,FORT MCMURRAY,T9H 2R1
75653900,REAL CANADIAN LIQUOR STORE,(780) 790-3845,(780) 790-3847,9 HAINEAULT STREET, , ,9 HAINEAULT STREET, , ,FORT MCMURRAY,T9H 1R8
75692200,THICKWOOD WINE & SPIRITS,(780) 743-6119,(780) 743-4589,6-412 THICKWOOD BOULEVARD, , ,131 BERARD CRESCENT, , ,FORT MCMURRAY,T9K 1P1
75987300,GREGOIRE SPIRITS LIQUOR STORE,(780) 791-2653,(780) 791-2605,300 GREGOIRE DRIVE, , ,300 GREGOIRE DRIVE, , ,FORT MCMURRAY,T9H 4K6
76517600,LIQUOR DEPOT AT FORT MCMURRAY,(780) 743-1411,(780) 743-1433,8410 FRANKLIN AVENUE, , ,101-17220 STONY PLAIN ROAD, , ,FORT MCMURRAY,T9H 2J3
76517700,LIQUOR DEPOT AT BUFFALO VILLAGE,(780) 790-6613,(780) 790-6076,100 REAL MARTIN DRIVE, , ,101-17220 STONY PLAIN ROAD, , ,FORT MCMURRAY,T9K 2S1
76581400,LIQUOR DEPOT AT RAGING BUFFALO,(780) 799-4210,(780) 799-4260,102C MILLENNIUM DRIVE, , ,101-17220 STONY PLAIN ROAD, , ,FORT MCMURRAY,T9K 1Y8
76600200,REAL CANADIAN LIQUOR STORE,(780) 788-1420,(780) 788-1424,259 POWDER DRIVE, , ,259 POWDER DRIVE, , ,FORT MCMURRAY,T9K 2W6
76639000,LIQUOR DEPOT AT FRANKLIN AVENUE,(780) 791-0040,(780) 791-0038,NORTHERN LIGHTS CENTRE,9623 FRANKLIN AVENUE, ,101-17220 STONY PLAIN ROAD, , ,FORT MCMURRAY,T9H 3Z7
76639200,LIQUOR DEPOT AT THICKWOOD MALL,(780) 791-9463,(780) 791-9476,5-310 THICKWOOD BOULEVARD, , ,101-17220 STONY PLAIN ROAD, , ,FORT MCMURRAY,T9K 1Y1
76700200,SOBEYS LIQUOR (CLEARWATER),(780) 715-4070,(780) 715-4085,CLEARWATER LANDING SHOPPING CENTRE,205-19 REIDEL STREET, ,1020 64 AVENUE NE, , ,FORT MCMURRAY,T9H 5P8
76918000,LIQUOR DEPOT AT EAGLE RIDGE,(780) 743-1236,NOFAX,130-151 LOUTIT ROAD, , ,101-17220 STONY PLAIN ROAD, , ,FORT MCMURRAY,T9K 0K6
76978100,DICKINSFIELD LIQUOR STORE,(780) 791-9900,(780) 791-9954,DICKINSFIELD MALL,3-142 DICKINS DRIVE, ,11478 149 STREET NW, , ,FORT MCMURRAY,T9K 1X4
77013200,THAT'S THE SPIRIT,(780) 750-9967,(780) 750-9966,101 RIVERSTONE RIDGE, , ,101 RIVERSTONE RIDGE, , ,FORT MCMURRAY,T9K 0T9
77049000,MR. LIQUOR (GREGOIRE),(780) 715-0761,NOFAX,374 GREGOIRE DRIVE, , ,1-9914 KING STREET, , ,FORT MCMURRAY,T9H 3R2
77105400,MR. LIQUOR (KING STREET),(780) 743-0052,(780) 715-9016,1-9914 KING STREET, , ,1-9914 KING STREET, , ,FORT MCMURRAY,T9H 5A8
77278000,SOBEYS LIQUOR (THICKWOOD),(780) 791-2822,(780) 791-5442,BEER,164A-101 SIGNAL ROAD, ,1020 64 AVENUE NE, , ,FORT MCMURRAY,T9H 4N6
77305600,LIQUOR DEPOT AT STONEYCREEK,(780) 702-7396,NOFAX,101-112 RIVERSTONE RIDGE, , ,101-17220 STONY PLAIN ROAD, , ,FORT MCMURRAY,T9K 1S6
77401200,EAST VILLAGE LIQUOR STORE,(780) 880-7484,NOFAX,121-395 LOUTIT ROAD, , ,121-395 LOUTIT ROAD, , ,FORT MCMURRAY,T9K 0Z4
77458700,SOLO LIQUOR STORE (FORT MCMURRAY),(780) 743-9051,NOFAX,10012 FRANKLIN AVENUE, , ,1100-634 6 AVENUE SW, , ,FORT MCMURRAY,T9H 2K6
77501600,LIQUOR BOUTIQUE,(780) 713-9316,NOFAX,3-700 SIGNAL ROAD, , ,172 GRAVELSTONE WAY, , ,FORT MCMURRAY,T9H 4V8
77734300,SIGNATURE LIQUOR,(780) 215-0896,NOFAX,8720 FRANKLIN AVENUE, , ,157D DICKENS DRIVE, , ,FORT MCMURRAY,T9H 3K8
77755500,ABASAND LIQUOR STORE,(780) 880-7888,NOFAX,307 ATHABASCA AVENUE, , ,101 RIVERSTONE RIDGE, , ,FORT MCMURRAY,T9K 0T9
77779200,WOOD BUFFALO WINE CELLAR,(780) 266-5817,NOFAX,39 - 8102 FRASER AVENUE, , ,153 JUNIPER STREET, , ,FORT MCMURRAY,T9H 0G1
78002400,ACE LIQUOR DISCOUNTER AT FORT MCMURRAY,(780) 989-7645,NOFAX,2-606 SIGNAL ROAD, , ,101-17220 STONY PLAIN ROAD NW, , ,FORT MCMURRAY,T9H 4Z4
76377900,SPIRITS ON 101,(780) 992-9261,(780) 992-9267,10106 88 AVENUE, , ,10106 88 AVENUE, , ,FORT SASKATCHEWAN,T8L 4J9
76449300,REAL CANADIAN LIQUOR STORE,(780) 997-2620,(780) 997-2624,120-8802 100 STREET, , ,120-8802 100 STREET, , ,FORT SASKATCHEWAN,T8L 4R2
76640200,WEST PARK LIQUOR STORE,(780) 998-3778,(780) 998-3735,104-41 WESTPARK BOULEVARD, , ,104-41 WESTPARK BOULEVARD, , ,FORT SASKATCHEWAN,T8L 4N2
76740500,ANGIE'S COLD BEER AND LIQUOR,(780) 992-2260,(780) 992-2260,9709 90 STREET, , ,9709 90 STREET, , ,FORT SASKATCHEWAN,T8L 1K5
77023800,SOLO LIQUOR STORE (FORT SASKATCHEWAN),(780) 589-1010,NOFAX,117-9372 SOUTHFORT DRIVE, , ,7624 15 AVENUE, , ,FORT SASKATCHEWAN,T8L 0C5
77303600,ECONO LIQUOR #5,(780) 955-5535,NOFAX,60-112 TOWN CREST ROAD, , ,60-112 TOWN CREST ROAD, , ,FORT SASKATCHEWAN,T8L 0G7
77506400,PINEVIEW COLD BEER AND LIQUOR STORE,(780) 655-7324,NOFAX,RIVER POINTE PLAZA MALL,6-9902 93 STREET, ,9611 111 AVENUE NW, , ,FORT SASKATCHEWAN,T8L 4K8
77553500,99 AVENUE LIQUOR STORE,(780) 992-9920,NOFAX,B-10002 99 AVENUE, , ,B-10002 99 AVENUE, , ,FORT SASKATCHEWAN,T8L 3Y1
77666000,LIQUOR BASKET,(780) 239-7285,NOFAX,111-120 SOUTHRIDGE BOULEVARD, , ,1048 LAKEWOOD ROAD NORTH NW, , ,FORT SASKATCHEWAN,T8L 0P6
77742100,SOUTHFORT LIQUOR,(587) 920-3080,NOFAX,101-121 TOWN CREST ROAD, , ,101-121 TOWN CREST ROAD, , ,FORT SASKATCHEWAN,T8L 0G7
77775900,KING LIQUOR,(780) 293-6000,NOFAX,115-9310 SOUTHFORT DRIVE, , ,7624 15 AVENUE, , ,FORT SASKATCHEWAN,T8L 0C5
77838100,LIQUOR HOUSE,(778) 881-5481,NOFAX,104-130 WESTPARK BOULEVARD, , ,1188 HOLLANDS WAY, , ,FORT SASKATCHEWAN,T8L 0B2
77995900,ACE LIQUOR DISCOUNTER AT FORT,(780) 917-4180,NOFAX,SASKATCHEWAN,9532 86 AVENUE, ,SASKATCHEWAN,101-17220 STONY PLAIN ROAD, ,FORT SASKATCHEWAN,T8L 4P4
78002600,ACE LIQUOR AT FORT STATION,(780) 917-4180,NOFAX,301-10451 99 AVENUE, , ,101-17220 STONY PLAIN ROAD, , ,FORT SASKATCHEWAN,T8L 2N6
75743100,HYDWAY LIQUOR,(780) 927-3505,(780) 927-3128,4807 50 STREET, , ,PO BOX 549, , ,FORT VERMILION,T0H 1N0
77382800,SNICKLEFRITZ WINE AND SPIRITS,(780) 927-3808,(780) 927-4568,4806 50 STREET, , ,PO BOX 550, , ,FORT VERMILION,T0H 1N0
76695000,OASIS LIQUOR OUTLET,(780) 622-2602,(780) 622-2866,KAYBOB DRIVE & 1 AVENUE SW, , ,PO BOX 540, , ,FOX CREEK,T0H 1P0
77525900,FOX CREEK LIQUOR STORE,(780) 458-3550,NOFAX,311 1 AVENUE, , ,PO BOX 870, , ,FOX CREEK,T0H 1P0
76640000,GIBBONS LIQUOR LOFT,(780) 923-3788,(780) 487-8017,4905 50 AVENUE, , ,1-26314 TOWNSHIP ROAD, , ,GIBBONS,T0A 1N0
76870400,YE OLDE GIBBONS LIQUOR STORE,(780) 923-3474,(780) 923-3476,4620 50 AVENUE, , ,11478 149 STREET NW, , ,GIBBONS,T0A 1N0
74686200,GLENDON LIQUOR STORE,(780) 635-3944,(780) 635-3950,MAIN STREET, , ,PO BOX 37, , ,GLENDON,T0A 1P0
77949200,B-DAWG'S LIQUOR STORE,(780) 573-2031,NOFAX,5014 RAILWAY AVENUE, , ,PO BOX 519, , ,GLENDON,T0A 1P0
74807800,VEGAS LIQUOR OUTLET,(780) 827-3535,(780) 827-3532,VEGAS PLAZA BUILDING,209 PINE PLAZA, ,PO BOX 1564, , ,GRANDE CACHE,T0E 0Y0
76831500,GRANDE CACHE LIQUOR,(780) 827-3668,(780) 827-3661,10002 HOPPE AVENUE, , ,PO BOX 546, , ,GRANDE CACHE,T0E 0Y0
77585200,SOBEYS LIQUOR (GRANDE CACHE),(780) 827-2345,NOFAX,4200 PINE PLAZA, , ,1020 64 AVENUE NE, , ,GRANDE CACHE,T0E 0Y0
75642300,REAL CANADIAN LIQUOR STORE,(780) 831-3850,(780) 831-3852,12225 99 STREET, , ,12225 99 STREET, , ,GRANDE PRAIRIE,T8V 6X9
76507000,TOWNE CENTRE LIQUOR STORE,(780) 538-9911,(780) 538-1169,39-9845 99 AVENUE, , ,39-9845 99 AVENUE, , ,GRANDE PRAIRIE,T8V 0R3
76516200,G.P. LIQUOR FOR LESS,(780) 532-8080,(780) 532-2138,101-10001 97 AVENUE, , ,101-10001 97 AVENUE, , ,GRANDE PRAIRIE,T8V 2Z7
76566700,LIQUOR DEPOT AT GRANDE PRAIRIE,(780) 831-7347,(780) 538-0192,101-8200 100 STREET, , ,101-17220 STONY PLAIN ROAD, , ,GRANDE PRAIRIE,T8V 6H7
76616800,LIQUOR DEPOT AT GRANDE PRAIRIE EAST,(780) 513-8555,(780) 513-8513,IVY LAKE PLAZA,1-10012 92 STREET, ,101-17220 STONY PLAIN ROAD, , ,GRANDE PRAIRIE,T8V 7T5
76710200,LIQUOR DEPOT AT COBBLESTONE,(780) 513-2267,NOFAX,101-9910 92 STREET, , ,101-17220 STONY PLAIN ROAD, , ,GRANDE PRAIRIE,T8X 0E7
76842900,VINTAGE WINE & SPIRITS,(780) 830-2334,(780) 830-1910,101-8716 108 STREET, , ,101-8716 108 STREET, , ,GRANDE PRAIRIE,T8V 4C7
76893800,ROYAL SPIRITS,(780) 882-6500,(780) 882-6430,103-10420 116 AVENUE, , ,103-10420 116 AVENUE, , ,GRANDE PRAIRIE,T8V 4K5
76947400,COSTCO CANADA LIQUOR,(780) 532-3619,NOFAX,A-9901 116 STREET, , ,A-9901 116 STREET, , ,GRANDE PRAIRIE,T8V 6H6
76951500,REAL CANADIAN LIQUOR STORE,(780) 538-4074,(780) 538-4170,10710 83 AVENUE, , ,10710 83 AVENUE, , ,GRANDE PRAIRIE,T8W 0G9
77054800,WALLY'S BEER COOLER,(780) 513-4312,(780) 513-4312,9320 100 STREET, , ,9320 100 STREET, , ,GRANDE PRAIRIE,T8V 2K9
77063100,JIMMY'S LIQUOR STORE,(780) 513-0676,(780) 532-0822,10515 100 AVENUE, , ,10515 100 AVENUE, , ,GRANDE PRAIRIE,T8V 0V5
77088000,ROYAL SPIRITS LAKELAND,(780) 882-6500,NOFAX,105-9215 LAKELAND DRIVE, , ,105-9215 LAKELAND DRIVE, , ,GRANDE PRAIRIE,T8X 0B8
77225700,URBN LIQUOR COMPANY,(780) 538-4843,(780) 532-8324,9320A 100 AVENUE, , ,9320A 100 AVENUE, , ,GRANDE PRAIRIE,T8V 0S7
77256500,GREAT CANADIAN LIQUOR,(780) 532-6404,(780) 532-6581,103-11710 102 STREET, , ,11478 149 STREET NW, , ,GRANDE PRAIRIE,T8V 7S7
77274500,LIQUOR DEPOT AT GP 92,(780) 702-1427,NOFAX,9115 91 STREET, , ,101-17220 STONY PLAIN ROAD, , ,GRANDE PRAIRIE,T8X 0C7
77328900,GRANDE PRAIRIE WINE SPIRITS BEER,(780) 357-3222,NOFAX,102-8314 WEST POINTE DRIVE, , ,102-8314 WEST POINTE DRIVE, , ,GRANDE PRAIRIE,T8W 2R2
77350200,ROYAL SPIRITS SOUTHGATE,(780) 830-3033,(780) 830-3034,9519B 68 AVENUE, , ,9519B 68 AVENUE, , ,GRANDE PRAIRIE,T8V 7X8
77384900,BEAR CREEK LIQUOR CENTRE,(780) 538-1188,(780) 538-1191,107-6815 KATERI DRIVE, , ,107-6815 KATERI DRIVE, , ,GRANDE PRAIRIE,T8W 0H1
77396200,SAFEWAY LIQUOR (NORTHGATE),(780) 830-4936,NOFAX,9925 114 AVENUE, , ,9925 114 AVENUE, , ,GRANDE PRAIRIE,T8V 4A9
77430200,LIQUOR DEPOT AT WESTGATE,-,NOFAX,101-11535 WESTGATE DRIVE, , ,101-17220 STONY PLAIN ROAD, , ,GRANDE PRAIRIE,T8V 3B1
77595300,LIQUOR DEPOT AT PATTERSON VILLAGE,(780) 532-0959,NOFAX,3-9701 84 AVENUE, , ,101-17220 STONY PLAIN ROAD, , ,GRANDE PRAIRIE,T8V 4Z8
77595800,SPARKS BROTHERS LIQUOR LOCKER INC.,(780) 402-3555,NOFAX,10805 79 AVENUE, , ,10805 79 AVENUE, , ,GRANDE PRAIRIE,T8W 2L9
77603800,COOP LIQUOR STORE,(780) 532-1033,NOFAX,10402 67 AVENUE, , ,9831 100 AVENUE, , ,GRANDE PRAIRIE,T8W 0K8
77627300,OLYMPIA LIQUOR GRAND PRAIRIE,(403) 605-5076,(403) 259-5602,106-10902 105 AVENUE, , ,106-10902 105 AVENUE, , ,GRANDE PRAIRIE,T8V 7Y5
77671300,SM LIQUOR,(780) 897-4071,NOFAX,102B-9908 100 AVENUE, , ,102B-9908 100 AVENUE, , ,GRANDE PRAIRIE,T8V 0T9
77901500,COOP LIQUOR STORE TRADER RIDGE,(780) 538-1265,NOFAX,13204 102 STREET, , ,9831 100 AVENUE, , ,GRANDE PRAIRIE,T8X 0V5
77910300,LIQUOR PLUS,(780) 903-6913,NOFAX,10431 100 AVENUE, , ,7205 97 STREET, , ,GRANDE PRAIRIE,T8V 2Z6
77987900,STONEBRIDGE HOTEL GRANDE PRAIRIE,(780) 539-5561,(780) 528-3220,12102 100 STREET, , ,PO BOX 280, , ,GRANDE PRAIRIE,T8V 5P1
77999100,ACE LIQUOR DISCOUNTER AT RESOURCES PLAZA,(780) 538-2881,NOFAX,3-9301 76 AVENUE, , ,101-17220 STONY PLAIN ROAD NW, , ,GRANDE PRAIRIE,T8V 6H1
77999200,ACE LIQUOR DISCOUNTER AT WAPITI,(780) 538-9901,NOFAX,104-10664 108A STREET, , ,101-17220 STONY PLAIN ROAD, , ,GRANDE PRAIRIE,T8V 7V5
78048900,SOLO LIQUOR AT GP TWO,(587) 299-0550,NOFAX,101-11030 100 STREET, , ,101-17220 STONY PLAIN ROAD, , ,GRANDE PRAIRIE,T8V 2N1
78049000,SOLO LIQUOR AT GRANDE PRAIRIE,(780) 814-7007,NOFAX,105-11230 WESTGATE DRIVE, , ,101-17220 STONY PLAIN ROAD, , ,GRANDE PRAIRIE,T8V 8L2
77037800,GRASSLAND LIQUOR STORE,(780) 689-0840,(780) 525-3861,A-MAIN STREET, , ,PO BOX 23, , ,GRASSLAND,T0A 1V0
78038900,GRASSLAND LIQUOR MART,(780) 424-7227,NOFAX,HIGHWAY 63, , ,2151-10060 JASPER AVENUE NW, , ,GRASSLAND,T0A 1V0
76600900,FYNE SPIRITS LIQUOR STORE,(780) 332-1900,(780) 332-1901,5319 50 STREET, , ,PO BOX 5, , ,GRIMSHAW,T0H 1W0
76914200,RUM RUNNERS LIQUOR STORE LTD.,(780) 332-2299,(780) 332-2294,5820 51 STREET, , ,PO BOX 740, , ,GRIMSHAW,T0H 1W0
77115400,GUNN ESSO LIQUOR STORE,(780) 803-9651,(780) 967-2623,RANGE ROAD 32 & HIGHWAY 43, , ,PO BOX 179, , ,GUNN,T0E 1A0
77841700,GUNN LIQUOR STORE,(780) 908-4916,NOFAX,55022 LAC STE ANNE TRAIL, , ,SITE 11 COMP 50 RR 2, , ,GUNN,T0E 1A0
76444500,JERRY'S LIQUOR STORE,(403) 854-4400,(403) 854-4491,109 PALLISER TRAIL, , ,PO BOX 218, , ,HANNA,T0J 1P0
77094400,CANADA GREY MOTOR INN,(403) 854-4471,(403) 854-2787,616 2 AVENUE WEST, , ,PO BOX 1436, , ,HANNA,T0J 1P0
77896200,MAIN STREET LIQUOR & WINE,(403) 854-4440,NOFAX,115 2 AVENUE WEST, , ,115 2 AVENUE WEST, , ,HANNA,T0J 1P0
76807100,LAKEVIEW LIQUOR STORE,(780) 888-2488,(780) 888-2696,2-4802 49 STREET, , ,PO BOX 660, , ,HARDISTY,T0B 1V0
77215800,FLAG CITY LIQUOR STORE,(780) 888-3857,(780) 888-2345,5124 50 STREET, , ,PO BOX 285, , ,HARDISTY,T0B 1V0
77045100,CHEERS & BEER LIQUOR MART,(780) 878-3299,NOFAX,11 MAIN STREET, , ,5220 104A STREET NW, , ,HAY LAKES,T0B 1W0
77731400,HAY LAKES LIQUOR MART,(780) 878-2660,NOFAX,8 MAIN STREET, , ,PO BOX 489, , ,HAY LAKES,T0B 1W0
76695600,BOTTLES GALORE,(403) 725-2100,NOFAX,107 3 STREET, , ,PO BOX 115, , ,HAYS,T0K 1B0
76362900,HIGH SPIRITS LIQUOR STORE,(780) 926-4455,(780) 926-4457,9808 RAINBOW BOULEVARD, , ,PO BOX 724, , ,HIGH LEVEL,T0H 1Z0
77286800,CAESAR'S LIQUOR STORE,(780) 926-2510,(780) 926-2515,9902 100 AVENUE, , ,PO BOX 1198, , ,HIGH LEVEL,T0H 1Z0
75755000,HIGH PRAIRIE LIQUOR STORE,(780) 523-3436,(780) 523-5899,4900 53 STREET, , ,PO BOX 1737, , ,HIGH PRAIRIE,T0G 1E0
77142000,LIQUOR DEPOT AT HIGH PRAIRIE,(780) 523-9830,(780) 523-9832,4700 53 AVENUE, , ,101-17220 STONY PLAIN ROAD, , ,HIGH PRAIRIE,T0G 1E0
76722300,B SQUARED LIQUOR,(403) 601-1755,(403) 652-5916,625B 5 STREET SE, , ,625B 5 STREET SE, , ,HIGH RIVER,T1V 1H9
77185800,CO-OP WINE SPIRITS BEER - MONTROSE,(403) 652-2167,(403) 652-7793,300-1220 1 STREET SE, , ,110-151 86 AVENUE SE, , ,HIGH RIVER,T0L 0A0
77422200,11 STAR LIQUOR,(403) 652-1019,(403) 440-9873,A-109 CENTRE STREET SE, , ,BOX 5924, , ,HIGH RIVER,T1V 1M5
77426000,HIGH RIVER LIQUOR STORE,(403) 652-2004,(403) 652-2004,509A CENTRE STREET SW, , ,509A CENTRE STREET SW, , ,HIGH RIVER,T1V 2C2
77426100,EASTSIDE LIQUOR STORE,(403) 652-3635,(403) 652-3635,1203 16 STREET SE, , ,1203 16 STREET SE, , ,HIGH RIVER,T1V 2B1
77627000,OLYMPIA LIQUOR HIGH RIVER,-,NOFAX,200 HIGH COUNTRY DRIVE NW, , ,20-6624 CENTRE STREET SE, , ,HIGH RIVER,T1V 0J4
77762000,STAR LIQUOR & WINE BOUTIQUE,(403) 649-0032,NOFAX,100-1212 5 STREET SE, , ,106-2323 32 AVENUE NE, , ,HIGH RIVER,T1V 0J2
77787200,LIQUORAMA LTD.,(403) 605-4894,NOFAX,1-1103 18 STREET SE, , ,1-1103 18 STREET SE, , ,HIGH RIVER,T1V 1M5
78006900,777 LIQUOR & WINE,(403) 652-1955,NOFAX,7-104 3 AVENUE SE, , ,38 SADDLELAKE VIEW NE, , ,HIGH RIVER,T1V 1G3
77219000,GOOD TIMES LIQUOR STORE,(780) 494-2288,18884140104,1020 1 AVENUE, , ,PO BOX 531, , ,HINES CREEK,T0H 2A0
75464500,TIMBERLAND HOTEL,(780) 865-2231,(780) 865-6190,114 PARK STREET, , ,114 PARK STREET, , ,HINTON,T7V 2B1
76694700,PARK WEST LIQUOR TOWN,(780) 865-1900,(780) 489-9806,400-900 CARMICHAEL LANE, , ,125-625 PARSONS ROAD SW, , ,HINTON,T7V 1Y6
76824900,IMPERIAL LIQUOR,(780) 865-3633,(780) 865-5434,105 ATHABASCA AVENUE, , ,105 ATHABASCA AVENUE, , ,HINTON,T7V 2A4
76876300,HINTON LIQUOR STORE,(780) 865-2616,(780) 865-5517,125 JASPER STREET, , ,125 JASPER STREET, , ,HINTON,T7V 2A8
76965500,WILD ORCHID LIQUOR COMPANY,(780) 865-3228,(780) 865-9722,100-1336 SWITZER DRIVE, , ,PO BOX 6266, , ,HINTON,T7V 2C1
77553400,RANCHER'S SPIRITS,(780) 817-2356,NOFAX,102-438 SMITH STREET, , ,102 - 438 SMITH STREET, , ,HINTON,T7V 2A1
78024200,VALLEY LIQUOR,(780) 933-7331,NOFAX,114 ATHABASCA AVENUE, , ,PO BOX 1918, , ,HINTON,T7V 2A5
78049900,SOLO LIQUOR AT HINTON,(780) 917-4180,NOFAX,632 CARMICHAEL LANE, , ,101-17220 STONY PLAIN ROAD, , ,HINTON,T7V 1S8
77105700,HOLDEN LIQUOR STORE,(780) 688-3779,(780) 688-2100,5003 50 STREET, , ,PO BOX 190, , ,HOLDEN,T0B 2C0
78019900,HOLDEN HOTEL LIQUOR STORE,(780) 782-8055,NOFAX,4820 50 STREET, , ,PO BOX 85, , ,HOLDEN,T0B 2C0
77071400,JD'S LIQUOR & COLD BEER,(780) 856-2704,(780) 856-2124,4 MCKENZIE AVENUE, , ,PO BOX 260, , ,HUGHENDEN,T0B 2E0
77016300,HYTHE LIQUOR STORE,(780) 356-3767,(780) 356-3420,10212 100 AVENUE, , ,PO BOX 694, , ,HYTHE,T0H 2C0
76366700,BOB'S LIQUOR SHOPPE,(403) 227-5810,(403) 227-3680,6-4303 50 STREET, , ,6-4303 50 STREET, , ,INNISFAIL,T4G 1B6
77424200,INNISFAIL LIQUOR STORE,(403) 309-8913,NOFAX,4919 47 AVENUE, , ,6201 46 AVENUE, , ,INNISFAIL,T4G 1N8
77533700,WILD TIM'S LIQUOR STORE,(403) 227-4480,(403) 227-4475,4919 50 STREET, , ,70 SIERRA MORENA CLOSE SW, , ,INNISFAIL,T4G 1W4
77612600,INNISFAIL HOTEL,(403) 227-6200,NOFAX,5120 49 STREET, , ,5120 49 STREET, , ,INNISFAIL,T4G 1L9
77951800,PLATINA LIQUOR,(403) 891-6016,NOFAX,4507 50 STREET, , ,4507 50 STREET, , ,INNISFAIL,T4G 1P2
78000100,ACE LIQUOR DISCOUNTER AT INNISFAIL,(780) 917-4180,NOFAX,4800 50 STREET, , ,101-17220 STONY PLAIN ROAD, , ,INNISFAIL,T4G 1R1
77345700,CACTUS JUICE,(780) 754-3025,NOFAX,4913 50 AVENUE, , ,4913 50 AVENUE, , ,IRMA,T0B 2H0
77533900,IRMA LIQUOR,(780) 278-0400,NOFAX,4911 49 STREET, , ,PO BOX 463, , ,IRMA,T0B 2H0
77266100,WILD ROSE LIQUOR STORE,(403) 935-4940,(403) 935-4940,1-233 2 STREET, , ,PO BOX 154, , ,IRRICANA,T0M 1B0
74089400,JASPER LIQUOR STORE,(780) 852-5682,(780) 852-4589,606 PATRICIA STREET, , ,PO BOX 1030, , ,JASPER,T0E 1E0
76416900,JASPER PARK LIQUOR & BEVERAGE CO.,(780) 852-5511,(780) 852-5511,630 CONNAUGHT DRIVE, , ,PO BOX 2254, , ,JASPER,T0E 1E0
76468500,AVALANCHE SPIRITS,(780) 852-7000,(780) 852-4450,702 CONNAUGHT DRIVE, , ,PO BOX 1528, , ,JASPER,T0E 1E0
76773200,LIQUOR LODGE,(780) 852-2337,(780) 852-5017,405A PATRICIA STREET, , ,PO BOX 3142, , ,JASPER,T0E 1E0
76930900,JASPER WINE MERCHANTS,(780) 852-9763,(780) 852-3868,608C PATRICIA STREET, , ,PO BOX 247, , ,JASPER,T0E 1E0
77986200,LIQUOR LODGE,(780) 852-8785,NOFAX,306 CONNAUGHT DRIVE, , ,PO BOX 3142, , ,JASPER,T0E 1E0
77883300,CO-OP LIQUOR,(780) 672-3107,NOFAX,5025 50 STREET, , ,4818 51 STREET, , ,KILLAM,T0B 2L0
77161700,KINUSO LIQUOR STORE,(780) 775-3699,(780) 775-3649,225 CENTRE STREET, , ,PO BOX 390, , ,KINUSO,T0G 1K0
76535400,HAWK I'S LIQUOR & COLD BEER,(780) 826-9007,(780) 826-2665,4909 52 AVENUE, , ,PO BOX 6857, , ,LA COREY,T0A 0L1
75603400,LIQUOR STOP - LAC LA BICHE,(780) 623-2777,(780) 623-3399,10225 ALBERTA AVENUE, , ,BOX 248, , ,LAC LA BICHE,T0A 2C0
77006700,GREAT CANADIAN LIQUOR COMPANY,(780) 483-8183,NOFAX,10108 101 AVENUE, , ,11478 149 STREET NW, , ,LAC LA BICHE,T0A 2C0
77016500,LAC LA BICHE WINE AND LIQUOR SPIRITS,(780) 623-2777,NOFAX,INC.,10002 101 AVENUE, ,INC.,PO BOX 248, ,LAC LA BICHE,T0A 2C0
77739600,BEAVERHILL LIQUOR,(780) 972-0769,NOFAX,100-9024 90 AVENUE, , ,PO BOX 1893, , ,LAC LA BICHE,T0A 2C0
76271000,ENGLISH ESTATES LIQUOR STORE,(403) 782-8995,(403) 782-8994,BAY 7-5832 HIGHWAY 2A, , ,BAY 7-5832 HIGHWAY 2A, , ,LACOMBE,T4L 2G5
77478000,L A LIQUOR,(403) 789-4444,NOFAX,4702 HIGHWAY 2A, , ,4702 HIGHWAY 2A, , ,LACOMBE,T4L 1H4
77579000,SOBEYS LIQUOR (LACOMBE),(403) 782-7999,NOFAX,5124 HIGHWAY 2A, , ,1020 64 AVENUE NE, , ,LACOMBE,T4L 1Y8
77584200,HWY 12 LIQUOR STORE,(403) 782-2151,NOFAX,1-4801 63 STREET, , ,28 COUNTRY RIDGE CLOSE, , ,LACOMBE,T4L 1K7
77699700,DOWNTOWN WINE & LIQUOR,(403) 392-8763,NOFAX,109-5001 52 STREET, , ,28 COUNTRY RIDGE CLOSE, , ,LACOMBE,T4L 2A6
78002800,ACE LIQUOR DISCOUNTER AT LACOMBE,(780) 989-7645,NOFAX,5265 45 STREET, , ,101-17220 STONY PLAIN ROAD, , ,LACOMBE,T4L 2A2
75432900,LAKE LOUISE LIQUOR STORE,(403) 522-3955,(403) 522-3911,101 BUILDING C SAMSON MALL, , ,PO BOX 86, , ,LAKE LOUISE,T0L 1E0
76658700,YOGI'S LIQUOR STORE,(780) 895-7618,(780) 895-7681,5609 HWY 15, , ,PO BOX 1011, , ,LAMONT,T0B 2R0
77407100,LAMONT LIQUOR STORE,(780) 895-2331,NOFAX,4808 51 STREET, , ,PO BOX 456, , ,LAMONT,T0B 2R0
77430300,SUNSHINE LIQUOR STORE,(780) 579-2994,(780) 579-2995,5114 50 AVENUE, , ,1939 121 STREET SW, , ,LAMONT,T0B 2R0
75579400,CANEX LIQUOR STORE,(780) 973-7166,(780) 973-5804,BUILDING  299 HIGHWAY 28A,FALAISE AVENUE, ,PO BOX 500, , ,LANCASTER PARK,T0A 2H0
76727300,11 - ELEVEN LIQUOR,(403) 936-8696,(403) 457-5744,3-708 1 CENTER STREET, , ,141 CORAL REEF MANOR NE, , ,LANGDON,T0J 1X0
77249900,4 WAY LIQUOR STORE,(403) 936-8577,(403) 936-8578,1-720 CENTRE STREET N, , ,1-720 CENTRE STREET N, , ,LANGDON,T0J 1X1
77399400,11-ELEVEN LIQUOR,(403) 804-6727,NOFAX,207-97 CENTRE STREET, , ,141 CORAL REEF MANOR NE, , ,LANGDON,T0J 1X2
77669600,LANGDON LIQUOR HOUSE,(403) 936-0477,NOFAX,108-355 CENTRE STREET, , ,108-355 CENTRE STREET, , ,LANGDON,T0J 1X2
76617700,LIQUOR DEPOT AT LEDUC COMMON,(780) 986-6424,(780) 986-6791,5-5310 DISCOVERY WAY, , ,101-17220 STONY PLAIN ROAD, , ,LEDUC,T9E 8L9
76735100,NEW WALDORF HOTEL,(780) 986-3259,(780) 986-3292,4820 50 AVENUE, , ,4820 50 AVENUE, , ,LEDUC,T9E 6X9
76802500,MICO'S LIQUOR STORE,(780) 980-9508,NOFAX,109-5103 50 AVENUE, , ,8211 6 AVENUE SW, , ,LEDUC,T9E 0B9
76943500,LEDUC CO-OP LIQUOR,(780) 980-5139,(780) 980-5141,103 100B DEER VALLEY DRIVE, , ,5403 50 STREET, , ,LEDUC,T9E 0S6
77017700,REAL CANADIAN LIQUOR STORE,(780) 980-2861,(780) 980-2861,3915B 50 STREET, , ,3915B 50 STREET, , ,LEDUC,T9E 6R3
77194100,NISKU LIQUOR STORE,(780) 980-8887,NOFAX,116-8020 SPARROW DRIVE, , ,116-8020 SPARROW DRIVE, , ,LEDUC,T9E 7G3
77352900,SAFEWAY LIQUOR - LEDUC,(780) 986-0050,(780) 986-1449,LEDUC TOWNE SQUARE,6106 50 STREET, ,1020 64 AVENUE NE, , ,LEDUC,T9E 6P2
77395000,MICO'S LIQUOR STORE,(780) 902-7599,NOFAX,3610 ROLLYVIEW ROAD, , ,8211 6 AVENUE SW, , ,LEDUC,T9E 8J3
77444400,CITY CENTRE LIQUOR,(780) 986-6366,NOFAX,38-5201 50 STREET, , ,38-5201 50 STREET, , ,LEDUC,T9E 6T4
77526600,LEDUC CO-OP LIQUOR,(780) 986-3000,NOFAX,5425 50 STREET, , ,5425 50 STREET, , ,LEDUC,T9E 6Z7
77584600,SOBEYS LIQUOR SOUTHFORK,(780) 612-0027,(780) 612-6538,104-102 SOUTFORK DRIVE, , ,1020 64 AVENUE NE, , ,LEDUC,T9E 0E9
77677000,LIQUOR BY MEHBS,(780) 986-1036,NOFAX,B-4409 BLACKGOLD DRIVE, , ,B-4409 BLACKGOLD DRIVE, , ,LEDUC,T9E 4R1
77788600,LEDUC LIQUOR VILLAGE,(780) 554-8943,NOFAX,3-5205 50 AVENUE, , ,72 BIRCHMONT CRESCENT, , ,LEDUC,T9E 6T2
77805300,SUPER VALUE LIQUOR (LEDUC),(780) 298-0204,NOFAX,2-5204 50 STREET, , ,929 WILDWOOD WAY NW, , ,LEDUC,T9E 6Z6
77959400,LIQUOR WAVE,(780) 224-4058,NOFAX,109-4809 43A AVENUE, , ,109-4809 43A AVENUE, , ,LEDUC,T9E 8J6
77985500,MICO'S LIQUOR STORE,(780) 902-7599,NOFAX,4820 50 STREET, , ,8211 6 AVENUE SW, , ,LEDUC,T9E 6W3
77699100,ROLLY VIEW LIQUOR STORE,(780) 807-2424,NOFAX,20-49402 RANGE ROAD 234, , ,20-49402 RANGE ROAD 234, , ,LEDUC COUNTY,T0C 2K0
76335900,LEGAL LIQUOR WAREHOUSE,(780) 961-2515,(780) 961-4075,4732 50 AVENUE, , ,PO BOX 360, , ,LEGAL,T0G 1L0
77769400,ROYAL LIQUOR MART,(780) 394-4034,NOFAX,5007 50 STREET, , ,5007 50 STREET,PO BOX 128, ,LEGAL,T0G 1L0
77691700,LESLIEVILLE LIQUOR,(250) 833-6239,NOFAX,234 1 AVENUE, , ,234 1 AVENUE, , ,LESLIEVILLE,T0M 1H0
60302200,SANDMAN HOTEL,(403) 328-1111,(403) 329-9488,421 MAYOR MAGRATH DRIVE S, , ,421 MAYOR MAGRATH DRIVE S, , ,LETHBRIDGE,T1J 3L8
71811400,ANDREW HILTON WINE & SPIRITS,(403) 320-9464,(403) 320-9157,212 3 AVENUE S, , ,212 3 AVENUE S, , ,LETHBRIDGE,T1J 0G9
74999300,NORTHSIDE LIQUOR STORE,(403) 327-2431,(403) 381-1023,10-1702 23 STREET NORTH, , ,10-1702 23 STREET NORTH, , ,LETHBRIDGE,T1H 5B3
76253700,WINE CAVERN LTD. FINE WINE  SPIRITS &,(403) 320-1133,(403) 394-7636,ALE,1509 3 AVENUE SOUTH, ,ALE,1509 3 AVENUE SOUTH, ,LETHBRIDGE,T1J 0K9
76269900,LIQUOR COMPANY,(403) 328-3008,(403) 328-3082,1-1475 ST EDWARD BOULEVARD N, , ,1-1475 ST EDWARD BOULEVARD N, , ,LETHBRIDGE,T1H 2P9
76360300,CENTRE VILLAGE LIQUOR STORE,(403) 317-7283,(403) 317-7283,221 12 STREET NORTH, , ,221 12 STREET NORTH, , ,LETHBRIDGE,T1H 2G3
76475000,LIQUOR DEPOT AT WEST LETHBRIDGE,(403) 380-3335,(403) 380-3385,6-550 UNIVERSITY DRIVE W, , ,101-17220 STONY PLAIN ROAD, , ,LETHBRIDGE,T1J 4T3
76499600,CANADIAN STAR LIQUOR,(403) 737-3300,NOFAX,1604-1700 MAYOR MAGRATH DRIVE SOUTH, , ,PO BOX 878, , ,LETHBRIDGE,T1K 2R5
76530300,REAL CANADIAN LIQUOR STORE,(403) 331-2540,(403) 331-2539,3529 MAYOR MAGRATH DRIVE SOUTH, , ,3529 MAYOR MAGRATH DRIVE SOUTH, , ,LETHBRIDGE,T1K 8A8
76564800,PETRIS LIQUOR STORE,(403) 329-0655,(403) 320-0876,2018 2 AVENUE N, , ,2018 2 AVENUE NORTH, , ,LETHBRIDGE,T1H 0B9
76812600,DEEP DISCOUNT LIQUOR AT UPLANDS,(403) 320-2939,(403) 320-2946,10-323 BLUEFOX BOULEVARD NORTH, , ,101-17220 STONY PLAIN ROAD, , ,LETHBRIDGE,T1H 6T3
76883800,NEIGHBOUR'S MART LIQUOR STORE,(403) 380-6669,(403) 328-6661,1260 8 AVENUE N, , ,1260 8 AVENUE N, , ,LETHBRIDGE,T1H 4B5
76947100,COSTCO CANADA LIQUOR,(403) 320-6352,(403) 320-6217,3210 MAYOR MAGRATH DRIVE S, , ,3210 MAYOR MAGRATH DRIVE S, , ,LETHBRIDGE,T1K 6Y6
77012800,URBAN CELLARS,(403) 394-7703,NOFAX,15 MICMAC BOULEVARD W, , ,11478 149 STREET NW, , ,LETHBRIDGE,T1K 7R1
77041900,GREAT CANADIAN LIQUOR,(403) 329-6996,NOFAX,124 COLUMBIA BOULEVARD W, , ,11478 149 STREET NW, , ,LETHBRIDGE,T1K 4J4
77129500,WESTGATE LIQUOR,(403) 381-1133,NOFAX,680 COLUMBIA BOULEVARD W, , ,11478 149 STREET NW, , ,LETHBRIDGE,T1K 5J9
77233700,FRIDAY'S LIQUOR,(403) 331-2337,NOFAX,2-247 13 STREET N, , ,2220 22 AVENUE, , ,LETHBRIDGE,T1H 2R6
77293400,SOUTH COUNTRY CO-OP @ CHINOOK LIQUOR,(403) 329-0246,(403) 329-0819,STORE,10-4140 4 AVENUE SOUTH, ,STORE,969 16 STREET SW, ,LETHBRIDGE,T1J 5K6
77293500,SOUTH COUNTRY CO-OP @ WESTGATE LIQUOR,(403) 331-3019,(403) 331-2364,STORE,10-330 UNIVERSITY DRIVE WEST, ,STORE,969 16 STREET SW, ,LETHBRIDGE,T1J 5C9
77322500,TJ'S LIQUOR,(403) 331-3000,NOFAX,A-404 MAYOR MAGRATH DRIVE NORTH, , ,A-404 MAYOR MAGRATH DRIVE NORTH, , ,LETHBRIDGE,T1H 6H7
77337500,GIL'Z LIQUOR,(587) 220-5290,NOFAX,991 COLUMBIA BOULEVARD W, , ,1210 5 AVENUE SOUTH, , ,LETHBRIDGE,T1K 4M5
77349800,GREAT CANADIAN LIQUOR COMPANY,(403) 329-4344,NOFAX,10-117 SUNRIDGE ROAD W, , ,11478 149 STREET NW, , ,LETHBRIDGE,T1J 5J1
77353000,SAFEWAY LIQUOR - FAIRWAY PLAZA,(403) 380-2614,NOFAX,2605 FAIRWAY PLAZA ROAD SOUTH, , ,1020 64 AVENUE NE, , ,LETHBRIDGE,T1K 6Z2
77553800,LIQUOR DEPOT AT MARKET CROSSINGS,(403) 320-5838,NOFAX,2 AQUITANIA BOULEVARD WEST, , ,101-17220 STONY PLAIN ROAD, , ,LETHBRIDGE,T1J 5L4
77627400,OLYMPIA LIQUOR LETHBRIDGE,-,NOFAX,B216-905 1 AVENUE SOUTH, , ,20-6624 CENTRE STREET SE, , ,LETHBRIDGE,T1J 4M7
77646400,HI LIQUOR STORE,(403) 329-1117,NOFAX,1205 MAYOR MAGRATH DRIVE SOUTH, , ,1205 MAYOR MAGRATH DRIVE SOUTH, , ,LETHBRIDGE,T1K 2R1
77674500,SOLO LIQUOR STORE (SOUTHVIEW),(403) 942-7656,NOFAX,1608 MAYOR MAGRATH DRIVE S, , ,1100-634 6 AVENUE SW, , ,LETHBRIDGE,T1K 2R5
77674600,DISTILLED LIQUOR CO.,(403) 381-4477,NOFAX,9-1240 2A AVENUE NORTH, , ,300-515 7 STREET S, , ,LETHBRIDGE,T1H 0E4
77689000,SOUTH COUNTRY CO-OP @ LETHBRIDGE SOUTH,(403) 380-6666,(403) 380-6658,1-1515 MAYOR MAGRATH DRIVE SOUTH, , ,969 16 STREET SW, , ,LETHBRIDGE,T1K 2R4
77692000,L.A. LIQUOR STORE,(403) 381-7998,NOFAX,1102 3 AVENUE SOUTH, , ,1102 3 AVENUE SOUTH, , ,LETHBRIDGE,T1J 0J6
77740400,LETHBRIDGE LIQUOR,(403) 329-4777,NOFAX,530 5 STREET SOUTH, , ,530 5 STREET SOUTH, , ,LETHBRIDGE,T1J 2B8
77749600,ORIENT LIQUOR,(403) 942-6111,NOFAX,511 6 AVENUE SOUTH, , ,15032 97 AVENUE, , ,LETHBRIDGE,T1J 4N6
77782400,GLOSAV WINE DYNASTY,(403) 879-3009,NOFAX,736 13 STREET NORTH, , ,736 13 STREET NORTH, , ,LETHBRIDGE,T1H 2T1
77882200,WESTMINSTER LIQUOR STORE,(403) 329-9326,NOFAX,13-425 13 STREET NORTH, , ,PO BOX 7860, , ,LETHBRIDGE,T1H 2S3
77882300,NORBRIDGE LIQUOR STORE,(403) 380-3778,NOFAX,734 23 STREET NORTH, , ,PO BOX 7860, , ,LETHBRIDGE,T1H 3S7
77933500,LIQUOR CONNECTION,(403) 381-1528,NOFAX,1520 9 AVENUE SOUTH, , ,1520 9 AVENUE SOUTH, , ,LETHBRIDGE,T1J 1V8
77958000,WINE & BEYOND AT LETHBRIDGE,(780) 989-7601,NOFAX,3160 FAIRWAY STREET SOUTH, , ,101-17220 STONY PLAIN ROAD, , ,LETHBRIDGE,T1K 6T9
78003100,ACE LIQUOR DISCOUNTER AT LETHBRIDGE,(403) 359-7313,NOFAX,20-2607 SCENIC DRIVE NORTH, , ,101-17220 STONY PLAIN ROAD, , ,LETHBRIDGE,T1H 7G3
77672900,LINDEN LIQUOR STORE,(403) 828-0090,NOFAX,117 CENTRAL AVENUE, , ,PO BOX 30, , ,LINDEN,T0M 1J0
74711500,TAIT'S COLD BEER & LIQUOR MART,(780) 875-1071,(780) 875-0517,5528 50 AVENUE, , ,5528 50 AVENUE, , ,LLOYDMINSTER,T9V 0X3
76050900,CORNERSTONE LIQUOR STORE,(780) 875-1194,(780) 875-1197,4209 70 AVENUE, , ,4209 70 AVENUE, , ,LLOYDMINSTER,T9V 2X2
76328700,SOBEYS LIQUOR (LLOYDMINSTER),-,NOFAX,CORNERSTONE SHOPPING CENTRE,7415 44 STREET, ,1020 64 AVENUE NE, , ,LLOYDMINSTER,T9V 2X1
76799800,REAL CANADIAN LIQUOR STORE,(780) 871-8004,(780) 871-8009,5031 44 STREET, , ,5031 44 STREET, , ,LLOYDMINSTER,T9V 0A6
77162000,18TH STREET LIQUOR JUNXN!,(780) 874-1166,NOFAX,102-5006 18 STREET, , ,102-5006 18 STREET, , ,LLOYDMINSTER,T9V 1V4
77205200,CORK N' CAP LIQUOR STORE,(780) 875-2337,(780) 875-2437,4151 70 AVENUE, , ,4015 74 AVENUE, , ,LLOYDMINSTER,T9V 3L9
77279100,14TH STREET LIQUOR JUNXN!,(780) 875-0448,NOFAX,103-1404 50 AVENUE, , ,102-5006 18 STREET, , ,LLOYDMINSTER,T9V 0Y1
77319200,SOUTHRIDGE MALL LIQUOR STORE,(780) 875-4079,(780) 875-2565,17-3708 50 AVENUE, , ,17-3708 50 AVENUE, , ,LLOYDMINSTER,T9V 0V7
77344200,SOBEYS LIQUOR (LLOYDMINSTER 36 ST.),(780) 871-0567,NOFAX,LLOYDMINSTER 36 ST.,3601A 51 AVENUE, ,1020 64 AVENUE NE, , ,LLOYDMINSTER,T9V 2C3
77370300,ON THE ROCKS LIQUOR STORE,(780) 875-5399,NOFAX,2-5601 31 STREET, , ,2-5601 31 STREET, , ,LLOYDMINSTER,T9V 2H3
77679700,PLAZA 44 LIQUOR STORE,(780) 875-0028,NOFAX,126-4402 52 AVENUE, , ,126-4402 52 AVENUE, , ,LLOYDMINSTER,T9V 0Y9
78000900,ACE LIQUOR DISCOUNTER AT LLOYDMINSTER,(780) 917-4180,NOFAX,210-5211 44 STREET, , ,101-17220 STONY PLAIN ROAD, , ,LLOYDMINSTER,T9V 0A7
78003000,ACE LIQUOR DISCOUNTER AT LLOYDMINSTER,(780) 875-5944,NOFAX,5911 44 STREET, , ,101-17220 STONY PLAIN ROAD, , ,LLOYDMINSTER,T9V 1V6
78049200,SOLO LIQUOR AT LLOYDMINSTER,(780) 917-4180,NOFAX,103-7703 44 STREET, , ,101-17220 STONY PLAIN ROAD, , ,LLOYDMINSTER,T9V 0X9
77693700,LONGVIEW COLD BEER STORE,(403) 558-9463,NOFAX,146 WEST VIEW PLACE, , ,PO BOX 178, , ,LONGVIEW,T0L 1H0
77276700,TIPPY'S LIQUOR STORE 2013,(780) 386-3739,(780) 386-3739,5003 50 STREET, , ,PO BOX 238, , ,LOUGHEED,T0B 2V0
78011900,LIBATIONS AT LYALTA,(403) 200-4939,NOFAX,3 MUIRFIELD BOULEVARD, , ,3 MUIRFIELD BOULEVARD, , ,LYALTA,T0J 1Y1
77703900,BIN 905 WINES  SPIRITS & CRAFT ALES,(403) 219-2705,NOFAX,(MARKET STORE  M.D. OF FOOTHILLS),226034 112 STREET WEST, ,(MARKET STORE  M.D. OF FOOTHILLS),2311 4 STREET SW, ,M.D. OF FOOTHILLS NO. 31,T0L 0X0
75238000,GRIMM'S LIQUOR MART,(780) 836-3414,(780) 836-2205,North S # 4 9223 West South, , ,PO BOX 630, , ,M.D. OF NORTHERN LIGHTS NO. 22 (MANNING DISTRICT),T0H 2M0
77569900,MALLAIG LIQUOR STORE,(780) 635-2479,NOFAX,3608 MAIN STREET, , ,PO BOX 134, , ,MALLAIG,T0A 2K0
77579500,VAULT,(780) 836-3499,NOFAX,310 MAIN STREET, , ,PO BOX 804, , ,MANNING,T0H 2M0
75901800,MANNVILLE & AREA LIQUOR STORE,(780) 763-3966,(780) 763-3966,5004 49 STREET, , ,PO BOX 154, , ,MANNVILLE,T0B 2W0
77048700,MARWAYNE LIQUOR STORE,(780) 847-4636,(780) 847-4636,27 RAILWAY AVENUE N, , ,PO BOX 165, , ,MARWAYNE,T0B 2X0
76487700,MAYERTHORPE LIQUOR STORE,(780) 786-2484,(780) 786-2484,5013 50 STREET, , ,PO BOX 568, , ,MAYERTHORPE,T0E 1N0
76911400,CORKE'S AND CAPS,(780) 786-0101,NOFAX,5005 45 AVENUE, , ,PO BOX 988, , ,MAYERTHORPE,T0E 1N0
77409600,MCLENNAN LIQUOR STORE,(780) 324-3022,(780) 324-3124,114 CENTRE STREET, , ,PO BOX 355, , ,MCLENNAN,T0H 2L0
62668400,ROYAL HOTEL,(403) 527-2242,(403) 580-4199,126 SOUTH RAILWAY STREET SE, , ,126 SOUTH RAILWAY STREET SE, , ,MEDICINE HAT,T1A 2V1
71466300,PARK LANE MOTOR HOTEL,(403) 527-2231,(403) 526-5070,780 7 STREET SW, , ,780 7 STREET SW, , ,MEDICINE HAT,T1A 4L2
75642200,REAL CANADIAN LIQUOR STORE,(403) 528-5750,(403) 528-5752,1792 TRANS CANADA WAY SE, , ,1792 TRANS CANADA WAY SE, , ,MEDICINE HAT,T1B 4C6
75933400,SOUTHWEST LIQUOR STORE,(403) 504-5011,(888) 705-7429,418 7 STREET SW, , ,418 7 STREET SW, , ,MEDICINE HAT,T1A 4K5
75957500,HOPS & SCOTCH,(403) 526-6933,(403) 526-6772,F303 SOUTHRIDGE DRIVE SE, , ,PO BOX 304 LCD 1, , ,MEDICINE HAT,T1B 3S1
76660200,MAPLE AVENUE LIQUOR BARN,(403) 526-2360,(403) 529-2957,760 3 STREET SE, , ,101-17220 STONY PLAIN ROAD, , ,MEDICINE HAT,T1A 0H7
76679900,TRACKSIDE LIQUOR STORE,(403) 580-8082,(403) 580-4723,1031 SOUTH RAILWAY STREET SE, , ,1031 SOUTH RAILWAY STREET SE, , ,MEDICINE HAT,T1A 2W4
76764800,NORTHLANDS LIQUOR STORE,(403) 580-5264,(403) 526-3181,20 NORTHLANDS WAY NE, , ,969 16 STREET SW, , ,MEDICINE HAT,T1C 1Z2
76771100,COSTCO CANADA LIQUOR,(403) 580-2162,(403) 581-5733,2352 BOX SPRINGS BOULEVARD NW, , ,2352 BOX SPRINGS BOULEVARD NW, , ,MEDICINE HAT,T1C 0C8
76922300,SOUTHRIDGE LIQUOR STORE,(403) 526-5766,NOFAX,104-1276 STRACHAN ROAD SE, , ,104-1276 STRACHAN ROAD SE, , ,MEDICINE HAT,T1B 4R2
77084200,SOBEYS LIQUOR (CORNERSTONE),(403) 526-2687,NOFAX,CORNERSTONE,6-1940 STRACHAN ROAD SE, ,1020 64 AVENUE NE, , ,MEDICINE HAT,T1B 4K4
77135400,CROSSROADS LIQUOR STORE,(403) 487-5540,(888) 705-7429,958 16 STREET SW, , ,418 7 STREET SW, , ,MEDICINE HAT,T1A 8A4
77172900,EVEREST WINE & SPIRITS,(403) 526-2121,(403) 526-2121,3001 DUNMORE ROAD SE, , ,3001 DUNMORE ROAD SE, , ,MEDICINE HAT,T1B 2H2
77174000,13TH AVENUE LIQUOR STORE,(403) 528-6990,(403) 526-6949,102-1234 SOUTHVIEW DRIVE SE, , ,969 16 STREET SW, , ,MEDICINE HAT,T1B 4B6
77181900,20TH STREET COLD BEER & LIQUOR STORE,(403) 528-4840,NOFAX,6-717 20 STREET NE, , ,6-717 20 STREET NE, , ,MEDICINE HAT,T1C 1P3
77347400,ABERDEEN SPIRITS,(587) 289-0503,(888) 705-7429,399 ABERDEEN STREET SE, , ,399 ABERDEEN STREET SE, , ,MEDICINE HAT,T1A 0R3
77504200,ACE LIQUOR,(403) 525-0888,NOFAX,BUILDING F-2340 DIVISION AVENUE NW, , ,52-53217 RANGE ROAD 263, , ,MEDICINE HAT,T1A 0C3
77558600,LIQUOR VILLA,(403) 487-5588,(403) 487-5589,123 CARRY DRIVE SE, , ,123 CARRY DRIVE SE, , ,MEDICINE HAT,T1B 3M6
77592700,BOB'S LIQUOR BEER & WINE STORE,(403) 957-2278,NOFAX,780 8 STREET SW, , ,773 8 STREET SW, , ,MEDICINE HAT,T1A 4M6
77595100,LIQUOR DEPOT AT ROSS GLEN,(403) 529-1116,NOFAX,1-181 CARRY DRIVE SE, , ,101-17220 STONY PLAIN ROAD, , ,MEDICINE HAT,T1B 3T2
77621900,HAT LIQUOR LTD.,(403) 581-6496,NOFAX,102-73 7 STREET SE, , ,102-73 7 STREET SE, , ,MEDICINE HAT,T1A 1J2
77643000,HEIGHTS LIQUOR,(403) 354-0979,NOFAX,18 8 STREET NW, , ,18 8 STREET NW, , ,MEDICINE HAT,T1A 6P1
77804300,SOUTH COUNTRY CO-OP LIMITED @ STRACHAN,(403) 580-5105,NOFAX,ROAD,1-1789 STRACHAN ROAD SE, ,ROAD,969 16 STREET SW, ,MEDICINE HAT,T1B 4V7
77847900,CORONA LIQUOR STORE,(403) 526-2893,NOFAX,502 MAPLE AVENUE SE, , ,721 5 STREET SE, , ,MEDICINE HAT,T1A 0N5
77877200,GOLD STAR LIQUOR,(403) 548-3202,NOFAX,450 3 STREET SE, , ,454 3 STREET SE, , ,MEDICINE HAT,T1A 0C1
77996400,ACE LIQUOR DISCOUNTER AT ROSS GLEN,(403) 526-1116,NOFAX,1-181 CARRY DRIVE SE, , ,101-17220 STONY PLAIN ROAD, , ,MEDICINE HAT,T1B 3T2
77997900,ACE LIQUOR DISCOUNTER AT DUNMORE,(403) 526-2727,NOFAX,1797 DUNMORE ROAD SE, , ,101-17220 STONY PLAIN ROAD NW, , ,MEDICINE HAT,T1A 1Z8
78001100,ACE LIQUOR DISCOUNTER AT MAPLE AVENUE,(403) 526-2360,NOFAX,760 3 STREET SE, , ,101-17220 STONY PLAIN ROAD, , ,MEDICINE HAT,T1A 0H7
78001200,ACE LIQUOR AT STRACHAN ROAD,(403) 487-1176,NOFAX,105-1820 STRACHAN ROAD SE, , ,101-17220 STONY PLAIN ROAD NW, , ,MEDICINE HAT,T1B 4J8
78002700,ACE LIQUOR AT NORTHPOINTE CROSSING,(403) 525-0888,NOFAX,BUILDING F-2340 DIVISION AVENUE NW, , ,101-17220 STONY PLAIN ROAD NW, , ,MEDICINE HAT,T1A 0C3
78012000,THIRSTY'S COLD BEER & SPIRITS,(403) 878-3886,NOFAX,568A RUTHERFORD STREET NW, , ,568A RUTHERFORD STREET NW, , ,MEDICINE HAT,T1A 7E2
76520900,J-T WINE & SPIRITS LTD.,(403) 647-2875,(403) 647-2876,120 CENTRE AVENUE, , ,PO BOX 83, , ,MILK RIVER,T0K 1M0
76862000,MILLET LIQUOR STORE 'N' MORE,(780) 387-2222,(780) 387-2242,5018 50 STREET, , ,PO BOX 940, , ,MILLET,T0C 1Z0
77635600,BUY THE WAY LIQUOR STORE,(780) 288-9127,NOFAX,4402 50 STREET, , ,7363 SINGER WAY NW, , ,MILLET,T0C 1Z0
77753200,REGAL WINE & SPIRITS,-,NOFAX,4208 50 STREET, , ,218-4208 50 STREET, , ,MILLET,T0C 1Z0
76605900,RAILWAY LIQUOR STORE,(403) 788-2200,(403) 788-3256,5207 50 AVENUE, , ,PO BOX 256, , ,MIRROR,T0B 3C0
76536000,SPIRITS IN MORINVILLE,(780) 939-6550,(780) 939-6333,11-8807 100 STREET, , ,413 SIOUX ROAD, , ,MORINVILLE,T8R 1K6
76871500,GREAT CANADIAN LIQUOR,(780) 939-4203,NOFAX,9513 100 STREET, , ,11478 149 STREET NW, , ,MORINVILLE,T8R 1R2
76871700,GREAT CANADIAN LIQUOR,(780) 939-4743,(780) 939-6316,10012 103 STREET, , ,11478 149 STREET NW, , ,MORINVILLE,T8R 1R7
77082200,LEGENDARY LIQUOR,(780) 939-6016,(780) 939-6962,10607 100 AVENUE, , ,10607 100 AVENUE, , ,MORINVILLE,T8R 1A2
77153300,LIQUOR PLANET,(780) 939-2380,NOFAX,9925 100 STREET, , ,PO BOX 3083,9925 100 STREET, ,MORINVILLE,T8R 1G2
77855700,LEGENDARY LIQUOR,(780) 939-6016,NOFAX,2-9156 100 STREET, , ,2-9156 100 STREET, , ,MORINVILLE,T8R 2P8
77101200,BAYVIEW LIQUOR LOCKER,(780) 389-3784,(780) 389-4097,5602 49 STREET, , ,PO BOX 77, , ,MULHURST BAY,T0C 2C0
76964000,MUNDARE LIQUOR STORE,(780) 764-3804,NOFAX,5203 50 STREET, , ,4936 191 STREET NW, , ,MUNDARE,T0B 3H0
77919900,LIQUOR CHOICE,(780) 716-3533,NOFAX,5028 50 STREET, , ,PO BOX 417, , ,MUNDARE,T0B 3H0
74725600,A & B LIQUOR STORE,(403) 562-2664,(403) 562-2668,10505B 20 AVENUE, , ,PO BOX 1448, , ,MUNICIPALITY OF CROWSNEST PASS,T0K 0E0
75863600,FRANKSLIDE LIQUOR,(403) 562-8043,(403) 562-8060,14809 20 AVENUE, , ,PO BOX 284, , ,MUNICIPALITY OF CROWSNEST PASS,T0K 0E0
77622200,BLAIRMORE LIQUOR STORE,(403) 562-8598,NOFAX,12302 20 AVENUE, , ,140 PATTERSON DRIVE SW, , ,MUNICIPALITY OF CROWSNEST PASS,T0K 0E0
77726300,CROWSNEST PASS LIQUOR STORE LTD.,(403) 562-7002,(403) 562-7169,8342 20 AVENUE, , ,PO BOX 41, , ,MUNICIPALITY OF CROWSNEST PASS,T0K 0M0
77018000,O'PUR LIQUOR STOPPE,(780) 322-3766,NOFAX,9709 100 STREET, , ,PO BOX 329, , ,NAMPA,T0H 2R0
76374700,NANTON LIQUOR STORE,(403) 646-3006,(403) 646-2582,2119 19 STREET, , ,PO BOX 1223, , ,NANTON,T0L 1R0
77810200,PALACE LIQUOR STORE,(403) 646-6236,NOFAX,A-2810 21 AVENUE, , ,PO BOX 1770, , ,NANTON,T0L 1R0
78038700,NORTH END LIQUOR,(403) 422-0535,NOFAX,1210 26 AVENUE, , ,PO BOX 1083, , ,NANTON,T0L 1R0
76470300,SMALL TOWN SPIRITS,(780) 941-2242,(780) 941-2419,5016 CENTRE AVENUE, , ,PO BOX 35, , ,NEW SAREPTA,T0B 3M0
76768600,ECONO LIQUOR STORE,(780) 955-8644,(780) 955-5536,405 11 AVENUE, , ,405 11 AVENUE, , ,NISKU,T9E 7N2
77156200,ECONO LIQUOR (#4),(780) 890-7200,(780) 890-7202,411 AIRPORT ROAD, , ,405 11 AVENUE NE, , ,NISKU,T9E 0V5
77321400,LIQUOR DEPOT AT NISKU,-,NOFAX,205 19 AVENUE, , ,101-17220 STONY PLAIN ROAD, , ,NISKU,T9E 0W8
77922700,REGAL WINE & SPIRITS,(587) 778-3483,NOFAX,304 20 AVENUE, , ,2508 118 STREET NW, , ,NISKU,T9E 7Z9
76899100,NITON LIQUOR STORE,(780) 919-7165,NOFAX,4926 50 AVENUE, , ,PO BOX 134, , ,NITON JUNCTION,T0E 1S0
77029400,NOBLEFORD LIQUOR STORE,(403) 824-3372,NOFAX,110 KING STREET, , ,PO BOX 89, , ,NOBLEFORD,T0L 1S0
77505400,BEER CABIN,(403) 895-3455,NOFAX,8 STEWART STREET, , ,PO BOX 8, , ,NORDEGG,T0M 2H0
78019500,NORDEGG LIQUOR STORE,(403) 429-0032,NOFAX,615 COAL MINORS CR, , ,PO BOX 83, , ,NORDEGG,T0M 2H0
75117800,ROYAL CANADA LIQUOR STORE (OKOTOKS),(403) 938-4100,(403) 938-5398,150 WOODGATE ROAD, , ,150 WOODGATE ROAD, , ,OKOTOKS,T1S 1L2
76328800,SOBEYS LIQUOR (OKOTOKS),(403) 995-7724,(403) 995-7021,CORNERSTONE SHOPPING CENTRE,705-201 SOUTHRIDGE DRIVE, ,1020 64 AVENUE NE, , ,OKOTOKS,T1S 2E1
76447800,OKOTOKS LIQUOR STORE,(403) 938-3431,(403) 938-3431,TOWN SQUARE SHOPPING CENTRE,3-49 ELIZABETH STREET BOX 1231, ,TOWN SQUARE SHOPPING CENTRE,3-49 ELIZABETH STREET BOX 1231 STN MAIN, ,OKOTOKS,T1S 1B3
76575600,STAR LIQUOR & WINE BOUTIQUE,(403) 938-1324,(403) 726-1350,187-31 SOUTHRIDGE DRIVE, , ,106-2323 32 AVENUE NE, , ,OKOTOKS,T1S 2N5
76703100,B.K. LIQUOR STORE #9,(403) 995-1995,(403) 995-1996,10-34 SOUTHRIDGE DRIVE, , ,10-34 SOUTHRIDGE DRIVE, , ,OKOTOKS,T1S 2G5
76820600,ECONO LIQUOR NO. 2,(403) 995-0650,NOFAX,113-235 MILLIGAN DRIVE, , ,113-235 MILLIGAN DRIVE, , ,OKOTOKS,T1S 0B8
76965700,MACO LIQUOR STORE,(403) 995-1330,(403) 995-1359,255-200 SOUTHRIDGE DRIVE, , ,155 PANATELLA CLOSE NW, , ,OKOTOKS,T1S 0B2
77004000,CO-OP WINE SPIRITS BEER - CENTENNIAL,(403) 995-4581,(403) 938-1992,1-420 BIG ROCK LANE, , ,110-151 86 AVENUE SE, , ,OKOTOKS,T0L 1T5
77013800,COSTCO CANADA LIQUOR,(403) 938-6092,(403) 938-6125,202-104 SOUTHBANK BOULEVARD, , ,202-104 SOUTHBANK BOULEVARD, , ,OKOTOKS,T1S 0K4
77119700,TOWERHILL WINES,(403) 938-3370,(403) 938-9970,4-100 MILLIGAN DRIVE, , ,95 WOODPARK CIRCLE SW, , ,OKOTOKS,T1S 1C5
77310100,RITZY LIQUOR,(587) 364-1112,NOFAX,3-50 ELIZABETH STREET, , ,71 SPRINGBOROUGH GREEN SW, , ,OKOTOKS,T1S 1B1
77475900,VILLAGE LIQUOR STORE,(403) 473-1249,NOFAX,4-500 VILLAGE LANE, , ,284 BRIDLEWOOD AVENUE SW, , ,OKOTOKS,T1S 1Z6
77769100,WESTERN LIQUOR,(403) 605-0509,NOFAX,160-100 STOCKTON AVENUE, , ,243 WHISPERING WATER WAY, , ,OKOTOKS,T1S 1A7
77877600,ECONO LIQUOR,(403) 829-6001,NOFAX,149-71 RIVERSIDE DRIVE WEST, , ,11 CIMARRON VISTA CIRCLE, , ,OKOTOKS,T1S 1M3
78049300,SOLO LIQUOR AT OKOTOKS,(587) 757-0318,NOFAX,118-100 SOUTHBANK BOULEVARD, , ,101-17220 STONY PLAIN ROAD, , ,OKOTOKS,T1S 0L3
74817100,OLDS LIQUOR & BEER NO. 1,(403) 556-6661,(403) 556-6322,5107 50 AVENUE, , ,PO BOX 4055 STN MAIN, , ,OLDS,T4H 1P7
76319000,OLDS LIQUOR STORE,(403) 556-7366,(403) 556-7839,10-5221 46 STREET, , ,10-5221 46 STREET, , ,OLDS,T4H 1T5
76449900,REAL CANADIAN LIQUOR STORE,(403) 507-8020,(403) 507-8024,200-6509 46 STREET, , ,200-6509 46 STREET, , ,OLDS,T4H 1Y6
77113800,ROCKY MOUNTAIN LIQUOR,(403) 791-2222,(403) 791-3333,2-4530 49 AVENUE, , ,2-4530 49 AVENUE, , ,OLDS,T4H 1A4
77695100,MY LIQUOR STATION,(403) 556-1366,NOFAX,5629 46 STREET, , ,150 CORAL KEYS DRIVE, , ,OLDS,T4H 1J4
77925900,BOOZE BROS LIQUOR MART,(403) 556-7761,(403) 556-7702,11-4513 52 AVENUE, , ,11-4513 52 AVENUE, , ,OLDS,T4H 1M8
77996000,ACE LIQUOR DISCOUNTER AT OLDS,(403) 556-9081,NOFAX,890-6700 46 STREET, , ,101-17220 STONY PLAIN ROAD, , ,OLDS,T4H 0A2
77981800,ONOWAY LIQUOR STORE,(780) 622-7922,NOFAX,5132 LAC STE ANNE TRAIL SOUTH, , ,5132 LAC STE ANNE TRAIL SOUTH, , ,ONOWAY,T0E 1V0
74197700,OYEN LIQUOR MART,(403) 664-2670,(403) 664-2079,301 MAIN STREET, , ,PO BOX 246, , ,OYEN,T0J 2J0
76654600,KD'S FINE WINE & SPIRITS,(403) 664-3398,(403) 664-3380,106 1 AVENUE E, , ,PO BOX 298, , ,OYEN,T0J 2J0
78025700,BAY ONE LIQUOR,(780) 982-3658,NOFAX,53101B RANGE ROAD 15, , ,110 8020 SPARROW DRIVE, , ,PARKLAND COUNTY,T7Y 2E4
77623500,BAY ONE LIQUOR STORE,(780) 963-2003,NOFAX,HIGHWAY 16A, , ,53101 RANGE ROAD 15, , ,PARKLAND COUNTY (BEACH CORNER),T0E 2G0
78025900,BEACH CORNER LIQUOR,(780) 982-3658,NOFAX,53103 RANGE ROAD 15, , ,110-8020 SPARROW DRIVE, , ,PARKLAND COUNTY (BEACH CORNER),T7Y 2E4
76763700,RIVER'S LIQUOR STORE,(780) 624-8805,(780) 624-8813,8006 99 AVENUE, , ,8006 99 AVENUE, , ,PEACE RIVER,T8S 1R2
76944900,SIPPERS LIQUOR MART,(780) 624-2818,(780) 624-5633,10001 80 STREET, , ,10001 80 STREET, , ,PEACE RIVER,T8S 1R2
77002300,12 FT LIQUOR STORE,(780) 624-2224,NOFAX,9916 100 AVENUE, , ,PO BOX 6539, , ,PEACE RIVER,T8S 1S4
77731500,MOONSHINE CREEK,(780) 693-0000,NOFAX,5013 50 AVENUE, , ,PO BOX 112, , ,PEERS,T0E 1W0
77698700,LIQUOR 7,-,NOFAX,4-9 HAWKRIDGE BOULEVARD, , ,17 VIENNA CLOSE, , ,PENHOLD,T0M 1R0
77722600,PENHOLD LIQUOR STORE,(403) 886-5289,NOFAX,1233 EDMONTON TRAIL, , ,1233 EDMONTON TRAIL, , ,PENHOLD,T0M 1R0
74670700,NORTH COUNTY LIQUOR STORE,(403) 732-4225,(403) 732-5554,304 JAMIESON AVENUE, , ,PO BOX 1223, , ,PICTURE BUTTE,T0K 1V0
77005900,RANCHLAND LIQUOR DEN,(403) 627-3211,NOFAX,18-1300 HEWETSON AVENUE, , ,PO BOX 2032, , ,PINCHER CREEK,T0K 1W0
77077400,GREAT CANADIAN LIQUOR,(403) 627-2920,NOFAX,838 MAIN STREET, , ,11478 149 STREET NW, , ,PINCHER CREEK,T0K 1W0
77089500,TOWN & COUNTRY LIQUOR STORE,(403) 627-3040,(403) 627-2230,1027 MAIN STREET, , ,PO BOX 1177, , ,PINCHER CREEK,T0K 1W0
77847600,WATERTON LIQUOR STORE,(403) 627-1667,NOFAX,1058 WATERTON AVENUE, , ,PO BOX 3337, , ,PINCHER CREEK,T0K 1W0
77059700,LEO'S LIQUOR MART,(780) 798-2011,(780) 798-2511,10025 100 STREET, , ,PO BOX 629, , ,PLAMONDON,T0A 2T0
74688600,LIQUOR STORE,(403) 783-8484,(403) 783-8414,4620 54 STREET, , ,4620 54 STREET, , ,PONOKA,T4J 1J4
76127800,HAMMY'S SPIRITS,(403) 783-2333,(403) 783-6813,5-4502 50 STREET, , ,5-4502 50 STREET, , ,PONOKA,T4J 1J5
77537900,PONOKA LIQUOR HOUSE,(780) 993-5653,NOFAX,8-4800 HIGHWAY 2A, , ,9218 34 AVENUE NW, , ,PONOKA,T4J 1K2
77586000,SOBEYS LIQUOR - PONOKA,(403) 790-2402,NOFAX,B-5402 HIGHWAY 2A, , ,1020 64 AVENUE NE, , ,PONOKA,T4J 1L9
77678500,LIQUOR SPHERE,(403) 302-1033,NOFAX,110-670 HIGHWAY 53, , ,212 VAN SLYKE WAY, , ,PONOKA,T4J 1K3
78001000,ACE LIQUOR DISCOUNTER AT PONOKA,(780) 917-4180,NOFAX,4-5015 50 STREET, , ,101-17220 STONY PLAIN ROAD, , ,PONOKA,T4J 1R6
76145400,SIDE TRACK LIQUOR STORE,(780) 753-2911,(780) 753-2917,4909 50 AVENUE, , ,PO BOX 1027, , ,PROVOST,T0B 3S0
76249600,PROVOST LIQUOR STORE,(780) 753-4813,(780) 753-4820,4308 53 AVENUE, , ,PO BOX 1077, , ,PROVOST,T0B 3S0
77571200,FAS LIQUOR STORE,(780) 753-2234,NOFAX,4011 57 AVENUE, , ,PO BOX 1449, , ,PROVOST,T0B 3S0
77329000,RIGS & SWIGS,(780) 926-6526,NOFAX,58A BANFF AVENUE, , ,PO BOX 28,58A AVENUE, ,RAINBOW LAKE,T0H 2Y0
75611000,UPTOWN LIQUOR STORE,(403) 340-2800,(403) 341-6019,10-6791 50 AVENUE, , ,4620 50 AVENUE, , ,RED DEER,T4N 4C9
75642100,REAL CANADIAN LIQUOR STORE,(403) 350-3543,(403) 350-3545,5016 51 AVENUE, , ,5016 51 AVENUE, , ,RED DEER,T4N 4H5
76226100,SOBEYS LIQUOR (GAETZ),(403) 352-8858,(403) 352-8878,5111  22 STREET, , ,1020 64 AVENUE NE, , ,RED DEER,T4R 2K1
76252800,DEER PARK LIQUOR STORE,(403) 342-4040,(403) 309-8976,17-69 DUNLOP STREET, , ,17-69 DUNLOP STREET, , ,RED DEER,T4R 2H6
76346700,SOBEYS LIQUOR (VILLAGE MALL),(403) 348-8885,(403) 348-2126,100-6380  50 AVENUE, , ,1020 64 AVENUE NE, , ,RED DEER,T4N 4C6
76431300,WEST PARK LIQUOR STORE,(403) 343-3305,(403) 347-0788,109-3722 57 AVENUE, , ,109-3722 57 AVENUE, , ,RED DEER,T4N 4R7
76474600,LIQUOR DEPOT AT EASTHILL,(403) 342-4499,(403) 342-0420,490-3020 22 STREET, , ,101-17220 STONY PLAIN ROAD, , ,RED DEER,T4R 3J5
76474800,LIQUOR DEPOT AT 49TH AVENUE,(403) 347-9466,(403) 342-7252,3119 49 AVENUE, , ,101-17220 STONY PLAIN ROAD, , ,RED DEER,T4N 3V8
76602000,TAYLOR PLAZA LIQUOR,(403) 356-1935,(403) 356-1937,545-6730 TAYLOR DRIVE, , ,6201 46 AVENUE, , ,RED DEER,T4P 1K4
76804400,LIQUOR DEPOT AT EASTVIEW,(403) 340-8988,(403) 340-8913,3809 40 AVENUE, , ,101-17220 STONY PLAIN ROAD, , ,RED DEER,T4N 2W4
76867400,CAMBRIDGE RED DEER HOTEL AND CONFERENCE,(403) 346-2091,(403) 346-4790,CENTRE,3310 50 AVENUE, ,CENTRE,3310 50 AVENUE, ,RED DEER,T4N 3X9
77040800,RED ANGEL LIQUOR STORE,(403) 554-5311,NOFAX,1-7464 50 AVENUE, , ,1-7464 50 AVENUE, , ,RED DEER,T4P 1X7
77242300,YOUR INDEPENDENT LIQUORSTORE,(403) 342-1871,(403) 342-2841,5 CLEARVIEW MARKET WAY, , ,5 CLEARVIEW MARKET WAY, , ,RED DEER,T4P 0M9
77500500,ACE LIQUOR,(403) 986-6820,NOFAX,3-6075 67A STREET, , ,52 - 53217 RR 263, , ,RED DEER,T4P 2Z9
77561600,ONE STOP LIQUOR,(403) 347-8786,NOFAX,5420 43 STREET, , ,1 GROTE CRESCENT, , ,RED DEER,T4N 1C9
77580500,SUPER LIQUOR,(403) 342-0090,NOFAX,6-6721 50 AVENUE, , ,6-6721 50 AVENUE, , ,RED DEER,T4N 4C9
77586800,SOBEYS LIQUOR (PLAZA),(780) 232-5425,NOFAX,12-5010 47 AVENUE, , ,1020 64 AVENUE NE, , ,RED DEER,T4N 3P7
77628000,LIQUOR BOUTIQUE,(403) 348-2012,NOFAX,119-2004 50 AVENUE, , ,2216 20 STREET, , ,RED DEER,T4R 3A2
77632500,MY WAREHOUSE LIQUOR,(403) 348-5422,(403) 348-5450,260-6130 67 STREET, , ,260-6130 67 STREET, , ,RED DEER,T4P 3M1
77635400,TIMBERLANDS LIQUOR STORE,(587) 802-8573,NOFAX,4101 499 TIMBERLANDS DRIVE, , ,6201 46 AVENUE, , ,RED DEER,T4P 0Z3
77636300,BOWER LIQUOR,(403) 392-2977,NOFAX,116-2325 50 AVENUE, , ,116-2325 50 AVENUE, , ,RED DEER,T4R 1L2
77670000,PLENTY OF LIQUOR,(403) 986-5555,NOFAX,140-6802 50 AVENUE, , ,140-6802 50 AVENUE, , ,RED DEER,T4N 4E3
77682100,LIQUOR 7,(403) 392-8501,NOFAX,3235B 50 AVENUE, , ,17 VIENNA CLOSE, , ,RED DEER,T4N 3Y1
77718700,CRAFT BEER NATION,(403) 598-1650,NOFAX,D1-2310 GAETZ AVENUE, , ,D1 2310 GAETZ AVENUE, , ,RED DEER,T4R 0H8
77719000,SUPER LOW LIQUOR,(403) 999-7549,NOFAX,4903 54 STREET, , ,4903 54 STREET, , ,RED DEER,T4N 2G7
77885800,COLD ONES LIQUOR DISCOUNTER,(403) 309-1703,NOFAX,E-5101 76 STREET, , ,1564 KINROSS ROAD NW, , ,RED DEER,T4P 2J4
77951000,RED ANGEL LIQUOR,(403) 436-0307,NOFAX,1-7464 50 AVENUE, , ,1-7464 50 AVENUE, , ,RED DEER,T4P 1X7
77965900,TOTAL WINE AND LIQUOR,(306) 999-0172,NOFAX,1-6858 50 AVENUE, , ,163 WINDSTONE CRESCENT SW, , ,RED DEER,T4N 4E3
78001300,ACE LIQUOR DISCOUNTER AT 49TH AVENUE,(780) 917-4180,NOFAX,3119 49 AVENUE, , ,101-17220 STONY PLAIN ROAD, , ,RED DEER,T4N 3V8
78002200,ACE LIQUOR AT PLAZA 67,(780) 917-4180,NOFAX,103-6075 67A STREET, , ,101-17220 STONY PLAIN ROAD NW, , ,RED DEER,T4P 2Z9
78008500,LIQUOR CROSSING,(403) 483-0821,NOFAX,90C-5250 22 STREET, , ,90C-5250 22 STREET, , ,RED DEER,T4R 2T4
78050000,SOLO LIQUOR AT RED DEER,(780) 989-7645,NOFAX,B-2067 50 AVENUE, , ,101-17220 STONY PLAIN ROAD, , ,RED DEER,T4R 1Z4
76179800,HOLIDAY LIQUOR,(403) 346-4188,NOFAX,23 GASOLINE ALLEY EAST, , ,23 GASOLINE ALLEY EAST, , ,RED DEER COUNTY,T4E 1B3
76488200,LIQUOR HUTCH,(403) 358-3378,(403) 358-3668,102-150 LEVA AVENUE, , ,102-150 LEVA AVENUE, , ,RED DEER COUNTY,T4E 0A5
76947300,COSTCO CANADA LIQUOR,(403) 341-5469,(403) 341-5187,166-37400 HIGHWAY 2, , ,166-LEVA AVENUE, , ,RED DEER COUNTY,T4E 1B9
77057700,GASOLINE ALLEY LIQUOR STORE,(403) 348-5010,(403) 348-5006,148-3740 HIGHWAY 2, , ,148 LEVA AVENUE, , ,RED DEER COUNTY,T4E 1B9
77654300,BURNT LAKE LIQUOR STORE,(403) 304-0329,NOFAX,1-203 28042 HIGHWAY 11, , ,46 LANGFORD CRESCENT, , ,RED DEER COUNTY,T4S 1L4
77060700,LA LIQUOR SHACK,(780) 649-3435,(780) 649-3434,119 HIGHWAY 88 NORTH, , ,PO BOX 170, , ,RED EARTH CREEK,T0G 1X0
77142900,JG'S LIQUOR STORE,(780) 649-2333,(780) 649-2333,MAIN STREET, , ,PO BOX 276, , ,RED EARTH CREEK,T0G 1X0
77566700,SOUTH COUNTRY CO-OP @ REDCLIFF LIQUOR,(403) 548-0044,NOFAX,STORE,2-631 SOUTH RAILWAY DRIVE NE, ,STORE,969 16 STREET SW, ,REDCLIFF,T0J 2P0
77952700,REDCLIFF LIQUOR BARN,(403) 548-2745,NOFAX,320 BROADWAY AVENUE EAST, , ,101-17220 STONY PLAIN ROAD, , ,REDCLIFF,T0J 2P0
77960400,EVEREST WINE & SPIRITS,(403) 502-7052,NOFAX,301 BROADWAY AVENUE EAST, , ,3001 DUNMORE ROAD SE, , ,REDCLIFF,T0J 2P2
76802800,R & M LIQUOR STORE,(780) 942-3622,NOFAX,5040 49 AVENUE, , ,PO BOX 988, , ,REDWATER,T0A 2W0
77576400,LIQUOR STOP 'N SHOP,(780) 942-4080,NOFAX,4915 49 STREET, , ,1564 KINROSS ROAD NW, , ,REDWATER,T0A 2W0
77608100,LIQUOR STATION,(780) 580-3747,NOFAX,4923 49 STREET, , ,PO BOX 118, , ,REDWATER,T0A 2W0
77404800,RIMBEY LIQUOR MART,(403) 620-1228,NOFAX,4806 51 STREET, , ,PO BOX 484, , ,RIMBEY,T0C 2J0
77636700,RIMBEY LIQUOR STORE,(403) 843-2520,NOFAX,5125 50 AVENUE, , ,PO BOX 1760, , ,RIMBEY,T0C 2J0
78012400,EVERGREEN CO-OP LIQUOR - RIMBEY,(403) 844-3604,NOFAX,5033 51 AVENUE, , ,PO BOX 9, , ,RIMBEY,T0C 2J0
76572800,REAL CANADIAN LIQUOR STORE,(403) 846-4720,(403) 846-4724,5520 46 STREET, , ,PO BOX 640 STN MAIN 5520 46 STREET, , ,ROCKY MOUNTAIN HOUSE,T4T 1A5
76880700,GREAT CANADIAN LIQUOR COMPANY,(403) 847-1011,(403) 847-1012,4515 47 AVENUE, , ,11478 149 STREET NW, , ,ROCKY MOUNTAIN HOUSE,T4T 1C5
77049900,GATEWAY CROSSING LIQUOR,(403) 845-2841,(403) 845-5015,5311 48 STREET, , ,PO BOX 9, , ,ROCKY MOUNTAIN HOUSE,T4T 1A1
77091100,ROCKY LIQUOR STORE,(403) 845-3222,(403) 845-4661,4912 47 AVENUE, , ,PO BOX 880 STN MAIN, , ,ROCKY MOUNTAIN HOUSE,T4T 1E1
77140900,WALKING EAGLE LIQUOR STORE,(403) 845-4439,(403) 845-3685,A-4819 45 STREET, , ,PO BOX 1317, , ,ROCKY MOUNTAIN HOUSE,T4T 1A9
77479700,SOBEYS LIQUOR (ROCKY MOUNTAIN HOUSE),(403) 845-4861,(403) 845-2048,4513 52 AVENUE, , ,1020 64 AVENUE NE, , ,ROCKY MOUNTAIN HOUSE,T4T 1E8
77893300,TAMARACK MOTOR INN,(403) 845-5252,NOFAX,4904 45 STREET, , ,PO BOX 2860, , ,ROCKY MOUNTAIN HOUSE,T0M 1T0
77013900,COSTCO CANADA LIQUOR,(403) 295-1530,(403) 295-1589,302-293020 CROSSIRON COMMON, , ,302-293020 CROSSIRON COMMON, , ,ROCKY VIEW COUNTY,T4A 0J6
78010500,MK COUNTRY LIQUOR,(403) 796-5039,NOFAX,10070 TOWNSHIP ROAD 262, , ,128 HAWKWOOD WAY NW, , ,ROCKY VIEW COUNTY,T0M 0E0
75995100,DEE'S COLD BEER & LIQUOR STORE,(403) 533-2290,(403) 533-2479,115 MAIN STREET, , ,PO BOX 99, , ,ROCKYFORD,T0J 2R0
77737700,RYCROFT LIQUOR MART,(780) 765-2663,NOFAX,4507 44 STREET, , ,PO BOX 433, , ,RYCROFT,T0H 3A0
77671900,RYLEY LIQUOR STORE,(780) 994-9999,NOFAX,5024 50 STREET, , ,4013 MACTAGGART DRIVE, , ,RYLEY,T0B 4A0
77342000,REDNECK LIQUOR,(780) 785-2229,NOFAX,57001 HIGHWAY 757, , ,PO BOX 714, , ,SANGUDO,T0E 2A0
77396700,LIQUOR STOP,(780) 785-3393,NOFAX,4612 50 STREET, , ,PO BOX 720, , ,SANGUDO,T0E 2A0
76807800,BRANDYWINE & BREW,(780) 384-2422,(780) 384-3935,4846 47 STREET, , ,PO BOX 693, , ,SEDGEWICK,T0B 4C0
77811800,RAILSIDE SPIRITS,(780) 888-5846,NOFAX,4909 48 AVENUE, , ,PO BOX 504, , ,SEDGEWICK,T0B 4C0
76764500,SEXSMITH LIQUOR STORE,(780) 568-3888,(780) 568-3267,B-9929 100 STREET, , ,PO BOX 388, , ,SEXSMITH,T0H 3C0
77024400,WHAT ALES YOU,(780) 568-2250,(780) 568-2210,10004-1006 HIGHWAY STREET, , ,PO BOX 3088, , ,SEXSMITH,T0H 3C0
77963100,BOO-TOO SPIRITS,(403) 327-7883,NOFAX,109A 1 STREET, , ,PO BOX 139, , ,SHAUGHNESSY,T0K 2A0
75480200,SOBEYS LIQUOR (LAKELAND),(780) 464-9931,(780) 417-2533,120 LAKELAND RIDGE,590 BASELINE ROAD, ,1020 64 AVENUE NE, , ,SHERWOOD PARK,T8H 1Y4
75682200,REAL CANADIAN LIQUOR STORE,(780) 417-5239,(780) 417-5241,410 BASELINE ROAD, , ,100-410 BASELINE ROAD, , ,SHERWOOD PARK,T8H 2A7
76373300,PRAIRIE LAND LIQUOR STORE,(780) 464-4687,(780) 464-4687,SHERWOOD TOWNE SQUARE,224-390 BASELINE ROAD, ,7550 ELLERSLIE ROAD SW, , ,SHERWOOD PARK,T8H 1X1
76430900,MAPLEWOOD LIQUOR,(780) 417-9588,(780) 417-3627,16-52 BRENTWOOD BOULEVARD, , ,16-52 BRENTWOOD BOULEVARD, , ,SHERWOOD PARK,T8A 2H6
76445000,SOBEYS LIQUOR (NOTTINGHAM),(780) 416-2970,(780) 416-2854,688A WYE ROAD, , ,1020 64 AVENUE NE, , ,SHERWOOD PARK,T8A 6G3
76473200,LIQUOR DEPOT AT WYE RD SHERWOOD PARK,(780) 449-5555,(780) 449-5550,155-1020 SHERWOOD DRIVE, , ,101-17220 STONY PLAIN ROAD, , ,SHERWOOD PARK,T8A 2G8
76575100,COSTCO CANADA LIQUOR,(780) 416-0069,(780) 410-2553,2197 BROADMOOR BOULEVARD, , ,2197 BROADMOOR BOULEVARD, , ,SHERWOOD PARK,T8H 0A1
76716300,SPIRIT QUEST LIQUOR,(780) 922-1050,(780) 922-1031,71-22106 SOUTH COOKING LAKE ROAD, , ,51408 RANGE ROAD 224, , ,SHERWOOD PARK,T8E 1J1
76843900,LITTLE GUY LIQUOR CO.,(780) 417-9611,(780) 417-9611,126-270 BASELINE ROAD, , ,206-52152 RANGE ROAD 210, , ,SHERWOOD PARK,T8H 1R4
76963200,LIQUOR DEPOT AT SUMMERWOOD,(780) 449-3848,NOFAX,50-4005 CLOVERBAR ROAD, , ,101-17220 STONY PLAIN ROAD, , ,SHERWOOD PARK,T8H 0M4
76964300,SUBLIME WINES,(780) 467-9463,NOFAX,104-160 BROADWAY BOULEVARD, , ,104-160 BROADWAY BOULEVARD, , ,SHERWOOD PARK,T8H 2A3
77049700,MILLENNIUM LIQUOR,(780) 467-9808,(780) 416-1821,250-220 LAKELAND DRIVE, , ,1906 32A STREET NW, , ,SHERWOOD PARK,T8H 0N6
77096300,SOLO LIQUOR STORE (SHERWOOD PARK),(780) 467-5353,NOFAX,10 MAIN BOULEVARD, , ,1100-634 6 AVENUE SW, , ,SHERWOOD PARK,T8A 3W8
77107500,BASELINE WINE & SPIRITS CO.,(780) 449-4448,NOFAX,172-11 ATHABASCA AVENUE, , ,172-11 ATHABASCA AVENUE, , ,SHERWOOD PARK,T8A 6H2
77130500,EVERYTHING WINE AND MORE,(780) 417-3356,NOFAX,25-100 BROADVIEW DRIVE, , ,200-758 HARBOURSIDE DRIVE, , ,SHERWOOD PARK,T8H 0T5
77190700,WINE & BEYOND AT EMERALD HILLS,(780) 417-2821,(780) 702-1999,300-7000 EMERALD HILLS, , ,101-17220 STONY PLAIN ROAD, , ,SHERWOOD PARK,T8H 0P5
77383700,CROSSROADS LIQUOR,(780) 417-3422,NOFAX,46-975 BROADMOOR BOULEVARD, , ,46-975 BROADMOOR BOULEVARD, , ,SHERWOOD PARK,T8A 5W9
77457800,SOBEYS LIQUOR (EMERALD HILLS),(780) 410-0537,NOFAX,2-8005 EMERALD DRIVE, , ,1020 64 AVENUE NE, , ,SHERWOOD PARK,T8H 0P1
77548400,LIQUOR NATION,(780) 953-0462,NOFAX,104-2016 SHERWOOD DRIVE, , ,104-2016 SHERWOOD DRIVE, , ,SHERWOOD PARK,T8A 3X3
77556700,SUPER VALUE LIQUOR,(780) 570-5415,NOFAX,961-973 ORDZE ROAD, , ,929 WILDWOOD WAY NW, , ,SHERWOOD PARK,T8A 4L7
77595400,SOLO LIQUOR STORE (SALISBURY),(587) 269-2644,NOFAX,300-55 SALISBURY WAY, , ,1100-634 6 AVENUE SW, , ,SHERWOOD PARK,T8B 1K4
77753700,EAGLE SPIRITS,(780) 922-4551,NOFAX,21273 WYE ROAD, , ,341-52105 RANGE ROAD 225, , ,SHERWOOD PARK,T8G 1C7
77779400,THE LIQUOR TAP,(780) 908-0028,NOFAX,A-916 ASH STREET, , ,8621 152B AVENUE NW, , ,SHERWOOD PARK,T8A 2G1
77783500,BROS LIQUOR DISCOUNT,(587) 982-1050,NOFAX,850-800 BROADMOOR BOULEVARD, , ,4205 WESTCLIFF COURT, , ,SHERWOOD PARK,T8A 4Y6
77826500,LIQUOR EXCHANGE,(780) 570-0304,NOFAX,410-420 3842 SHERWOOD DRIVE, , ,334 WINDROW CRESCENT SW, , ,SHERWOOD PARK,T8H 0Z9
77948600,GRANADA LIQUOR BARN,(780) 989-7601,NOFAX,200-101 GRANADA BOULEVARD, , ,101-17220 STONY PLAIN ROAD NW, , ,SHERWOOD PARK,T8A 4W2
77996100,ACE LIQUOR DISCOUNTER AT BASELINE,(780) 467-7617,NOFAX,46-665 BASELINE ROAD, , ,101-17220 STONY PLAIN ROAD, , ,SHERWOOD PARK,T8A 5V9
77999500,ACE LIQUOR DISCOUNTER AT WYE ROAD,(780) 917-4180,NOFAX,260-664 WYE ROAD, , ,101-17220 STONY PLAIN ROAD, , ,SHERWOOD PARK,T8A 6G3
78061800,CHOICE LIQUOR,-,NOFAX,17-99 WYE ROAD, , ,6920 164 AVENUE NW, , ,SHERWOOD PARK,T8B 1M1
76517800,LIQUOR DEPOT AT SLAVE LAKE,(780) 849-6699,(780) 805-8833,1116 MAIN STREET SOUTH, , ,101-17220 STONY PLAIN ROAD, , ,SLAVE LAKE,T0G 2A3
76721900,SLAVE LAKE LIQUOR STORE,(780) 849-4954,NOFAX,1108 MAIN STREET, , ,PO BOX 3202, , ,SLAVE LAKE,T0G 2A0
77534100,GREAT CANADIAN LIQUOR,(780) 483-8183,NOFAX,101 2 AVENUE NW, , ,11478 149 STREET NW, , ,SLAVE LAKE,T0G 2A0
77999400,ACE LIQUOR DISCOUNTER AT CORNERSTONE,(780) 917-4180,NOFAX,301B-1500 MAIN STREET SW, , ,101-17220 STONY PLAIN ROAD, , ,SLAVE LAKE,T0G 2A4
77335400,T.A.P.'S LIQUOR,(780) 829-3736,(780) 829-3735,701 9 STREET, , ,701 9 STREET, , ,SMITH,T0G 2B0
76939700,RED CHIMNEY LIQUOR STORE,(780) 656-3526,NOFAX,35 WHITE EARTH STREET, , ,PO BOX 429, , ,SMOKY LAKE,T0A 3C0
77588300,SMOKY LAKE LIQUOR STORE,(780) 265-2649,NOFAX,4329 56 STREET, , ,PO BOX 1169, , ,SMOKY LAKE,T0A 3C0
77702800,GOFER LIQUOR,(780) 656-5502,NOFAX,5504 44 AVENUE, , ,PO BOX 732, , ,SMOKY LAKE,T0A 3C0
78042400,SPEDDEN LIQUOR STORE,(780) 293-4730,NOFAX,12304 HIGHWAY 28, , ,PO BOX 274, , ,SPEDDEN,T0A 3E0
76988100,CORK 'N GRAINS LIQUOR STORE,(780) 864-3865,(780) 864-3862,B-4720 49 AVENUE, , ,PO BOX 656, , ,SPIRIT RIVER,T0H 3G0
77653700,GRUMPY'S LIQUOR HUT,(780) 835-1929,NOFAX,4904 50 STREET, , ,PO BOX 2605, , ,SPIRIT RIVER,T0H 3G0
77111700,SPRINGBROOK LIQUOR STORE,(403) 396-5276,NOFAX,3216B 22 STREET, , ,PO BOX 698, , ,SPRINGBROOK,T4S 1W4
75413400,SOBEYS LIQUOR (SPRUCE GROVE),(780) 962-0545,(780) 962-0796,168 HIGHWAY 16, , ,1020 64 AVENUE NE, , ,SPRUCE GROVE,T7X 3X3
75990300,REAL CANADIAN LIQUOR STORE,(780) 960-7437,(780) 960-7438,20-110 JENNIFER HEIL WAY, , ,20-110 JENNIFER HEIL WAY, , ,SPRUCE GROVE,T7X 3Z3
76286500,LIQUOR FORT,(780) 960-6650,(780) 960-6648,C-98 MCLEOD AVENUE, , ,C-98 MCLEOD AVENUE, , ,SPRUCE GROVE,T7X 1R2
76658400,LIQUOR ON MCLEOD LAKEWOOD,(780) 962-2337,(780) 960-2337,300-700 MCLEOD AVENUE, , ,300-700 MCLEOD AVENUE, , ,SPRUCE GROVE,T7X 0C8
76658500,BEER SHAK,(780) 962-3992,NOFAX,50-4 SPRUCE RIDGE DRIVE, , ,8 GREYSTONE BAY, , ,SPRUCE GROVE,T7X 4S3
77042000,LIQUORS R US,(780) 960-0071,(780) 960-0125,5103-250 KING STREET, , ,209 CALAHOO ROAD, , ,SPRUCE GROVE,T7X 3A2
77487200,SOLO LIQUOR STORE (HAWTHORNE),(780) 962-4200,NOFAX,1-1 HAWTHORNE GATE, , ,1100-634 6 AVENUE SW, , ,SPRUCE GROVE,T4V 4W1
77563900,IMPERIAL KING LIQUOR,(780) 655-5289,NOFAX,26-100 KING STREET, , ,2410 WAVE CRESCENT NW, , ,SPRUCE GROVE,T7X 3A2
77608300,DEER PARK LIQUOR STORE,(780) 960-8727,NOFAX,100-2 DEER PARK DRIVE, , ,100-2 DEER PARK DRIVE, , ,SPRUCE GROVE,T7X 0K8
77618900,ONCE UPON A BOTTLE,(780) 863-7745,NOFAX,C-128 QUEEN STREET, , ,C-128 QUEEN STREET, , ,SPRUCE GROVE,T7X 2Z7
77630200,MAPLE LIQUOR DISCOUNTER,(780) 571-2215,NOFAX,93 MCLEOD AVENUE, , ,PO BOX 5009, , ,SPRUCE GROVE,T7X 2Z9
77674800,SOLO LIQUOR STORE (CENTURY ROAD),(780) 571-3746,NOFAX,11-98 LONGVIEW DRIVE, , ,1100-634 6 AVENUE SW, , ,SPRUCE GROVE,T7X 0W3
77762600,OWEN'S LIQUOR,(780) 960-1280,NOFAX,8-20 MCLEOD AVENUE, , ,8-20 MCLEOD AVENUE, , ,SPRUCE GROVE,T7X 3Y1
77764100,ACE LIQUOR DISCOUNTER,(780) 571-0080,NOFAX,12 MCLEOD AVENUE, , ,52 53217 RANGE ROAD 263, , ,SPRUCE GROVE,T7X 3Y1
77963200,DEEP DISCOUNT LIQUOR AT GROVE,(780) 962-6655,NOFAX,106-636 KING STREET, , ,101-17220 STONY PLAIN ROAD, , ,SPRUCE GROVE,T7X 4K5
77997600,ACE LIQUOR DISCOUNTER AT SPRUCE GROVE,(780) 917-4180,NOFAX,106-636 KING STREET, , ,101-17220 STONY PLAIN ROAD, , ,SPRUCE GROVE,T7X 4K5
78002300,ACE LIQUOR DISCOUNTER AT MCLEOD AVE,(780) 571-0080,NOFAX,12 MCLEOD AVENUE, , ,101-17220 STONY PLAIN ROAD, , ,SPRUCE GROVE,T7X 3Y1
78044800,LIQUOR KING,(780) 271-6233,NOFAX,209 CALAHOO ROAD, , ,209 CALAHOO ROAD, , ,SPRUCE GROVE,T7X 1R1
78049500,SOLO LIQUOR AT SPRUCE GROVE,(780) 917-4180,NOFAX,201C 1 AVENUE, , ,101-17220 STONY PLAIN ROAD, , ,SPRUCE GROVE,T7X 2K6
77244500,SPRUCE VIEW LIQUOR STORE,(403) 728-0072,NOFAX,1918 10 AVENUE, , ,620146 AVENUE, , ,SPRUCE VIEW,T0M 1V0
60151700,ST. ALBERT INN & SUITES,(780) 459-5551,(780) 460-7687,156 ST  ALBERT TRAIL, , ,156 ST  ALBERT TRAIL, , ,ST ALBERT,T8N 0P5
75627400,CAMPBELL LIQUOR STORE,(780) 419-3444,(780) 419-3513,3 CURIAL DRIVE, , ,3 CURIAL DRIVE, , ,ST ALBERT,T8N 6P6
75901100,REAL CANADIAN LIQUOR STORE,(780) 418-6827,(780) 418-6828,101 ST ALBERT TRAIL, , ,20 101 ST ALBERT TRAIL, , ,ST ALBERT,T8N 6L5
76136400,MISSION LIQUOR MART,(780) 460-1773,(780) 459-4667,108-80 MCKENNEY AVENUE, , ,108-80 MCKENNEY AVENUE, , ,ST ALBERT,T8N 2G4
76420200,LACOMBE PARK SPIRITS,(780) 418-7275,(780) 418-7205,202-506A ST ALBERT TRAIL, , ,202-506A ST ALBERT TRAIL, , ,ST ALBERT,T8N 5Z1
76447600,BELLEROSE LIQUOR STORE,(780) 419-6038,(780) 479-5233,INGLEWOOD TOWNE CENTRE,11 BELLEROSE DRIVE, ,7631 158 AVENUE NW, , ,ST ALBERT,T8N 5C9
76932200,SARGENT LIQUOR STORE,(780) 419-2464,NOFAX,140-190 BOUDREAU ROAD, , ,140-190 BOUDREAU ROAD, , ,ST ALBERT,T8N 6B9
77215100,RIVERCREST LIQUORAMA,(780) 651-3233,(780) 651-3234,4 RIVERCREST PLAZA,367 ST. ALBERT ROAD, ,4-367 ST ALBERT ROAD, , ,ST ALBERT,T8N 0R1
77329600,COSTCO LIQUOR,(780) 459-5322,NOFAX,20-1075 ST ALBERT TRAIL, , ,20-1075 ST ALBERT TRAIL, , ,ST ALBERT,T8N 4K6
77369400,HICKS FINE WINES,(780) 569-5000,NOFAX,109-150 BELLEROSE DRIVE, , ,109-150 BELLEROSE DRIVE, , ,ST ALBERT,T8N 5C9
77723000,BOSS LIQUOR,(780) 200-8194,NOFAX,10 TACHE MEWS WEST, , ,7823 16 AVENUE SW, , ,ST ALBERT,T8N 7T4
77752400,LIQUID HARVEST,(780) 667-7251,NOFAX,B-101 RIEL DRIVE, , ,B-101 RIEL DRIVE, , ,ST ALBERT,T8N 3X4
77871900,LIQUOR EX OUTLET STORES INC.,(780) 458-5257,NOFAX,112-25 CHISHOLM AVENUE, , ,112 25 CHISHOLM AVENUE, , ,ST ALBERT,T8N 5A5
77970200,WINE AND BEYOND AT ST. ALBERT,(780) 898-7601,NOFAX,200-760 ST ALBERT TRAIL, , ,101-17220 STONY PLAIN ROAD, , ,ST ALBERT,T8N 3P8
77974500,OLYMPIA LIQUOR CITADEL,(403) 605-6529,NOFAX,300-655 ST ALBERT TRAIL, , ,20-6624 CENTRE STREET SE, , ,ST ALBERT,T8N 3L3
77989800,LIQUOR DEPOT AT ST. ALBERT SOUTH,(780) 460-8610,NOFAX,102-392 ST ALBERT ROAD, , ,101-17220 STONY PLAIN ROAD NW, , ,ST ALBERT,T8N 5J9
77999600,ACE LIQUOR DISCOUNTER AT INGLEWOOD,(780) 460-1870,NOFAX,7 INGLEWOOD DRIVE, , ,101-17220 STONY PLAIN ROAD NW, , ,ST ALBERT,T8N 5E2
78002500,ACE LIQUOR DISCOUNTER AT HEBERT,(780) 989-7645,NOFAX,141-1 HEBERT  ROAD, , ,101-17220 STONY PLAIN ROAD, , ,ST ALBERT,T8N 2E7
78004000,DRINKS & BEYOND AT ST ALBERT NORTH,(780) 989-7601,NOFAX,210-700 ST ALBERT TRAIL, , ,101-17220 STONY PLAIN ROAD NW, , ,ST ALBERT,T8N 7J7
78043800,CO-OP LIQUOR AT INGLEWOOD,(780) 963-0500,NOFAX,260-525 ST ALBERT TRAIL, , ,318 NORTH PARK DRIVE, , ,ST ALBERT,T8N 4J8
78049600,SOLO LIQUOR AT ST. ALBERT,(780) 917-4180,NOFAX,1500 TUDOR GLEN MARKET, , ,101-17220 STONY PLAIN ROAD, , ,ST ALBERT,T8N 3V3
76995800,GREAT CANADIAN LIQUOR,(780) 645-5484,NOFAX,4309 50 AVENUE, , ,11478 149 STREET NW, , ,ST PAUL,T0A 3A3
76995900,MG'S LIQUOR MART - WESTBROOK MALL,(780) 483-8183,NOFAX,5556 50 AVENUE, , ,11478 149 STREET NW, , ,ST PAUL,T0A 3A1
77213500,CORNERSTONE CO-OP LIQUOR @ ST. PAUL,(780) 645-7701,NOFAX,3-5017 42 STREET, , ,3-5017 42 STREET, , ,ST PAUL,T0A 3A2
77804100,WEASEL'S LIQUOR STORE,(780) 645-4405,NOFAX,5102 50 AVENUE, , ,123 ELBOW RIDGE BLUFFS, , ,ST PAUL,T0A 3A0
77896600,SOBEYS LIQUOR ST. PAUL,(403) 730-3066,NOFAX,100-3932 49 AVENUE, , ,100-3932 49 AVENUE, , ,ST PAUL,T0A 3A2
76473100,DEEP DISCOUNT LIQUOR AT HEBERT ROAD,(780) 460-7774,(780) 459-5711,100-2 HEBERT ROAD, , ,101-17220 STONY PLAIN ROAD, , ,ST. ALBERT,T8N 5T8
76578100,DRINKS & BEYOND COLD BEER WINE SPIRITS,(780) 419-2360,(780) 419-2390,305-140 ST ALBERT ROAD S, , ,AT VILLAGE LANDING,101-17220 STONY PLAIN ROAD, ,ST. ALBERT,T8N 7C8
76637900,LIQUOR DEPOT AT ST. ALBERT SOUTH,(780) 460-8610,(780) 459-2502,102-392 ST ALBERT ROAD, , ,101-17220 STONY PLAIN ROAD, , ,ST. ALBERT,T8N 5J9
76690500,SOBEYS LIQUOR (SUMMIT),(780) 458-4705,(780) 458-4787,10-585 ST ALBERT ROAD, , ,1020 64 AVENUE NE, , ,ST. ALBERT,T8N 6G5
75784400,JUDE'S LIQUOR STORE,(403) 742-5455,(403) 742-5464,5922 50 AVENUE, , ,6111 38 AVENUE, , ,STETTLER,T0C 2L2
77266200,STETTLER LIQUOR,(403) 309-8913,(403) 341-5811,4821 62 STREET, , ,PO BOX 1715, , ,STETTLER,T0C 2L2
77336000,SOBEYS LIQUOR (STETTLER),(780) 486-8564,NOFAX,4706 50 STREET, , ,1020 64 AVENUE NE, , ,STETTLER,T0C 2L2
77879700,59TH STREET LIQUOR STORE,(403) 742-4540,NOFAX,4411 59 STREET, , ,4411 59 STREET, , ,STETTLER,T0C 2L1
77929300,KIMMER LIQUOR STORE,(403) 680-1785,NOFAX,6102 50 AVENUE, , ,6102 50 AVENUE, , ,STETTLER,T0C 2L2
77999800,ACE LIQUOR DISCOUNTER AT STETTLER,(780) 917-4180,NOFAX,4902 50 AVENUE, , ,101-17220 STONY PLAIN ROAD, , ,STETTLER,T0C 2L0
76637700,LIQUOR DEPOT AT STONY PLAIN,(780) 963-7176,(780) 963-7079,180-4300 SOUTH PARK DRIVE, , ,101-17220 STONY PLAIN ROAD, , ,STONY PLAIN,T7Z 2W7
77366100,SOBEYS LIQUOR (STONY PLAIN),(780) 968-4024,NOFAX,PLAIN,100-4410 48 STREET, ,1020 64 AVENUE NE, , ,STONY PLAIN,T7Z 1L4
77426900,LIQUOR DEPOT AT GENESIS ON THE LAKES,(780) 963-2960,NOFAX,TBA-100 GENESIS DRIVE, , ,101-17220 STONY PLAIN ROAD, , ,STONY PLAIN,T7Z 0G3
77685600,PLAINS WINE BEER & SPIRITS,(780) 591-5019,NOFAX,130-5211 50 STREET, , ,130-5211 50 STREET, , ,STONY PLAIN,T7Z 0C1
77745500,REGAL WINE & SPIRITS,(780) 963-6688,NOFAX,4613 52 AVENUE, , ,100-10025 JASPER AVENUE, , ,STONY PLAIN,T7Z 1E7
77921200,EDGE LIQUOR LTD.,(780) 963-4595,NOFAX,204-4101 49 AVENUE, , ,4241 CHARLES CLOSE SW, , ,STONY PLAIN,T7Z 0A9
77945800,HOTSHOT LIQUOR,(780) 235-4086,NOFAX,101-4301 SOUTH PARK DRIVE, , ,268-52327,RR 233, ,STONY PLAIN,T7Z 2A9
78003500,LIQUOR DEPOT AT STONY PLAIN,(780) 963-7176,NOFAX,180-4300 SOUTH PARK DRIVE, , ,101-17220 STONY PLAIN ROAD NW, , ,STONY PLAIN,T7Z 2W7
78049700,SOLO LIQUOR AT STONY PLAIN,(780) 917-4180,NOFAX,101-5013 48 STREET, , ,101-17220 STONY PLAIN ROAD, , ,STONY PLAIN,T7Z 1L8
77703000,J & K LIQUOR STOP,(780) 416-8665,NOFAX,51073 HIGHWAY 21, , ,3636 31A STREET NW, , ,STRATHCONA COUNTY,T8B 1K5
76182100,CC'S COLD BEER & LIQUOR STORE,(403) 934-6470,(403) 934-6471,510X-HIGHWAY 1, , ,201-7422 CROWFOOT ROAD NW, , ,STRATHMORE,T1P 1M6
76243000,CO-OP WINE SPIRITS BEER-STRATHMORE,(403) 901-0852,(403) 901-0854,130 EDGEFIELD PLACE, , ,130 EDGEFIELD PLACE, , ,STRATHMORE,T1P 0E8
76357200,REAL CANADIAN LIQUOR STORE,(403) 934-6520,(403) 934-6524,106-800 PINE ROAD, , ,106-800 PINE ROAD, , ,STRATHMORE,T1P 0A2
76830300,CRYSTAL RIDGE LIQUOR STORE,(403) 901-1600,NOFAX,7-55 WHEATLAND TRAIL, , ,201-7422 CROWFOOT ROAD NW, , ,STRATHMORE,T1P 1R7
76850200,CROWFOOT WINE & SPIRITS - RANCH MARKET,(403) 901-0521,(403) 901-0543,105L-100 RANCH MARKET, , ,201-7422 CROWFOOT ROAD NW, , ,STRATHMORE,T1P 0A8
77163500,SOBEYS LIQUOR (STRATHMORE),(403) 934-3139,NOFAX,BEER,113-100 RANCH MARKET, ,1020 64 AVENUE NE, , ,STRATHMORE,T1P 0A8
77543400,11-ELEVEN LIQUOR,-,NOFAX,215A 2 AVENUE, , ,141 CORAL REEF MANOR NE, , ,STRATHMORE,T1P 1K1
77566200,WHEATLAND LIQUOR DISCOUNTER,(403) 922-2000,NOFAX,602 WESTMOUNT ROAD, , ,38 SHANNON TERRACE SW, , ,STRATHMORE,T1P 1W8
77084600,LEN'S LIQUOR,(780) 523-5188,(780) 523-5189,HIGHWAY 2 & RANGE ROAD 152, , ,PO BOX 457, , ,SUCKER CREEK RESERVE,T0G 0W0
76570000,MAIN AVENUE COLD BEER & LIQUOR STORE,(403) 638-4700,(403) 638-4547,PRAIRIE CREEK SHOPPING PLAZA,BAY H-557 MAIN AVENUE W, ,PO BOX 1468, , ,SUNDRE,T0M 1X0
76785800,COLDER BEER & LIQUOR STORE,(403) 638-4547,(403) 638-4547,205 MAIN AVENUE W, , ,PO BOX 1427, , ,SUNDRE,T0M 1X0
76909100,COWBOY TRAIL LIQUOR STORE,(403) 638-9881,(403) 638-9882,103 MAIN AVENUE E, , ,PO BOX 1430, , ,SUNDRE,T0M 1X0
77758800,BERGEN ROAD LIQUOR STORE,(403) 638-9334,NOFAX,122 5 STREET SE, , ,PO BOX 2140, , ,SUNDRE,T0M 1X0
77123800,SWAN HILLS HOTEL,(780) 333-4411,(780) 333-4485,4932 PLAZA AVENUE, , ,PO BOX 170, , ,SWAN HILLS,T0G 2C0
77336200,SWAN HILLS LIQUOR,(780) 333-4959,NOFAX,4639 FEDERATED ROAD, , ,PO BOX 419,4639 FEDERATED ROAD, ,SWAN HILLS,T0G 2C0
76426900,PLAZA LIQUOR STORE,(403) 887-5151,(403) 887-6118,A7-5043 50A STREET, , ,A7-5043 50A STREET, , ,SYLVAN LAKE,T4S 1R1
76726000,ALL ABOARD FINE WINES & SPIRITS,(403) 887-8433,(403) 887-8431,75 HEWLETT PARK LANDING, , ,413 SIOUX ROAD, , ,SYLVAN LAKE,T4S 2J3
76846400,SOBEYS LIQUOR (SYLVAN LAKE),(403) 887-0862,(403) 887-7692,SYLVAN LAKE,500-3715 47 AVENUE, ,1020 64 AVENUE NE, , ,SYLVAN LAKE,T4S 0C8
76871200,BOTTOMS UP COLD BEER & LIQUOR STORE,(403) 887-2188,(403) 887-5993,4413 50 STREET, , ,11478 149 STREET NW, , ,SYLVAN LAKE,T4S 1J9
76871300,GREAT CANADIAN LIQUOR,(403) 887-3581,(403) 887-7166,10-5004 46 STREET, , ,11478 149 STREET NW, , ,SYLVAN LAKE,T4S 1C2
76882300,LAKEWAY LIQUOR,(403) 887-1500,(403) 887-1177,4-117 LAKEWAY BOULEVARD, , ,505 WISHART STREET, , ,SYLVAN LAKE,T4S 0A9
77203500,LAST CHANCE LIQUOR STORE,(403) 864-1260,NOFAX,120-49 HINSHAW  DRIVE, , ,120-49 HINSHAW DRIVE, , ,SYLVAN LAKE,T4S 0A5
77440700,LAKESHORE LIQUOR,(403) 864-2337,NOFAX,105-5227 LAKESHORE DRIVE, , ,105-5227 LAKESHORE DRIVE, , ,SYLVAN LAKE,T4S 1Y8
77565000,LIQUOR HUB,(403) 755-7749,NOFAX,202-25 BEJU INDUSTRIAL DRIVE, , ,42 LOWDEN CLOSE, , ,SYLVAN LAKE,T4S 0K9
77648200,OLYMPIA LIQUOR SYLVAN LAKE,(403) 605-6529,NOFAX,109-5015 50 STREET, , ,20-6624 CENTRE STREET SE, , ,SYLVAN LAKE,T4S 1P9
78048600,SOLO LIQUOR AT SYLVAN LAKE,(780) 989-7645,NOFAX,810-62 THEVENAZ INDUSTRIAL TRAIL, , ,101-17220 STONY PLAIN ROAD, , ,SYLVAN LAKE,T4S 0B6
74778700,TABER COLD BEER AND LIQUOR STORE,(403) 223-2241,(403) 223-2241,5335 47 AVENUE, , ,5335 47 AVENUE, , ,TABER,T1G 1R4
77774200,EVEREST WINE & SPIRITS,(403) 223-4944,NOFAX,5306 49 AVENUE, , ,3001 DUNMORE ROAD SE, , ,TABER,T1G 1T8
77987000,MAR & SOL,-,NOFAX,5003B 47 AVENUE, , ,1905 LAKEHILL CRESCENT SOUTH, , ,TABER,T1G 1R7
77993900,SUGAR TOWN SPIRITS LIQUOR,(403) 892-7481,NOFAX,82-6200 46 AVENUE, , ,94-6200 46 AVENUE, , ,TABER,T1G 2B1
76771800,THORHILD LIQUOR MART,(780) 398-2350,(780) 398-2351,802 2 STREET, , ,802 2 STREET,PO BOX 179, ,THORHILD,T0A 3J0
77676700,TOWN STORE,(780) 459-5750,NOFAX,230 2 STREET, , ,PO BOX 446, , ,THORHILD,T0A 3J0
78032400,BEER + BUBBLES LIQUOR STORE,(780) 219-0125,NOFAX,101 6 AVENUE, , ,PO BOX 750, , ,THORHILD,T0A 3J0
75690000,THORSBY LIQUOR STORE,(780) 789-3955,(780) 789-3955,4907 HANKIN STREET, , ,PO BOX 351, , ,THORSBY,T0C 2P0
77148800,TWISTED LIME LIQUOR CO.,(780) 789-0100,NOFAX,4902  52 STREET, , ,PO BOX 494, , ,THORSBY,T0C 2P0
76347200,SPIRITS HOPS & GRAPES,(403) 443-2700,(403) 443-7205,118 4 AVENUE N, , ,PO BOX 1135, , ,THREE HILLS,T0M 2A0
77532400,LAMPLIGHTER INN,(403) 443-5919,NOFAX,1204 2 STREET, , ,PO BOX 100, , ,THREE HILLS,T0M 2A0
75257400,TOFIELD SPIRITS BEER & LIQUOR STORE,(780) 662-4400,(780) 662-4487,5028  53 AVENUE, , ,PO BOX 797, , ,TOFIELD,T0B 4J0
76318000,BOONIE'S LIQUOR STOP,(780) 951-0066,NOFAX,2002 TWP 512, , ,2002 TWP 512, , ,TOFIELD,T0B 4J0
77693100,PARK STONE LIQUOR,(780) 938-7027,NOFAX,103-5116 46 AVENUE, , ,1114 ARMITAGE CRESCENT NW, , ,TOFIELD,T0B 4J0
77908000,TOFIELD LIQUOR MART,-,NOFAX,4936 52 AVENUE, , ,PO BOX 1055, , ,TOFIELD,T0B 4J0
77413400,TOMAHAWK LIQUOR,(780) 898-5844,NOFAX,4911 50 STREET, , ,PO BOX 239, , ,TOMAHAWK,T0E 2H0
76913100,LIQUORIAN LIQUOR CELLAR,(403) 442-2198,(403) 442-2198,319 ARENA AVENUE, , ,22 DOAN AVENUE, , ,TROCHU,T0M 2C0
77277800,TROCHU LIQUOR STORE,(403) 442-2696,(403) 442-2662,108 1 AVENUE N, , ,PO BOX 216, , ,TROCHU,T0M 2C0
76958700,VALLEY COLD BEER AND LIQUOR STORE,(403) 933-2722,(888) 482-9971,208 MAIN STREET NW, , ,PO BOX 1018, , ,TURNER VALLEY,T0L 2A0
77914300,TURNER VALLEY LIQUOR STORE,(403) 702-6780,NOFAX,101B SUNSET BOULEVARD SE, , ,PO BOX 910, , ,TURNER VALLEY,T0L 2A0
76803100,COSTLESS LIQUOR STORE,(780) 657-0022,(780) 657-0021,A-5023 47 AVENUE, , ,PO BOX 249, , ,TWO HILLS,T0B 4K0
77505900,TWO HILLS LIQUOR STORE,(780) 657-3303,NOFAX,4909 50 AVENUE, , ,4909 50 AVENUE, , ,TWO HILLS,T0B 4K0
77513700,JS LIQUOR STORE,(780) 657-2331,NOFAX,5101 54 AVENUE, , ,5101 54 AVENUE, , ,TWO HILLS,T0B 4K0
77076800,DJ'S LIQUOR STORE,(780) 524-3456,NOFAX,5015 50 AVENUE, , ,PO BOX 759, , ,VALLEYVIEW,T0H 3N0
77526700,VALLEYVIEW LIQUOR STORE,(780) 524-3314,NOFAX,4912 50 AVENUE, , ,4912 50 AVENUE, , ,VALLEYVIEW,T0H 3N0
77839400,VALLEYVIEW LIQUOR STATION,(780) 524-4646,NOFAX,3806 HIGHWAY STREET, , ,PO BOX 1322, , ,VALLEYVIEW,T0H 3N0
77512800,NATURAL GREEN LIQUOR STORE,(403) 654-4100,(403) 654-4118,427 2 AVENUE N, , ,PO BOX 409, , ,VAUXHALL,T0K 2K0
74222000,VEGREVILLE LIQUOR STORE,(780) 632-7732,(780) 632-4553,5041 52 AVENUE, , ,POSTAL DRAWER 929, , ,VEGREVILLE,T9C 1L3
75910100,LIQUOR DEN,(780) 632-6185,(780) 632-2677,5230 50 AVENUE, , ,5230 50 AVENUE, , ,VEGREVILLE,T9C 1M4
76894500,SALTY'S LIQUOR STORE LTD.,(780) 632-2500,NOFAX,1-6805 HWY 16A W, , ,PO BOX 94, , ,VEGREVILLE,T9C 0A4
76251100,VERMILION LIQUOR STORE,(780) 853-5131,(780) 853-5140,LAKELAND MALL,4408 RAILWAY AVENUE, ,LAKELAND MALL,4408 RAILWAY AVENUE, ,VERMILION,T9X 1E9
77432900,MAC'S LIQUOR STORE,(780) 853-4346,NOFAX,102-4420 RAILWAY AVENUE, , ,102-4420 RAILWAY AVENUE, , ,VERMILION,T9X 1G1
77570600,PRAIRIE PLACE LIQUOR,(780) 853-6333,NOFAX,102-5208 46 AVENUE, , ,102-5208 46 AVENUE, , ,VERMILION,T9X 1X8
77643900,LORRAINE'S LIQUOR STORE,(780) 885-4569,NOFAX,4905 50 STREET, , ,4905 50 STREET, , ,VERMILION,T9X 1C3
74152500,VIKING COLD BEER AND LIQUOR STORE,(780) 336-3321,(780) 336-3321,5320 50 STREET, , ,PO BOX 726, , ,VIKING,T0B 4N0
77428300,VIKING LIQUOR MART,(587) 999-8837,NOFAX,5323 50 STREET, , ,PO BOX 99, , ,VIKING,T0B 4N0
77940500,VILNA LIQUOR STORE,(780) 636-3615,NOFAX,5015 50 STREET, , ,PO BOX 177, , ,VILNA,T0A 3L0
76834700,VULCAN LIQUOR STORE,(403) 485-2366,NOFAX,124 1 STREET S, , ,PO BOX 1474, , ,VULCAN,T0L 2B0
76844200,HIGHWAY LIQUOR,(403) 485-5578,(403) 485-6822,120 SERVICE ROAD SE,HIGHWAY 23, ,PO BOX 1255, , ,VULCAN,T0L 2B0
77703200,BIG SKY BEER WINE & SPIRITS,(403) 878-6891,NOFAX,112 CENTRE STREET SOUTH, , ,221 STONEMERE CLOSE, , ,VULCAN,T0L 2B0
77106000,WABAMUN LAKESIDE LIQUOR,(780) 892-3463,(780) 892-3463,5221 52 STREET, , ,200 NELSON DRIVE, , ,WABAMUN,T0E 2K0
77970000,RIVERSIDE LIQUOR,(780) 257-6970,NOFAX,2001 MISTASSINIY ROAD, , ,2001 MISTASSINIY ROAD, , ,WABASCA,T0G 2K0
77475300,JESSE'S LIQUOR SHACK,(780) 891-4044,NOFAX,960 NOEL DRIVE, , ,801 6 AVENUE SW, , ,WABASCA-DESMARAIS,T0G 2K0
75773300,WAINWRIGHT LIQUOR & COLD BEER STORE,(780) 842-5752,(780) 842-3142,1206 10 STREET, , ,1206 10 STREET, , ,WAINWRIGHT,T9W 1E3
77363400,SOBEYS LIQUOR (WAINWRIGHT),(780) 842-2774,NOFAX,WAINWRIGHT,2840 13 AVENUE, ,1020 64 AVENUE NE, , ,WAINWRIGHT,T9W 0A2
77402400,CORNERSTONE CO-OP LIQUOR @ WAINWRIGHT,(780) 842-6133,NOFAX,2405 15 AVENUE, , ,5008 51 AVENUE, , ,WAINWRIGHT,T9W 0A4
77360000,QUICK STOP LIQUOR,(780) 771-2032,(780) 771-2034,101 MAIN STREET, , ,PO BOX 128, , ,WANDERING RIVER,T0A 3M0
77571400,WARBURG LIQUOR STORE,(780) 848-2336,NOFAX,6011 50 STREET, , ,PO BOX 27, , ,WARBURG,T0C 2T0
77915100,PEPPER'S LIQUOR STORE,(780) 358-2644,NOFAX,19338 HIGHWAY 28, , ,110-8020 SPARROW DRIVE, , ,WASKATENAU,T0A 3P0
76693900,WATER VALLEY CORNER LIQUOR STORE,(403) 637-0177,NOFAX,WATER VALLEY CORNER LIQUOR STORE, , ,PO BOX 223, , ,WATER VALLEY,T0M 2E0
75365800,MOUNTAIN SPIRITS LTD.,(403) 859-2015,(403) 859-2243,CAMERON FALLS DRIVE, , ,PO BOX 115, , ,WATERTON PARK,T0K 2M0
76239300,LAKE SASKATOON WINERY,780-766-2420,NOFAX,R.R. #1, , ,R.R. #1, , ,WEMBLEY,T0H 3S0
77892000,LET R' BUCK LIQUOR STORE,(780) 541-2111,NOFAX,9927 97 STREET, , ,PO BOX 10, , ,WEMBLEY,T0H 3S0
76320400,WESTERN SPIRITS,(780) 586-3835,(780) 586-3841,23 VILLAGE DRIVE, , ,23 VILLAGE DRIVE RR 2, , ,WESTEROSE,T0C 2V0
70404600,WESTLOCK INN,(780) 349-4483,(780) 349-6503,10411 100 STREET, , ,10411 100 STREET, , ,WESTLOCK,T7P 2G7
74218900,WESTLOCK LIQUOR STORE,(780) 349-3419,(780) 349-3419,10039 107 STREET, , ,10039 107 STREET, , ,WESTLOCK,T7P 2K7
77168200,SOBEYS LIQUOR (WESTLOCK),(780) 349-3520,NOFAX,9940 99 AVENUE, , ,1020 64 AVENUE NE, , ,WESTLOCK,T7P 1Y9
77376300,TOP SHELF LIQUOR STORE,(780) 765-7575,NOFAX,CAPRI CENTRE MALL,11-10404 100 STREET, ,215 64 STREET SW, , ,WESTLOCK,T7P 2C7
74692700,WETASKIWIN LIQUOR STORE,(780) 352-9761,(780) 352-0927,4021 56 STREET, , ,4021 56 STREET, , ,WETASKIWIN,T9A 1V1
75864800,SOUTHSIDE LIQUOR STORE - WETASKIWIN,(780) 352-8998,(780) 352-8977,5512 37A AVENUE, , ,5512 37A AVENUE, , ,WETASKIWIN,T9A 2P7
76870900,GREAT CANADIAN LIQUOR,(780) 352-7497,(780) 628-4709,5117 50 STREET, , ,11478 149 STREET NW, , ,WETASKIWIN,T9A 1K1
77116900,RED TAG LIQUOR STORE,(780) 352-7824,(780) 352-7829,3904 56 STREET, , ,3904 56 STREET, , ,WETASKIWIN,T9A 2B2
77208700,GENTLEMEN'S LIQUOR STORE,(780) 707-7154,NOFAX,4810 50 AVENUE, , ,50 POINTE MASSON, , ,WETASKIWIN,T9A 1J7
77524600,SUPER VALUE LIQUOR,(780) 995-8090,NOFAX,3752 56 STREET, , ,929 WILDWOOD WAY NW, , ,WETASKIWIN,T9A 2B2
77672300,A2Z LIQUOR,(780) 239-3100,NOFAX,110-4814 56 STREET, , ,110-4814 56 STREET, , ,WETASKIWIN,T9A 1V8
74301600,CJ'S LIQUOR,(780) 778-8989,(780) 778-5059,3823 CAXTON STREET, , ,PO BOX 1496 STN MAIN, , ,WHITECOURT,T7S 0A6
76175600,TIMIO'S LIQUOR DEPOSIT,(780) 778-8003,NOFAX,5113 50 STREET, , ,PO BOX 98 STN MAIN, , ,WHITECOURT,T7S 1N3
76646100,HOMETOWN LIQUOR TOWN,(780) 778-6488,(780) 489-9806,4-5004 DAHL DRIVE, , ,125-625 PARSONS ROAD SW, , ,WHITECOURT,T7S 1X6
76718500,PINE PLAZA LIQUOR STORE,(780) 778-5260,(780) 778-5260,2 3732 KEPLER STREET, , ,PO BOX 397 STN MAIN, , ,WHITECOURT,T7S 0A2
77152100,LIQUOR DEPOT AT WHITECOURT,(780) 778-2068,(780) 778-2801,2-3301 35 STREET, , ,101-17220 STONY PLAIN ROAD, , ,WHITECOURT,T7S 0A2
77324000,VALLEY MALL LIQUOR TOWN,(780) 778-6227,NOFAX,13-4802 51 STREET, , ,125-625 PARSONS ROAD SW, , ,WHITECOURT,T7S 1R9
78049800,SOLO LIQUOR AT WHITECOURT,(780) 917-4180,NOFAX,105-3815 CAXTON STREET, , ,101-17220 STONY PLAIN ROAD, , ,WHITECOURT,T7S 1S1
77925100,WILLINGDON #1 CONVENIENCE/LIQUOR,(604) 442-5456,NOFAX,5013 50 STREET, , ,PO BOX 420, , ,WILLINGDON,T0B 4R0
77137400,WINFIELD LIQUOR LOFT,(780) 682-2474,(780) 696-3902,200 CENTRE STREET, , ,PO BOX 419, , ,WINFIELD,T0C 2X0
76452000,CARROT CREEK STORE,(780) 795-2400,(780) 795-2400,CARROT CREEK STORE, , ,PO BOX 510, , ,YELLOWHEAD COUNTY (EDSON DISTRICT),T0E 0G0
77279300,WILDWOOD HOTEL,(780) 325-2000,(780) 325-2001,4830 51 AVENUE, , ,PO BOX 353, , ,YELLOWHEAD COUNTY (WILDWOOD DISTRICT),T0E 2M0

